{
  "type": "FeatureCollection",
  "metadata": {
    "host_taxon": {
      "canonical_name": "Columnea grata",
      "rank": "species",
      "family": "Gesneriaceae",
      "genus": "Columnea",
      "species": "Columnea grata",
      "slug": "species_columnea_grata",
      "resolvable_to_gbif": true,
      "use_for_default_download": true,
      "association_count": 1,
      "butterfly_taxa": [
        "Hyposcada virginiana"
      ],
      "confidence_counts": {
        "medium": 1
      },
      "occurrence_file": "occurrences/species_columnea_grata.geojson",
      "gbif_resolution": {
        "query": "Columnea grata",
        "rank": "species",
        "status": "resolved",
        "gbif_taxon_key": 5590069,
        "accepted_usage_key": null,
        "scientific_name": "Columnea grata (Oerst. ex Hanst.) C.V.Morton",
        "canonical_name": "Columnea grata",
        "gbif_rank": "SPECIES",
        "taxonomic_status": "ACCEPTED",
        "match_type": "EXACT",
        "confidence": 100,
        "kingdom": "Plantae",
        "family": "Gesneriaceae",
        "genus": "Columnea",
        "resolved_at": "2026-05-21T03:57:25+00:00"
      },
      "gbif_taxon_key": 5590069,
      "gbif_status": "resolved",
      "occurrence_count": 0,
      "occurrence_mode": "not_generated",
      "occurrence_cap": null
    },
    "gbif_resolution": {
      "query": "Columnea grata",
      "rank": "species",
      "status": "resolved",
      "gbif_taxon_key": 5590069,
      "accepted_usage_key": null,
      "scientific_name": "Columnea grata (Oerst. ex Hanst.) C.V.Morton",
      "canonical_name": "Columnea grata",
      "gbif_rank": "SPECIES",
      "taxonomic_status": "ACCEPTED",
      "match_type": "EXACT",
      "confidence": 100,
      "kingdom": "Plantae",
      "family": "Gesneriaceae",
      "genus": "Columnea",
      "resolved_at": "2026-05-21T03:57:25+00:00"
    },
    "occurrence_query": {
      "method": "gbif_download_api",
      "download_key": "0004690-260519110011954",
      "download_doi": "10.15468/dl.s2gcc3",
      "download_doi_url": "https://doi.org/10.15468/dl.s2gcc3",
      "limit": null,
      "dedupe": "Exact duplicate coordinates removed per taxon after DWCA download.",
      "filters": "GBIF Download API DWCA with TAXON_KEY, HAS_COORDINATE=true, HAS_GEOSPATIAL_ISSUE=false, OCCURRENCE_STATUS=PRESENT; app study extent and coordinate uncertainty <=100km applied locally.",
      "returned_unique_coordinate_records": 20
    },
    "scientific_caveat": "GBIF plant occurrences are sampling-biased context records and do not prove local host use or ecological availability for the butterfly.",
    "generated_at": "2026-05-21T15:57:19+00:00"
  },
  "features": [
    {
      "type": "Feature",
      "geometry": {
        "type": "Point",
        "coordinates": [
          -83.725,
          9.7875
        ]
      },
      "properties": {
        "gbifID": "1257839843",
        "species": "Columnea grata",
        "genus": "Columnea",
        "family": "Gesneriaceae",
        "scientificName": "Columnea grata (Oerst. ex Hanst.) C.V.Morton",
        "coordinateUncertaintyInMeters": "",
        "basisOfRecord": "PRESERVED_SPECIMEN",
        "eventDate": "2003-09-20",
        "country": null,
        "datasetName": "Tropicos",
        "publisher": "Missouri Botanical Garden",
        "license": "CC_BY_4_0",
        "issues": [
          "OCCURRENCE_STATUS_INFERRED_FROM_INDIVIDUAL_COUNT",
          "GEODETIC_DATUM_ASSUMED_WGS84",
          "INSTITUTION_MATCH_FUZZY",
          "COLLECTION_MATCH_NONE",
          "TAXON_ID_NOT_FOUND"
        ],
        "fallback_media": {
          "url": "https://inaturalist-open-data.s3.amazonaws.com/photos/491771663/original.jpg",
          "references": "https://www.inaturalist.org/photos/491771663",
          "title": null,
          "creator": "Irene",
          "publisher": "iNaturalist",
          "license": "http://creativecommons.org/publicdomain/zero/1.0/",
          "rightsHolder": "Irene"
        }
      }
    },
    {
      "type": "Feature",
      "geometry": {
        "type": "Point",
        "coordinates": [
          -83.94,
          10.14
        ]
      },
      "properties": {
        "gbifID": "1259775655",
        "species": "Columnea grata",
        "genus": "Columnea",
        "family": "Gesneriaceae",
        "scientificName": "Columnea grata (Oerst. ex Hanst.) C.V.Morton",
        "coordinateUncertaintyInMeters": "",
        "basisOfRecord": "PRESERVED_SPECIMEN",
        "eventDate": "1983-02-19",
        "country": null,
        "datasetName": "Tropicos",
        "publisher": "Missouri Botanical Garden",
        "license": "CC_BY_4_0",
        "issues": [
          "OCCURRENCE_STATUS_INFERRED_FROM_INDIVIDUAL_COUNT",
          "GEODETIC_DATUM_ASSUMED_WGS84",
          "INSTITUTION_MATCH_FUZZY",
          "COLLECTION_MATCH_NONE",
          "TAXON_ID_NOT_FOUND"
        ],
        "media": [
          {
            "url": "https://images.mobot.org/tropicosimages3/detailimages/TropicosImages2/100124000/ADAB8542-5C93-41FA-940F-BBF7BA47D4C3.jpg",
            "references": "https://www.tropicos.org/ImageFullView.aspx?imageid=100124634",
            "title": "Chacón Gamboa - 388 - Costa Rica",
            "creator": "MBG",
            "publisher": null,
            "license": "http://creativecommons.org/licenses/by-nc-sa/3.0/",
            "rightsHolder": "MBG"
          }
        ]
      }
    },
    {
      "type": "Feature",
      "geometry": {
        "type": "Point",
        "coordinates": [
          -83.95,
          10.15
        ]
      },
      "properties": {
        "gbifID": "4031553890",
        "species": "Columnea grata",
        "genus": "Columnea",
        "family": "Gesneriaceae",
        "scientificName": "Columnea grata (Oerst. ex Hanst.) C.V.Morton",
        "coordinateUncertaintyInMeters": "",
        "basisOfRecord": "PRESERVED_SPECIMEN",
        "eventDate": "1995-09-26",
        "country": null,
        "datasetName": "Tropicos",
        "publisher": "Missouri Botanical Garden",
        "license": "CC_BY_4_0",
        "issues": [
          "OCCURRENCE_STATUS_INFERRED_FROM_INDIVIDUAL_COUNT",
          "GEODETIC_DATUM_ASSUMED_WGS84",
          "INSTITUTION_MATCH_FUZZY",
          "COLLECTION_MATCH_NONE",
          "TAXON_ID_NOT_FOUND"
        ],
        "media": [
          {
            "url": "https://images.mobot.org/tropicosimages3/detailimages/TropicosImages2/100124000/3FF656BF-BB47-447D-BAFC-7E0B90D6B830.jpg",
            "references": "https://www.tropicos.org/ImageFullView.aspx?imageid=100124633",
            "title": "Hammel - 19952 - Costa Rica",
            "creator": "MBG",
            "publisher": null,
            "license": "http://creativecommons.org/licenses/by-nc-sa/3.0/",
            "rightsHolder": "MBG"
          }
        ]
      }
    },
    {
      "type": "Feature",
      "geometry": {
        "type": "Point",
        "coordinates": [
          -83.725,
          9.783333
        ]
      },
      "properties": {
        "gbifID": "4032138463",
        "species": "Columnea grata",
        "genus": "Columnea",
        "family": "Gesneriaceae",
        "scientificName": "Columnea grata (Oerst. ex Hanst.) C.V.Morton",
        "coordinateUncertaintyInMeters": "",
        "basisOfRecord": "PRESERVED_SPECIMEN",
        "eventDate": "2006-04-23",
        "country": null,
        "datasetName": "Tropicos",
        "publisher": "Missouri Botanical Garden",
        "license": "CC_BY_4_0",
        "issues": [
          "OCCURRENCE_STATUS_INFERRED_FROM_INDIVIDUAL_COUNT",
          "COORDINATE_ROUNDED",
          "GEODETIC_DATUM_ASSUMED_WGS84",
          "INSTITUTION_MATCH_FUZZY",
          "COLLECTION_MATCH_NONE",
          "TAXON_ID_NOT_FOUND"
        ],
        "fallback_media": {
          "url": "https://inaturalist-open-data.s3.amazonaws.com/photos/491771663/original.jpg",
          "references": "https://www.inaturalist.org/photos/491771663",
          "title": null,
          "creator": "Irene",
          "publisher": "iNaturalist",
          "license": "http://creativecommons.org/publicdomain/zero/1.0/",
          "rightsHolder": "Irene"
        }
      }
    },
    {
      "type": "Feature",
      "geometry": {
        "type": "Point",
        "coordinates": [
          -83.94617,
          10.146972
        ]
      },
      "properties": {
        "gbifID": "4031715240",
        "species": "Columnea grata",
        "genus": "Columnea",
        "family": "Gesneriaceae",
        "scientificName": "Columnea grata (Oerst. ex Hanst.) C.V.Morton",
        "coordinateUncertaintyInMeters": "",
        "basisOfRecord": "PRESERVED_SPECIMEN",
        "eventDate": "2009-04-19",
        "country": null,
        "datasetName": "Tropicos",
        "publisher": "Missouri Botanical Garden",
        "license": "CC_BY_4_0",
        "issues": [
          "OCCURRENCE_STATUS_INFERRED_FROM_INDIVIDUAL_COUNT",
          "GEODETIC_DATUM_ASSUMED_WGS84",
          "INSTITUTION_MATCH_FUZZY",
          "COLLECTION_MATCH_NONE",
          "TAXON_ID_NOT_FOUND"
        ],
        "fallback_media": {
          "url": "https://inaturalist-open-data.s3.amazonaws.com/photos/491771663/original.jpg",
          "references": "https://www.inaturalist.org/photos/491771663",
          "title": null,
          "creator": "Irene",
          "publisher": "iNaturalist",
          "license": "http://creativecommons.org/publicdomain/zero/1.0/",
          "rightsHolder": "Irene"
        }
      }
    },
    {
      "type": "Feature",
      "geometry": {
        "type": "Point",
        "coordinates": [
          -83.19,
          9.455556
        ]
      },
      "properties": {
        "gbifID": "1257836231",
        "species": "Columnea grata",
        "genus": "Columnea",
        "family": "Gesneriaceae",
        "scientificName": "Columnea grata (Oerst. ex Hanst.) C.V.Morton",
        "coordinateUncertaintyInMeters": "",
        "basisOfRecord": "PRESERVED_SPECIMEN",
        "eventDate": "2007-03-01",
        "country": null,
        "datasetName": "Tropicos",
        "publisher": "Missouri Botanical Garden",
        "license": "CC_BY_4_0",
        "issues": [
          "OCCURRENCE_STATUS_INFERRED_FROM_INDIVIDUAL_COUNT",
          "COORDINATE_ROUNDED",
          "GEODETIC_DATUM_ASSUMED_WGS84",
          "INSTITUTION_MATCH_FUZZY",
          "COLLECTION_MATCH_NONE",
          "TAXON_ID_NOT_FOUND"
        ],
        "fallback_media": {
          "url": "https://inaturalist-open-data.s3.amazonaws.com/photos/491771663/original.jpg",
          "references": "https://www.inaturalist.org/photos/491771663",
          "title": null,
          "creator": "Irene",
          "publisher": "iNaturalist",
          "license": "http://creativecommons.org/publicdomain/zero/1.0/",
          "rightsHolder": "Irene"
        }
      }
    },
    {
      "type": "Feature",
      "geometry": {
        "type": "Point",
        "coordinates": [
          -83.398611,
          9.969445
        ]
      },
      "properties": {
        "gbifID": "1257516262",
        "species": "Columnea grata",
        "genus": "Columnea",
        "family": "Gesneriaceae",
        "scientificName": "Columnea grata (Oerst. ex Hanst.) C.V.Morton",
        "coordinateUncertaintyInMeters": "",
        "basisOfRecord": "PRESERVED_SPECIMEN",
        "eventDate": "2000-04-15",
        "country": null,
        "datasetName": "Tropicos",
        "publisher": "Missouri Botanical Garden",
        "license": "CC_BY_4_0",
        "issues": [
          "OCCURRENCE_STATUS_INFERRED_FROM_INDIVIDUAL_COUNT",
          "COORDINATE_ROUNDED",
          "GEODETIC_DATUM_ASSUMED_WGS84",
          "INSTITUTION_MATCH_FUZZY",
          "COLLECTION_MATCH_NONE",
          "TAXON_ID_NOT_FOUND"
        ],
        "media": [
          {
            "url": "https://images.mobot.org/tropicosimages3/detailimages/TropicosImages2/100124000/957D9FB2-15E2-4F75-ACC4-50E196382393.jpg",
            "references": "https://www.tropicos.org/ImageFullView.aspx?imageid=100124632",
            "title": "Mora Castro - 1065 - Costa Rica",
            "creator": "MBG",
            "publisher": null,
            "license": "http://creativecommons.org/licenses/by-nc-sa/3.0/",
            "rightsHolder": "MBG"
          }
        ]
      }
    },
    {
      "type": "Feature",
      "geometry": {
        "type": "Point",
        "coordinates": [
          -84.0444,
          10.2819
        ]
      },
      "properties": {
        "gbifID": "1936676173",
        "species": "Columnea grata",
        "genus": "Columnea",
        "family": "Gesneriaceae",
        "scientificName": "Columnea grata (Oerst. ex Hanst.) C.V.Morton",
        "coordinateUncertaintyInMeters": "",
        "basisOfRecord": "PRESERVED_SPECIMEN",
        "eventDate": "2002-07-28",
        "country": null,
        "datasetName": "",
        "publisher": "Real Jardín Botánico (CSIC)",
        "license": "CC_BY_NC_4_0",
        "issues": [
          "GEODETIC_DATUM_ASSUMED_WGS84",
          "CONTINENT_DERIVED_FROM_COORDINATES",
          "INSTITUTION_MATCH_NONE",
          "TAXON_ID_NOT_FOUND"
        ],
        "fallback_media": {
          "url": "https://inaturalist-open-data.s3.amazonaws.com/photos/491771663/original.jpg",
          "references": "https://www.inaturalist.org/photos/491771663",
          "title": null,
          "creator": "Irene",
          "publisher": "iNaturalist",
          "license": "http://creativecommons.org/publicdomain/zero/1.0/",
          "rightsHolder": "Irene"
        }
      }
    },
    {
      "type": "Feature",
      "geometry": {
        "type": "Point",
        "coordinates": [
          -83.48,
          10.0
        ]
      },
      "properties": {
        "gbifID": "44726852",
        "species": "Columnea grata",
        "genus": "Columnea",
        "family": "Gesneriaceae",
        "scientificName": "Columnea grata (Oerst. ex Hanst.) C.V.Morton",
        "coordinateUncertaintyInMeters": "",
        "basisOfRecord": "PRESERVED_SPECIMEN",
        "eventDate": "1995-11-06",
        "country": null,
        "datasetName": "",
        "publisher": "Museo Nacional de Costa Rica",
        "license": "CC_BY_4_0",
        "issues": [
          "RECORDED_DATE_INVALID",
          "GEODETIC_DATUM_ASSUMED_WGS84",
          "CONTINENT_DERIVED_FROM_COORDINATES",
          "INSTITUTION_MATCH_NONE",
          "TAXON_MATCH_HIGHERRANK"
        ],
        "fallback_media": {
          "url": "https://inaturalist-open-data.s3.amazonaws.com/photos/491771663/original.jpg",
          "references": "https://www.inaturalist.org/photos/491771663",
          "title": null,
          "creator": "Irene",
          "publisher": "iNaturalist",
          "license": "http://creativecommons.org/publicdomain/zero/1.0/",
          "rightsHolder": "Irene"
        }
      }
    },
    {
      "type": "Feature",
      "geometry": {
        "type": "Point",
        "coordinates": [
          -83.7,
          9.8
        ]
      },
      "properties": {
        "gbifID": "44722253",
        "species": "Columnea grata",
        "genus": "Columnea",
        "family": "Gesneriaceae",
        "scientificName": "Columnea grata (Oerst. ex Hanst.) C.V.Morton",
        "coordinateUncertaintyInMeters": "",
        "basisOfRecord": "PRESERVED_SPECIMEN",
        "eventDate": "1983-04-17",
        "country": null,
        "datasetName": "",
        "publisher": "Museo Nacional de Costa Rica",
        "license": "CC_BY_4_0",
        "issues": [
          "RECORDED_DATE_INVALID",
          "GEODETIC_DATUM_ASSUMED_WGS84",
          "CONTINENT_DERIVED_FROM_COORDINATES",
          "INSTITUTION_MATCH_NONE",
          "TAXON_MATCH_HIGHERRANK"
        ],
        "fallback_media": {
          "url": "https://inaturalist-open-data.s3.amazonaws.com/photos/491771663/original.jpg",
          "references": "https://www.inaturalist.org/photos/491771663",
          "title": null,
          "creator": "Irene",
          "publisher": "iNaturalist",
          "license": "http://creativecommons.org/publicdomain/zero/1.0/",
          "rightsHolder": "Irene"
        }
      }
    },
    {
      "type": "Feature",
      "geometry": {
        "type": "Point",
        "coordinates": [
          -83.687737,
          9.782842
        ]
      },
      "properties": {
        "gbifID": "5140432072",
        "species": "Columnea grata",
        "genus": "Columnea",
        "family": "Gesneriaceae",
        "scientificName": "Columnea grata (Oerst. ex Hanst.) C.V.Morton",
        "coordinateUncertaintyInMeters": "4.0",
        "basisOfRecord": "HUMAN_OBSERVATION",
        "eventDate": "2025-04-12T11:11:01",
        "country": null,
        "datasetName": "iNaturalist research-grade observations",
        "publisher": "iNaturalist.org",
        "license": "CC0_1_0",
        "issues": [
          "COORDINATE_ROUNDED",
          "CONTINENT_DERIVED_FROM_COORDINATES",
          "TAXON_ID_NOT_FOUND"
        ],
        "media": [
          {
            "url": "https://inaturalist-open-data.s3.amazonaws.com/photos/491771663/original.jpg",
            "references": "https://www.inaturalist.org/photos/491771663",
            "title": null,
            "creator": "Irene",
            "publisher": "iNaturalist",
            "license": "http://creativecommons.org/publicdomain/zero/1.0/",
            "rightsHolder": "Irene"
          },
          {
            "url": "https://inaturalist-open-data.s3.amazonaws.com/photos/491771588/original.jpg",
            "references": "https://www.inaturalist.org/photos/491771588",
            "title": null,
            "creator": "Irene",
            "publisher": "iNaturalist",
            "license": "http://creativecommons.org/publicdomain/zero/1.0/",
            "rightsHolder": "Irene"
          },
          {
            "url": "https://inaturalist-open-data.s3.amazonaws.com/photos/491771919/original.jpg",
            "references": "https://www.inaturalist.org/photos/491771919",
            "title": null,
            "creator": "Irene",
            "publisher": "iNaturalist",
            "license": "http://creativecommons.org/publicdomain/zero/1.0/",
            "rightsHolder": "Irene"
          },
          {
            "url": "https://inaturalist-open-data.s3.amazonaws.com/photos/491771753/original.jpg",
            "references": "https://www.inaturalist.org/photos/491771753",
            "title": null,
            "creator": "Irene",
            "publisher": "iNaturalist",
            "license": "http://creativecommons.org/publicdomain/zero/1.0/",
            "rightsHolder": "Irene"
          },
          {
            "url": "https://inaturalist-open-data.s3.amazonaws.com/photos/491771831/original.jpg",
            "references": "https://www.inaturalist.org/photos/491771831",
            "title": null,
            "creator": "Irene",
            "publisher": "iNaturalist",
            "license": "http://creativecommons.org/publicdomain/zero/1.0/",
            "rightsHolder": "Irene"
          },
          {
            "url": "https://inaturalist-open-data.s3.amazonaws.com/photos/491772032/original.jpg",
            "references": "https://www.inaturalist.org/photos/491772032",
            "title": null,
            "creator": "Irene",
            "publisher": "iNaturalist",
            "license": "http://creativecommons.org/publicdomain/zero/1.0/",
            "rightsHolder": "Irene"
          }
        ]
      }
    },
    {
      "type": "Feature",
      "geometry": {
        "type": "Point",
        "coordinates": [
          -84.187941,
          9.970203
        ]
      },
      "properties": {
        "gbifID": "1056244840",
        "species": "Columnea grata",
        "genus": "Columnea",
        "family": "Gesneriaceae",
        "scientificName": "Columnea grata (Oerst. ex Hanst.) C.V.Morton",
        "coordinateUncertaintyInMeters": "364.0",
        "basisOfRecord": "PRESERVED_SPECIMEN",
        "eventDate": "1857-05",
        "country": null,
        "datasetName": "",
        "publisher": "Natural History Museum",
        "license": "CC0_1_0",
        "issues": [
          "GEODETIC_DATUM_ASSUMED_WGS84",
          "INSTITUTION_MATCH_FUZZY",
          "COLLECTION_MATCH_FUZZY"
        ],
        "media": [
          {
            "url": "https://data.nhm.ac.uk/media/f0b742bf-bede-4aa4-b26d-3b9adf6c5c32",
            "references": null,
            "title": "BM000798061",
            "creator": null,
            "publisher": null,
            "license": "http://creativecommons.org/licenses/by/4.0/",
            "rightsHolder": "The Trustees of the Natural History Museum, London"
          }
        ]
      }
    },
    {
      "type": "Feature",
      "geometry": {
        "type": "Point",
        "coordinates": [
          -83.688562,
          9.78278
        ]
      },
      "properties": {
        "gbifID": "5920197938",
        "species": "Columnea grata",
        "genus": "Columnea",
        "family": "Gesneriaceae",
        "scientificName": "Columnea grata (Oerst. ex Hanst.) C.V.Morton",
        "coordinateUncertaintyInMeters": "4.0",
        "basisOfRecord": "HUMAN_OBSERVATION",
        "eventDate": "2025-04-12T11:22:55",
        "country": null,
        "datasetName": "iNaturalist research-grade observations",
        "publisher": "iNaturalist.org",
        "license": "CC0_1_0",
        "issues": [
          "COORDINATE_ROUNDED",
          "CONTINENT_DERIVED_FROM_COORDINATES",
          "TAXON_ID_NOT_FOUND"
        ],
        "media": [
          {
            "url": "https://inaturalist-open-data.s3.amazonaws.com/photos/542449311/original.jpg",
            "references": "https://www.inaturalist.org/photos/542449311",
            "title": null,
            "creator": "Irene",
            "publisher": "iNaturalist",
            "license": "http://creativecommons.org/publicdomain/zero/1.0/",
            "rightsHolder": "Irene"
          },
          {
            "url": "https://inaturalist-open-data.s3.amazonaws.com/photos/542449108/original.jpg",
            "references": "https://www.inaturalist.org/photos/542449108",
            "title": null,
            "creator": "Irene",
            "publisher": "iNaturalist",
            "license": "http://creativecommons.org/publicdomain/zero/1.0/",
            "rightsHolder": "Irene"
          },
          {
            "url": "https://inaturalist-open-data.s3.amazonaws.com/photos/542449154/original.jpg",
            "references": "https://www.inaturalist.org/photos/542449154",
            "title": null,
            "creator": "Irene",
            "publisher": "iNaturalist",
            "license": "http://creativecommons.org/publicdomain/zero/1.0/",
            "rightsHolder": "Irene"
          },
          {
            "url": "https://inaturalist-open-data.s3.amazonaws.com/photos/542449291/original.jpg",
            "references": "https://www.inaturalist.org/photos/542449291",
            "title": null,
            "creator": "Irene",
            "publisher": "iNaturalist",
            "license": "http://creativecommons.org/publicdomain/zero/1.0/",
            "rightsHolder": "Irene"
          },
          {
            "url": "https://inaturalist-open-data.s3.amazonaws.com/photos/542449258/original.jpg",
            "references": "https://www.inaturalist.org/photos/542449258",
            "title": null,
            "creator": "Irene",
            "publisher": "iNaturalist",
            "license": "http://creativecommons.org/publicdomain/zero/1.0/",
            "rightsHolder": "Irene"
          },
          {
            "url": "https://inaturalist-open-data.s3.amazonaws.com/photos/542449194/original.jpg",
            "references": "https://www.inaturalist.org/photos/542449194",
            "title": null,
            "creator": "Irene",
            "publisher": "iNaturalist",
            "license": "http://creativecommons.org/publicdomain/zero/1.0/",
            "rightsHolder": "Irene"
          },
          {
            "url": "https://inaturalist-open-data.s3.amazonaws.com/photos/542449226/original.jpg",
            "references": "https://www.inaturalist.org/photos/542449226",
            "title": null,
            "creator": "Irene",
            "publisher": "iNaturalist",
            "license": "http://creativecommons.org/publicdomain/zero/1.0/",
            "rightsHolder": "Irene"
          }
        ]
      }
    },
    {
      "type": "Feature",
      "geometry": {
        "type": "Point",
        "coordinates": [
          -83.641455,
          9.79112
        ]
      },
      "properties": {
        "gbifID": "5920251027",
        "species": "Columnea grata",
        "genus": "Columnea",
        "family": "Gesneriaceae",
        "scientificName": "Columnea grata (Oerst. ex Hanst.) C.V.Morton",
        "coordinateUncertaintyInMeters": "30.0",
        "basisOfRecord": "HUMAN_OBSERVATION",
        "eventDate": "2024-07-14T11:32:17",
        "country": null,
        "datasetName": "iNaturalist research-grade observations",
        "publisher": "iNaturalist.org",
        "license": "CC_BY_NC_4_0",
        "issues": [
          "CONTINENT_DERIVED_FROM_COORDINATES",
          "TAXON_ID_NOT_FOUND"
        ],
        "media": [
          {
            "url": "https://inaturalist-open-data.s3.amazonaws.com/photos/412711579/original.jpeg",
            "references": "https://www.inaturalist.org/photos/412711579",
            "title": null,
            "creator": "ariel_delgado",
            "publisher": "iNaturalist",
            "license": "http://creativecommons.org/licenses/by-nc/4.0/",
            "rightsHolder": "ariel_delgado"
          },
          {
            "url": "https://inaturalist-open-data.s3.amazonaws.com/photos/412711623/original.jpeg",
            "references": "https://www.inaturalist.org/photos/412711623",
            "title": null,
            "creator": "ariel_delgado",
            "publisher": "iNaturalist",
            "license": "http://creativecommons.org/licenses/by-nc/4.0/",
            "rightsHolder": "ariel_delgado"
          },
          {
            "url": "https://inaturalist-open-data.s3.amazonaws.com/photos/412711667/original.jpeg",
            "references": "https://www.inaturalist.org/photos/412711667",
            "title": null,
            "creator": "ariel_delgado",
            "publisher": "iNaturalist",
            "license": "http://creativecommons.org/licenses/by-nc/4.0/",
            "rightsHolder": "ariel_delgado"
          },
          {
            "url": "https://inaturalist-open-data.s3.amazonaws.com/photos/412711709/original.jpeg",
            "references": "https://www.inaturalist.org/photos/412711709",
            "title": null,
            "creator": "ariel_delgado",
            "publisher": "iNaturalist",
            "license": "http://creativecommons.org/licenses/by-nc/4.0/",
            "rightsHolder": "ariel_delgado"
          },
          {
            "url": "https://inaturalist-open-data.s3.amazonaws.com/photos/412712995/original.jpeg",
            "references": "https://www.inaturalist.org/photos/412712995",
            "title": null,
            "creator": "ariel_delgado",
            "publisher": "iNaturalist",
            "license": "http://creativecommons.org/licenses/by-nc/4.0/",
            "rightsHolder": "ariel_delgado"
          },
          {
            "url": "https://inaturalist-open-data.s3.amazonaws.com/photos/412713038/original.jpeg",
            "references": "https://www.inaturalist.org/photos/412713038",
            "title": null,
            "creator": "ariel_delgado",
            "publisher": "iNaturalist",
            "license": "http://creativecommons.org/licenses/by-nc/4.0/",
            "rightsHolder": "ariel_delgado"
          }
        ]
      }
    },
    {
      "type": "Feature",
      "geometry": {
        "type": "Point",
        "coordinates": [
          -84.044583,
          10.281972
        ]
      },
      "properties": {
        "gbifID": "1253762738",
        "species": "Columnea grata",
        "genus": "Columnea",
        "family": "Gesneriaceae",
        "scientificName": "Columnea grata (Oerst. ex Hanst.) C.V.Morton",
        "coordinateUncertaintyInMeters": "",
        "basisOfRecord": "PRESERVED_SPECIMEN",
        "eventDate": "2002-07-28",
        "country": null,
        "datasetName": "Atta",
        "publisher": "Instituto Nacional de Biodiversidad (INBio), Costa Rica",
        "license": "CC0_1_0",
        "issues": [
          "IDENTIFIED_DATE_INVALID",
          "COORDINATE_ROUNDED",
          "CONTINENT_DERIVED_FROM_COORDINATES",
          "CONTINENT_INVALID",
          "INSTITUTION_MATCH_FUZZY",
          "COLLECTION_MATCH_NONE",
          "TAXON_ID_NOT_FOUND"
        ],
        "fallback_media": {
          "url": "https://inaturalist-open-data.s3.amazonaws.com/photos/491771663/original.jpg",
          "references": "https://www.inaturalist.org/photos/491771663",
          "title": null,
          "creator": "Irene",
          "publisher": "iNaturalist",
          "license": "http://creativecommons.org/publicdomain/zero/1.0/",
          "rightsHolder": "Irene"
        }
      }
    },
    {
      "type": "Feature",
      "geometry": {
        "type": "Point",
        "coordinates": [
          -83.752778,
          9.788889
        ]
      },
      "properties": {
        "gbifID": "1253789777",
        "species": "Columnea grata",
        "genus": "Columnea",
        "family": "Gesneriaceae",
        "scientificName": "Columnea grata (Oerst. ex Hanst.) C.V.Morton",
        "coordinateUncertaintyInMeters": "",
        "basisOfRecord": "PRESERVED_SPECIMEN",
        "eventDate": "2003-01-30",
        "country": null,
        "datasetName": "Atta",
        "publisher": "Instituto Nacional de Biodiversidad (INBio), Costa Rica",
        "license": "CC0_1_0",
        "issues": [
          "IDENTIFIED_DATE_INVALID",
          "COORDINATE_ROUNDED",
          "CONTINENT_DERIVED_FROM_COORDINATES",
          "CONTINENT_INVALID",
          "INSTITUTION_MATCH_FUZZY",
          "COLLECTION_MATCH_NONE",
          "TAXON_ID_NOT_FOUND"
        ],
        "fallback_media": {
          "url": "https://inaturalist-open-data.s3.amazonaws.com/photos/491771663/original.jpg",
          "references": "https://www.inaturalist.org/photos/491771663",
          "title": null,
          "creator": "Irene",
          "publisher": "iNaturalist",
          "license": "http://creativecommons.org/publicdomain/zero/1.0/",
          "rightsHolder": "Irene"
        }
      }
    },
    {
      "type": "Feature",
      "geometry": {
        "type": "Point",
        "coordinates": [
          -83.946167,
          10.146972
        ]
      },
      "properties": {
        "gbifID": "1253888839",
        "species": "Columnea grata",
        "genus": "Columnea",
        "family": "Gesneriaceae",
        "scientificName": "Columnea grata (Oerst. ex Hanst.) C.V.Morton",
        "coordinateUncertaintyInMeters": "",
        "basisOfRecord": "PRESERVED_SPECIMEN",
        "eventDate": "2009-04-19",
        "country": null,
        "datasetName": "Atta",
        "publisher": "Instituto Nacional de Biodiversidad (INBio), Costa Rica",
        "license": "CC0_1_0",
        "issues": [
          "IDENTIFIED_DATE_INVALID",
          "COORDINATE_ROUNDED",
          "CONTINENT_DERIVED_FROM_COORDINATES",
          "CONTINENT_INVALID",
          "INSTITUTION_MATCH_FUZZY",
          "COLLECTION_MATCH_NONE",
          "TAXON_ID_NOT_FOUND"
        ],
        "fallback_media": {
          "url": "https://inaturalist-open-data.s3.amazonaws.com/photos/491771663/original.jpg",
          "references": "https://www.inaturalist.org/photos/491771663",
          "title": null,
          "creator": "Irene",
          "publisher": "iNaturalist",
          "license": "http://creativecommons.org/publicdomain/zero/1.0/",
          "rightsHolder": "Irene"
        }
      }
    },
    {
      "type": "Feature",
      "geometry": {
        "type": "Point",
        "coordinates": [
          -83.9625,
          10.166667
        ]
      },
      "properties": {
        "gbifID": "1253707505",
        "species": "Columnea grata",
        "genus": "Columnea",
        "family": "Gesneriaceae",
        "scientificName": "Columnea grata (Oerst. ex Hanst.) C.V.Morton",
        "coordinateUncertaintyInMeters": "",
        "basisOfRecord": "PRESERVED_SPECIMEN",
        "eventDate": "1988-05-17",
        "country": null,
        "datasetName": "Atta",
        "publisher": "Instituto Nacional de Biodiversidad (INBio), Costa Rica",
        "license": "CC0_1_0",
        "issues": [
          "IDENTIFIED_DATE_INVALID",
          "COORDINATE_ROUNDED",
          "CONTINENT_DERIVED_FROM_COORDINATES",
          "CONTINENT_INVALID",
          "INSTITUTION_MATCH_FUZZY",
          "COLLECTION_MATCH_NONE",
          "TAXON_ID_NOT_FOUND"
        ],
        "fallback_media": {
          "url": "https://inaturalist-open-data.s3.amazonaws.com/photos/491771663/original.jpg",
          "references": "https://www.inaturalist.org/photos/491771663",
          "title": null,
          "creator": "Irene",
          "publisher": "iNaturalist",
          "license": "http://creativecommons.org/publicdomain/zero/1.0/",
          "rightsHolder": "Irene"
        }
      }
    },
    {
      "type": "Feature",
      "geometry": {
        "type": "Point",
        "coordinates": [
          -83.686653,
          9.786798
        ]
      },
      "properties": {
        "gbifID": "1253785319",
        "species": "Columnea grata",
        "genus": "Columnea",
        "family": "Gesneriaceae",
        "scientificName": "Columnea grata (Oerst. ex Hanst.) C.V.Morton",
        "coordinateUncertaintyInMeters": "",
        "basisOfRecord": "PRESERVED_SPECIMEN",
        "eventDate": "2004-02-10",
        "country": null,
        "datasetName": "Atta",
        "publisher": "Instituto Nacional de Biodiversidad (INBio), Costa Rica",
        "license": "CC0_1_0",
        "issues": [
          "IDENTIFIED_DATE_INVALID",
          "COORDINATE_ROUNDED",
          "CONTINENT_DERIVED_FROM_COORDINATES",
          "CONTINENT_INVALID",
          "INSTITUTION_MATCH_FUZZY",
          "COLLECTION_MATCH_NONE",
          "TAXON_ID_NOT_FOUND"
        ],
        "fallback_media": {
          "url": "https://inaturalist-open-data.s3.amazonaws.com/photos/491771663/original.jpg",
          "references": "https://www.inaturalist.org/photos/491771663",
          "title": null,
          "creator": "Irene",
          "publisher": "iNaturalist",
          "license": "http://creativecommons.org/publicdomain/zero/1.0/",
          "rightsHolder": "Irene"
        }
      }
    },
    {
      "type": "Feature",
      "geometry": {
        "type": "Point",
        "coordinates": [
          -83.955556,
          10.152778
        ]
      },
      "properties": {
        "gbifID": "1253591775",
        "species": "Columnea grata",
        "genus": "Columnea",
        "family": "Gesneriaceae",
        "scientificName": "Columnea grata (Oerst. ex Hanst.) C.V.Morton",
        "coordinateUncertaintyInMeters": "",
        "basisOfRecord": "PRESERVED_SPECIMEN",
        "eventDate": "1988-06-23",
        "country": null,
        "datasetName": "Atta",
        "publisher": "Instituto Nacional de Biodiversidad (INBio), Costa Rica",
        "license": "CC0_1_0",
        "issues": [
          "IDENTIFIED_DATE_INVALID",
          "COORDINATE_ROUNDED",
          "CONTINENT_DERIVED_FROM_COORDINATES",
          "CONTINENT_INVALID",
          "INSTITUTION_MATCH_FUZZY",
          "COLLECTION_MATCH_NONE",
          "TAXON_ID_NOT_FOUND"
        ],
        "fallback_media": {
          "url": "https://inaturalist-open-data.s3.amazonaws.com/photos/491771663/original.jpg",
          "references": "https://www.inaturalist.org/photos/491771663",
          "title": null,
          "creator": "Irene",
          "publisher": "iNaturalist",
          "license": "http://creativecommons.org/publicdomain/zero/1.0/",
          "rightsHolder": "Irene"
        }
      }
    }
  ]
}
