{
  "type": "FeatureCollection",
  "metadata": {
    "host_taxon": {
      "canonical_name": "Cyphomandra corymbiflora",
      "rank": "species",
      "family": "Solanaceae",
      "genus": "Cyphomandra",
      "species": "Cyphomandra corymbiflora",
      "slug": "species_cyphomandra_corymbiflora",
      "resolvable_to_gbif": true,
      "use_for_default_download": true,
      "association_count": 2,
      "butterfly_taxa": [
        "Mechanitis polymnia",
        "Thyridia psidii"
      ],
      "confidence_counts": {
        "medium": 2
      },
      "occurrence_file": "occurrences/species_cyphomandra_corymbiflora.geojson",
      "gbif_resolution": {
        "query": "Cyphomandra corymbiflora",
        "rank": "species",
        "status": "resolved",
        "gbif_taxon_key": 2929608,
        "accepted_usage_key": 6070927,
        "scientific_name": "Cyphomandra corymbiflora Sendtn.",
        "canonical_name": "Cyphomandra corymbiflora",
        "gbif_rank": "SPECIES",
        "taxonomic_status": "SYNONYM",
        "match_type": "EXACT",
        "confidence": 100,
        "kingdom": "Plantae",
        "family": "Solanaceae",
        "genus": "Solanum",
        "resolved_at": "2026-05-21T03:57:28+00:00"
      },
      "gbif_taxon_key": 2929608,
      "gbif_status": "resolved",
      "occurrence_count": 0,
      "occurrence_mode": "not_generated",
      "occurrence_cap": null
    },
    "gbif_resolution": {
      "query": "Cyphomandra corymbiflora",
      "rank": "species",
      "status": "resolved",
      "gbif_taxon_key": 2929608,
      "accepted_usage_key": 6070927,
      "scientific_name": "Cyphomandra corymbiflora Sendtn.",
      "canonical_name": "Cyphomandra corymbiflora",
      "gbif_rank": "SPECIES",
      "taxonomic_status": "SYNONYM",
      "match_type": "EXACT",
      "confidence": 100,
      "kingdom": "Plantae",
      "family": "Solanaceae",
      "genus": "Solanum",
      "resolved_at": "2026-05-21T03:57:28+00:00"
    },
    "occurrence_query": {
      "method": "gbif_download_api",
      "download_key": "0004690-260519110011954",
      "download_doi": "10.15468/dl.s2gcc3",
      "download_doi_url": "https://doi.org/10.15468/dl.s2gcc3",
      "limit": null,
      "dedupe": "Exact duplicate coordinates removed per taxon after DWCA download.",
      "filters": "GBIF Download API DWCA with TAXON_KEY, HAS_COORDINATE=true, HAS_GEOSPATIAL_ISSUE=false, OCCURRENCE_STATUS=PRESENT; app study extent and coordinate uncertainty <=100km applied locally.",
      "returned_unique_coordinate_records": 18
    },
    "scientific_caveat": "GBIF plant occurrences are sampling-biased context records and do not prove local host use or ecological availability for the butterfly.",
    "generated_at": "2026-05-21T15:57:19+00:00"
  },
  "features": [
    {
      "type": "Feature",
      "geometry": {
        "type": "Point",
        "coordinates": [
          -53.87,
          -26.33
        ]
      },
      "properties": {
        "gbifID": "1852089169",
        "species": "Solanum corymbiflorum",
        "genus": "Solanum",
        "family": "Solanaceae",
        "scientificName": "Cyphomandra corymbiflora Sendtn.",
        "coordinateUncertaintyInMeters": "",
        "basisOfRecord": "PRESERVED_SPECIMEN",
        "eventDate": "",
        "country": null,
        "datasetName": "NMNH Extant Biology",
        "publisher": "National Museum of Natural History, Smithsonian Institution",
        "license": "CC0_1_0",
        "issues": [
          "OCCURRENCE_STATUS_INFERRED_FROM_INDIVIDUAL_COUNT",
          "GEODETIC_DATUM_ASSUMED_WGS84"
        ],
        "media": [
          {
            "url": "https://collections.nmnh.si.edu/media/?i=12654944&h=2000",
            "references": null,
            "title": "02840964.tif",
            "creator": "Conveyor Belt",
            "publisher": "Smithsonian Institution, NMNH, Botany",
            "license": "http://creativecommons.org/publicdomain/zero/1.0/",
            "rightsHolder": null
          }
        ]
      }
    },
    {
      "type": "Feature",
      "geometry": {
        "type": "Point",
        "coordinates": [
          -53.5,
          -27.13
        ]
      },
      "properties": {
        "gbifID": "1456418699",
        "species": "Solanum corymbiflorum",
        "genus": "Solanum",
        "family": "Solanaceae",
        "scientificName": "Cyphomandra corymbiflora Sendtn.",
        "coordinateUncertaintyInMeters": "",
        "basisOfRecord": "PRESERVED_SPECIMEN",
        "eventDate": "1964-10-16",
        "country": null,
        "datasetName": "NMNH Extant Biology",
        "publisher": "National Museum of Natural History, Smithsonian Institution",
        "license": "CC0_1_0",
        "issues": [
          "OCCURRENCE_STATUS_INFERRED_FROM_INDIVIDUAL_COUNT",
          "GEODETIC_DATUM_ASSUMED_WGS84",
          "TAXON_MATCH_HIGHERRANK"
        ],
        "media": [
          {
            "url": "https://collections.nmnh.si.edu/media/?i=11914964&h=2000",
            "references": null,
            "title": "01935872",
            "creator": "Reflora Team",
            "publisher": "Smithsonian Institution, NMNH, Botany",
            "license": "Usage Conditions Apply",
            "rightsHolder": null
          },
          {
            "url": "https://collections.nmnh.si.edu/media/?i=12663792&h=2000",
            "references": null,
            "title": "01935872.tif",
            "creator": "Conveyor Belt",
            "publisher": "Smithsonian Institution, NMNH, Botany",
            "license": "Usage Conditions Apply",
            "rightsHolder": null
          }
        ]
      }
    },
    {
      "type": "Feature",
      "geometry": {
        "type": "Point",
        "coordinates": [
          -50.7347,
          -29.3142
        ]
      },
      "properties": {
        "gbifID": "188382127",
        "species": "Solanum corymbiflorum",
        "genus": "Solanum",
        "family": "Solanaceae",
        "scientificName": "Cyphomandra corymbiflora Sendtn.",
        "coordinateUncertaintyInMeters": "",
        "basisOfRecord": "PRESERVED_SPECIMEN",
        "eventDate": "2001-01-21",
        "country": null,
        "datasetName": "Colección de plantas vasculares de Brasil del Herbario \"Jaime Andrés Rodríguez\". LEB-Brasil",
        "publisher": "Herbario Jaime Andrés Rodríguez (LEB). Universidad de León",
        "license": "CC_BY_NC_4_0",
        "issues": [
          "OCCURRENCE_STATUS_INFERRED_FROM_INDIVIDUAL_COUNT",
          "MODIFIED_DATE_INVALID",
          "GEODETIC_DATUM_ASSUMED_WGS84",
          "CONTINENT_DERIVED_FROM_COORDINATES",
          "INSTITUTION_MATCH_FUZZY",
          "COLLECTION_MATCH_NONE"
        ],
        "fallback_media": {
          "url": "https://media01.symbiota.org/media/h_seinet/seinet/ASU/ASU0049/ASU0049129_lg.jpg",
          "references": null,
          "title": null,
          "creator": null,
          "publisher": null,
          "license": null,
          "rightsHolder": "Arizona State University Vascular Plant Herbarium"
        }
      }
    },
    {
      "type": "Feature",
      "geometry": {
        "type": "Point",
        "coordinates": [
          -53.5,
          -27.133333
        ]
      },
      "properties": {
        "gbifID": "2997286670",
        "species": "Solanum corymbiflorum",
        "genus": "Solanum",
        "family": "Solanaceae",
        "scientificName": "Cyphomandra corymbiflora Sendtn.",
        "coordinateUncertaintyInMeters": "",
        "basisOfRecord": "PRESERVED_SPECIMEN",
        "eventDate": "1964-10-16",
        "country": null,
        "datasetName": "",
        "publisher": "Instituto de Pesquisas Jardim Botanico do Rio de Janeiro",
        "license": "CC_BY_4_0",
        "issues": [
          "COORDINATE_ROUNDED",
          "GEODETIC_DATUM_ASSUMED_WGS84",
          "CONTINENT_DERIVED_FROM_COORDINATES",
          "INSTITUTION_MATCH_FUZZY",
          "COLLECTION_MATCH_FUZZY",
          "TAXON_MATCH_HIGHERRANK"
        ],
        "fallback_media": {
          "url": "https://media01.symbiota.org/media/h_seinet/seinet/ASU/ASU0049/ASU0049129_lg.jpg",
          "references": null,
          "title": null,
          "creator": null,
          "publisher": null,
          "license": null,
          "rightsHolder": "Arizona State University Vascular Plant Herbarium"
        }
      }
    },
    {
      "type": "Feature",
      "geometry": {
        "type": "Point",
        "coordinates": [
          -50.174444,
          -29.480833
        ]
      },
      "properties": {
        "gbifID": "1090607466",
        "species": "Solanum corymbiflorum",
        "genus": "Solanum",
        "family": "Solanaceae",
        "scientificName": "Cyphomandra corymbiflora Sendtn.",
        "coordinateUncertaintyInMeters": "",
        "basisOfRecord": "PRESERVED_SPECIMEN",
        "eventDate": "1995-10-27",
        "country": null,
        "datasetName": "",
        "publisher": "Museu de Ciências e Tecnologia - PUCRS",
        "license": "CC_BY_4_0",
        "issues": [
          "COORDINATE_ROUNDED",
          "INSTITUTION_MATCH_NONE"
        ],
        "fallback_media": {
          "url": "https://media01.symbiota.org/media/h_seinet/seinet/ASU/ASU0049/ASU0049129_lg.jpg",
          "references": null,
          "title": null,
          "creator": null,
          "publisher": null,
          "license": null,
          "rightsHolder": "Arizona State University Vascular Plant Herbarium"
        }
      }
    },
    {
      "type": "Feature",
      "geometry": {
        "type": "Point",
        "coordinates": [
          -50.82545,
          -29.35203
        ]
      },
      "properties": {
        "gbifID": "1077426862",
        "species": "Solanum corymbiflorum",
        "genus": "Solanum",
        "family": "Solanaceae",
        "scientificName": "Cyphomandra corymbiflora Sendtn.",
        "coordinateUncertaintyInMeters": "",
        "basisOfRecord": "PRESERVED_SPECIMEN",
        "eventDate": "1974-09-29",
        "country": null,
        "datasetName": "",
        "publisher": "Fundação Zoobotânica do Rio Grande do Sul",
        "license": "CC_BY_4_0",
        "issues": [
          "CONTINENT_DERIVED_FROM_COORDINATES",
          "INSTITUTION_MATCH_FUZZY",
          "INSTITUTION_COLLECTION_MISMATCH"
        ],
        "fallback_media": {
          "url": "https://media01.symbiota.org/media/h_seinet/seinet/ASU/ASU0049/ASU0049129_lg.jpg",
          "references": null,
          "title": null,
          "creator": null,
          "publisher": null,
          "license": null,
          "rightsHolder": "Arizona State University Vascular Plant Herbarium"
        }
      }
    },
    {
      "type": "Feature",
      "geometry": {
        "type": "Point",
        "coordinates": [
          -52.6,
          -27.1
        ]
      },
      "properties": {
        "gbifID": "2997855189",
        "species": "Solanum corymbiflorum",
        "genus": "Solanum",
        "family": "Solanaceae",
        "scientificName": "Cyphomandra corymbiflora Sendtn.",
        "coordinateUncertaintyInMeters": "",
        "basisOfRecord": "PRESERVED_SPECIMEN",
        "eventDate": "1964-10-14",
        "country": null,
        "datasetName": "",
        "publisher": "Instituto de Pesquisas Jardim Botanico do Rio de Janeiro",
        "license": "CC_BY_4_0",
        "issues": [
          "GEODETIC_DATUM_ASSUMED_WGS84",
          "CONTINENT_DERIVED_FROM_COORDINATES",
          "AMBIGUOUS_INSTITUTION"
        ],
        "fallback_media": {
          "url": "https://media01.symbiota.org/media/h_seinet/seinet/ASU/ASU0049/ASU0049129_lg.jpg",
          "references": null,
          "title": null,
          "creator": null,
          "publisher": null,
          "license": null,
          "rightsHolder": "Arizona State University Vascular Plant Herbarium"
        }
      }
    },
    {
      "type": "Feature",
      "geometry": {
        "type": "Point",
        "coordinates": [
          -53.5,
          -27.13333
        ]
      },
      "properties": {
        "gbifID": "437495628",
        "species": "Solanum corymbiflorum",
        "genus": "Solanum",
        "family": "Solanaceae",
        "scientificName": "Cyphomandra corymbiflora Sendtn.",
        "coordinateUncertaintyInMeters": "",
        "basisOfRecord": "PRESERVED_SPECIMEN",
        "eventDate": "1964-10-16",
        "country": null,
        "datasetName": "",
        "publisher": "MNHN - Museum national d'Histoire naturelle",
        "license": "CC_BY_4_0",
        "issues": [
          "GEODETIC_DATUM_ASSUMED_WGS84",
          "CONTINENT_DERIVED_FROM_COORDINATES",
          "TAXON_MATCH_HIGHERRANK"
        ],
        "media": [
          {
            "url": "http://mediaphoto.mnhn.fr/media/1441364996923bGDTHrxbWmtybDSE",
            "references": null,
            "title": null,
            "creator": null,
            "publisher": null,
            "license": "http://creativecommons.org/licenses/by/4.0/",
            "rightsHolder": null
          }
        ]
      }
    },
    {
      "type": "Feature",
      "geometry": {
        "type": "Point",
        "coordinates": [
          -54.0,
          -30.0
        ]
      },
      "properties": {
        "gbifID": "1228319647",
        "species": "Solanum corymbiflorum",
        "genus": "Solanum",
        "family": "Solanaceae",
        "scientificName": "Cyphomandra corymbiflora Sendtn.",
        "coordinateUncertaintyInMeters": "",
        "basisOfRecord": "PRESERVED_SPECIMEN",
        "eventDate": "1988-11",
        "country": null,
        "datasetName": "seeds-22-sep-2023",
        "publisher": "Field Museum",
        "license": "CC0_1_0",
        "issues": [
          "GEODETIC_DATUM_ASSUMED_WGS84",
          "INSTITUTION_MATCH_FUZZY",
          "AMBIGUOUS_COLLECTION"
        ],
        "fallback_media": {
          "url": "https://media01.symbiota.org/media/h_seinet/seinet/ASU/ASU0049/ASU0049129_lg.jpg",
          "references": null,
          "title": null,
          "creator": null,
          "publisher": null,
          "license": null,
          "rightsHolder": "Arizona State University Vascular Plant Herbarium"
        }
      }
    },
    {
      "type": "Feature",
      "geometry": {
        "type": "Point",
        "coordinates": [
          -54.411111,
          -25.8775
        ]
      },
      "properties": {
        "gbifID": "2252395828",
        "species": "Solanum corymbiflorum",
        "genus": "Solanum",
        "family": "Solanaceae",
        "scientificName": "Cyphomandra corymbiflora Sendtn.",
        "coordinateUncertaintyInMeters": "",
        "basisOfRecord": "PRESERVED_SPECIMEN",
        "eventDate": "2002-12-11",
        "country": null,
        "datasetName": "",
        "publisher": "Instituto Multidisciplinario de Biología Vegetal - IMBIV",
        "license": "CC_BY_4_0",
        "issues": [
          "COORDINATE_ROUNDED",
          "INSTITUTION_MATCH_FUZZY",
          "COLLECTION_MATCH_NONE"
        ],
        "fallback_media": {
          "url": "https://media01.symbiota.org/media/h_seinet/seinet/ASU/ASU0049/ASU0049129_lg.jpg",
          "references": null,
          "title": null,
          "creator": null,
          "publisher": null,
          "license": null,
          "rightsHolder": "Arizona State University Vascular Plant Herbarium"
        }
      }
    },
    {
      "type": "Feature",
      "geometry": {
        "type": "Point",
        "coordinates": [
          -50.07,
          -29.370833
        ]
      },
      "properties": {
        "gbifID": "2252403702",
        "species": "Solanum corymbiflorum",
        "genus": "Solanum",
        "family": "Solanaceae",
        "scientificName": "Cyphomandra corymbiflora Sendtn.",
        "coordinateUncertaintyInMeters": "",
        "basisOfRecord": "PRESERVED_SPECIMEN",
        "eventDate": "2003-11-23",
        "country": null,
        "datasetName": "",
        "publisher": "Instituto Multidisciplinario de Biología Vegetal - IMBIV",
        "license": "CC_BY_4_0",
        "issues": [
          "COORDINATE_ROUNDED",
          "INSTITUTION_MATCH_FUZZY",
          "COLLECTION_MATCH_NONE"
        ],
        "fallback_media": {
          "url": "https://media01.symbiota.org/media/h_seinet/seinet/ASU/ASU0049/ASU0049129_lg.jpg",
          "references": null,
          "title": null,
          "creator": null,
          "publisher": null,
          "license": null,
          "rightsHolder": "Arizona State University Vascular Plant Herbarium"
        }
      }
    },
    {
      "type": "Feature",
      "geometry": {
        "type": "Point",
        "coordinates": [
          -54.192778,
          -26.664722
        ]
      },
      "properties": {
        "gbifID": "2252395729",
        "species": "Solanum corymbiflorum",
        "genus": "Solanum",
        "family": "Solanaceae",
        "scientificName": "Cyphomandra corymbiflora Sendtn.",
        "coordinateUncertaintyInMeters": "",
        "basisOfRecord": "PRESERVED_SPECIMEN",
        "eventDate": "2002-12-09",
        "country": null,
        "datasetName": "",
        "publisher": "Instituto Multidisciplinario de Biología Vegetal - IMBIV",
        "license": "CC_BY_4_0",
        "issues": [
          "COORDINATE_ROUNDED",
          "INSTITUTION_MATCH_FUZZY",
          "COLLECTION_MATCH_NONE"
        ],
        "fallback_media": {
          "url": "https://media01.symbiota.org/media/h_seinet/seinet/ASU/ASU0049/ASU0049129_lg.jpg",
          "references": null,
          "title": null,
          "creator": null,
          "publisher": null,
          "license": null,
          "rightsHolder": "Arizona State University Vascular Plant Herbarium"
        }
      }
    },
    {
      "type": "Feature",
      "geometry": {
        "type": "Point",
        "coordinates": [
          -54.811944,
          -27.113611
        ]
      },
      "properties": {
        "gbifID": "2252396660",
        "species": "Solanum corymbiflorum",
        "genus": "Solanum",
        "family": "Solanaceae",
        "scientificName": "Cyphomandra corymbiflora Sendtn.",
        "coordinateUncertaintyInMeters": "",
        "basisOfRecord": "PRESERVED_SPECIMEN",
        "eventDate": "1987-09-01",
        "country": null,
        "datasetName": "",
        "publisher": "Instituto Multidisciplinario de Biología Vegetal - IMBIV",
        "license": "CC_BY_4_0",
        "issues": [
          "IDENTIFIED_DATE_INVALID",
          "COORDINATE_ROUNDED",
          "INSTITUTION_MATCH_FUZZY",
          "COLLECTION_MATCH_NONE"
        ],
        "fallback_media": {
          "url": "https://media01.symbiota.org/media/h_seinet/seinet/ASU/ASU0049/ASU0049129_lg.jpg",
          "references": null,
          "title": null,
          "creator": null,
          "publisher": null,
          "license": null,
          "rightsHolder": "Arizona State University Vascular Plant Herbarium"
        }
      }
    },
    {
      "type": "Feature",
      "geometry": {
        "type": "Point",
        "coordinates": [
          -54.205,
          -26.91639
        ]
      },
      "properties": {
        "gbifID": "2270554756",
        "species": "Solanum corymbiflorum",
        "genus": "Solanum",
        "family": "Solanaceae",
        "scientificName": "Cyphomandra corymbiflora Sendtn.",
        "coordinateUncertaintyInMeters": "",
        "basisOfRecord": "PRESERVED_SPECIMEN",
        "eventDate": "1994-09-07",
        "country": null,
        "datasetName": "",
        "publisher": "Arizona State University Biocollections",
        "license": "CC_BY_4_0",
        "issues": [
          "GEODETIC_DATUM_ASSUMED_WGS84",
          "CONTINENT_DERIVED_FROM_COORDINATES",
          "INSTITUTION_MATCH_FUZZY",
          "COLLECTION_MATCH_FUZZY",
          "TAXON_ID_NOT_FOUND"
        ],
        "media": [
          {
            "url": "https://media01.symbiota.org/media/h_seinet/seinet/ASU/ASU0049/ASU0049129_lg.jpg",
            "references": null,
            "title": null,
            "creator": null,
            "publisher": null,
            "license": null,
            "rightsHolder": "Arizona State University Vascular Plant Herbarium"
          },
          {
            "url": "https://media01.symbiota.org/media/h_seinet/seinet/ASU/ASU0049/ASU0049129a_lg.jpg",
            "references": null,
            "title": null,
            "creator": null,
            "publisher": null,
            "license": null,
            "rightsHolder": "Arizona State University Vascular Plant Herbarium"
          },
          {
            "url": "https://media01.symbiota.org/media/h_seinet/seinet/ASU/ASU0049/ASU0049129b_lg.jpg",
            "references": null,
            "title": null,
            "creator": null,
            "publisher": null,
            "license": null,
            "rightsHolder": "Arizona State University Vascular Plant Herbarium"
          }
        ]
      }
    },
    {
      "type": "Feature",
      "geometry": {
        "type": "Point",
        "coordinates": [
          -54.19277,
          -26.66472
        ]
      },
      "properties": {
        "gbifID": "1259646974",
        "species": "Solanum corymbiflorum",
        "genus": "Solanum",
        "family": "Solanaceae",
        "scientificName": "Cyphomandra corymbiflora Sendtn.",
        "coordinateUncertaintyInMeters": "",
        "basisOfRecord": "PRESERVED_SPECIMEN",
        "eventDate": "2002-12-09",
        "country": null,
        "datasetName": "Tropicos",
        "publisher": "Missouri Botanical Garden",
        "license": "CC_BY_4_0",
        "issues": [
          "GEODETIC_DATUM_ASSUMED_WGS84",
          "INSTITUTION_MATCH_FUZZY",
          "COLLECTION_MATCH_NONE",
          "TAXON_ID_NOT_FOUND"
        ],
        "fallback_media": {
          "url": "https://media01.symbiota.org/media/h_seinet/seinet/ASU/ASU0049/ASU0049129_lg.jpg",
          "references": null,
          "title": null,
          "creator": null,
          "publisher": null,
          "license": null,
          "rightsHolder": "Arizona State University Vascular Plant Herbarium"
        }
      }
    },
    {
      "type": "Feature",
      "geometry": {
        "type": "Point",
        "coordinates": [
          -53.66666,
          -26.2
        ]
      },
      "properties": {
        "gbifID": "1259521610",
        "species": "Solanum corymbiflorum",
        "genus": "Solanum",
        "family": "Solanaceae",
        "scientificName": "Cyphomandra corymbiflora Sendtn.",
        "coordinateUncertaintyInMeters": "",
        "basisOfRecord": "PRESERVED_SPECIMEN",
        "eventDate": "1997-12-14",
        "country": null,
        "datasetName": "Tropicos",
        "publisher": "Missouri Botanical Garden",
        "license": "CC_BY_4_0",
        "issues": [
          "GEODETIC_DATUM_ASSUMED_WGS84",
          "INSTITUTION_MATCH_FUZZY",
          "COLLECTION_MATCH_NONE",
          "TAXON_ID_NOT_FOUND"
        ],
        "fallback_media": {
          "url": "https://media01.symbiota.org/media/h_seinet/seinet/ASU/ASU0049/ASU0049129_lg.jpg",
          "references": null,
          "title": null,
          "creator": null,
          "publisher": null,
          "license": null,
          "rightsHolder": "Arizona State University Vascular Plant Herbarium"
        }
      }
    },
    {
      "type": "Feature",
      "geometry": {
        "type": "Point",
        "coordinates": [
          -54.41,
          -25.88
        ]
      },
      "properties": {
        "gbifID": "416897044",
        "species": "Solanum corymbiflorum",
        "genus": "Solanum",
        "family": "Solanaceae",
        "scientificName": "Cyphomandra corymbiflora Sendtn.",
        "coordinateUncertaintyInMeters": "",
        "basisOfRecord": "PRESERVED_SPECIMEN",
        "eventDate": "",
        "country": null,
        "datasetName": "",
        "publisher": "Instituto de Botánica Darwinion - CONICET",
        "license": "CC_BY_4_0",
        "issues": [
          "GEODETIC_DATUM_ASSUMED_WGS84",
          "CONTINENT_DERIVED_FROM_COORDINATES",
          "INSTITUTION_MATCH_FUZZY",
          "INSTITUTION_COLLECTION_MISMATCH"
        ],
        "fallback_media": {
          "url": "https://media01.symbiota.org/media/h_seinet/seinet/ASU/ASU0049/ASU0049129_lg.jpg",
          "references": null,
          "title": null,
          "creator": null,
          "publisher": null,
          "license": null,
          "rightsHolder": "Arizona State University Vascular Plant Herbarium"
        }
      }
    },
    {
      "type": "Feature",
      "geometry": {
        "type": "Point",
        "coordinates": [
          -51.113139,
          -29.087167
        ]
      },
      "properties": {
        "gbifID": "1089036319",
        "species": "Solanum corymbiflorum",
        "genus": "Solanum",
        "family": "Solanaceae",
        "scientificName": "Cyphomandra corymbiflora Sendtn.",
        "coordinateUncertaintyInMeters": "",
        "basisOfRecord": "PRESERVED_SPECIMEN",
        "eventDate": "1995-12-10",
        "country": null,
        "datasetName": "",
        "publisher": "Universidade Estadual de Campinas",
        "license": "CC_BY_4_0",
        "issues": [
          "CONTINENT_DERIVED_FROM_COORDINATES",
          "INSTITUTION_MATCH_NONE"
        ],
        "fallback_media": {
          "url": "https://media01.symbiota.org/media/h_seinet/seinet/ASU/ASU0049/ASU0049129_lg.jpg",
          "references": null,
          "title": null,
          "creator": null,
          "publisher": null,
          "license": null,
          "rightsHolder": "Arizona State University Vascular Plant Herbarium"
        }
      }
    }
  ]
}
