{
  "type": "FeatureCollection",
  "metadata": {
    "host_taxon": {
      "canonical_name": "Passiflora tryphostemmatoides",
      "rank": "species",
      "family": "Passifloraceae",
      "genus": "Passiflora",
      "species": "Passiflora tryphostemmatoides",
      "slug": "species_passiflora_tryphostemmatoides",
      "resolvable_to_gbif": true,
      "use_for_default_download": true,
      "association_count": 2,
      "butterfly_taxa": [
        "Dryas iulia",
        "Heliconius erato"
      ],
      "confidence_counts": {
        "medium": 2
      },
      "occurrence_file": "occurrences/species_passiflora_tryphostemmatoides.geojson",
      "gbif_resolution": {
        "query": "Passiflora tryphostemmatoides",
        "rank": "species",
        "status": "resolved",
        "gbif_taxon_key": 3586892,
        "accepted_usage_key": null,
        "scientific_name": "Passiflora tryphostemmatoides Harms",
        "canonical_name": "Passiflora tryphostemmatoides",
        "gbif_rank": "SPECIES",
        "taxonomic_status": "ACCEPTED",
        "match_type": "EXACT",
        "confidence": 100,
        "kingdom": "Plantae",
        "family": "Passifloraceae",
        "genus": "Passiflora",
        "resolved_at": "2026-05-21T03:58:59+00:00"
      },
      "gbif_taxon_key": 3586892,
      "gbif_status": "resolved",
      "occurrence_count": 0,
      "occurrence_mode": "not_generated",
      "occurrence_cap": null
    },
    "gbif_resolution": {
      "query": "Passiflora tryphostemmatoides",
      "rank": "species",
      "status": "resolved",
      "gbif_taxon_key": 3586892,
      "accepted_usage_key": null,
      "scientific_name": "Passiflora tryphostemmatoides Harms",
      "canonical_name": "Passiflora tryphostemmatoides",
      "gbif_rank": "SPECIES",
      "taxonomic_status": "ACCEPTED",
      "match_type": "EXACT",
      "confidence": 100,
      "kingdom": "Plantae",
      "family": "Passifloraceae",
      "genus": "Passiflora",
      "resolved_at": "2026-05-21T03:58:59+00:00"
    },
    "occurrence_query": {
      "method": "gbif_download_api",
      "download_key": "0004690-260519110011954",
      "download_doi": "10.15468/dl.s2gcc3",
      "download_doi_url": "https://doi.org/10.15468/dl.s2gcc3",
      "limit": null,
      "dedupe": "Exact duplicate coordinates removed per taxon after DWCA download.",
      "filters": "GBIF Download API DWCA with TAXON_KEY, HAS_COORDINATE=true, HAS_GEOSPATIAL_ISSUE=false, OCCURRENCE_STATUS=PRESENT; app study extent and coordinate uncertainty <=100km applied locally.",
      "returned_unique_coordinate_records": 59
    },
    "scientific_caveat": "GBIF plant occurrences are sampling-biased context records and do not prove local host use or ecological availability for the butterfly.",
    "generated_at": "2026-05-21T15:57:21+00:00"
  },
  "features": [
    {
      "type": "Feature",
      "geometry": {
        "type": "Point",
        "coordinates": [
          -75.670506,
          4.669467
        ]
      },
      "properties": {
        "gbifID": "1800543115",
        "species": "Passiflora tryphostemmatoides",
        "genus": "Passiflora",
        "family": "Passifloraceae",
        "scientificName": "Passiflora tryphostemmatoides Harms",
        "coordinateUncertaintyInMeters": "12477.15",
        "basisOfRecord": "PRESERVED_SPECIMEN",
        "eventDate": "2007-12-04",
        "country": null,
        "datasetName": "",
        "publisher": "Universidad del Quindío",
        "license": "CC_BY_NC_4_0",
        "issues": [
          "COORDINATE_ROUNDED",
          "INSTITUTION_MATCH_FUZZY"
        ],
        "fallback_media": {
          "url": "https://inaturalist-open-data.s3.amazonaws.com/photos/329472539/original.jpeg",
          "references": "https://www.inaturalist.org/photos/329472539",
          "title": null,
          "creator": "John Ocampo",
          "publisher": "iNaturalist",
          "license": "http://creativecommons.org/licenses/by/4.0/",
          "rightsHolder": "John Ocampo"
        }
      }
    },
    {
      "type": "Feature",
      "geometry": {
        "type": "Point",
        "coordinates": [
          -75.727868,
          4.496762
        ]
      },
      "properties": {
        "gbifID": "1800543532",
        "species": "Passiflora tryphostemmatoides",
        "genus": "Passiflora",
        "family": "Passifloraceae",
        "scientificName": "Passiflora tryphostemmatoides Harms",
        "coordinateUncertaintyInMeters": "13269.46",
        "basisOfRecord": "PRESERVED_SPECIMEN",
        "eventDate": "",
        "country": null,
        "datasetName": "",
        "publisher": "Universidad del Quindío",
        "license": "CC_BY_NC_4_0",
        "issues": [
          "COORDINATE_ROUNDED",
          "INSTITUTION_MATCH_FUZZY"
        ],
        "fallback_media": {
          "url": "https://inaturalist-open-data.s3.amazonaws.com/photos/329472539/original.jpeg",
          "references": "https://www.inaturalist.org/photos/329472539",
          "title": null,
          "creator": "John Ocampo",
          "publisher": "iNaturalist",
          "license": "http://creativecommons.org/licenses/by/4.0/",
          "rightsHolder": "John Ocampo"
        }
      }
    },
    {
      "type": "Feature",
      "geometry": {
        "type": "Point",
        "coordinates": [
          -75.532574,
          4.847611
        ]
      },
      "properties": {
        "gbifID": "2457595250",
        "species": "Passiflora tryphostemmatoides",
        "genus": "Passiflora",
        "family": "Passifloraceae",
        "scientificName": "Passiflora tryphostemmatoides Harms",
        "coordinateUncertaintyInMeters": "1832.0",
        "basisOfRecord": "PRESERVED_SPECIMEN",
        "eventDate": "2004-11-03",
        "country": null,
        "datasetName": "",
        "publisher": "Universidad de Caldas",
        "license": "CC_BY_4_0",
        "issues": [
          "INSTITUTION_MATCH_FUZZY"
        ],
        "fallback_media": {
          "url": "https://inaturalist-open-data.s3.amazonaws.com/photos/329472539/original.jpeg",
          "references": "https://www.inaturalist.org/photos/329472539",
          "title": null,
          "creator": "John Ocampo",
          "publisher": "iNaturalist",
          "license": "http://creativecommons.org/licenses/by/4.0/",
          "rightsHolder": "John Ocampo"
        }
      }
    },
    {
      "type": "Feature",
      "geometry": {
        "type": "Point",
        "coordinates": [
          -76.65,
          2.466667
        ]
      },
      "properties": {
        "gbifID": "4032019529",
        "species": "Passiflora tryphostemmatoides",
        "genus": "Passiflora",
        "family": "Passifloraceae",
        "scientificName": "Passiflora tryphostemmatoides Harms",
        "coordinateUncertaintyInMeters": "",
        "basisOfRecord": "PRESERVED_SPECIMEN",
        "eventDate": "1871",
        "country": null,
        "datasetName": "Tropicos",
        "publisher": "Missouri Botanical Garden",
        "license": "CC_BY_4_0",
        "issues": [
          "OCCURRENCE_STATUS_INFERRED_FROM_INDIVIDUAL_COUNT",
          "COORDINATE_ROUNDED",
          "GEODETIC_DATUM_ASSUMED_WGS84",
          "INSTITUTION_MATCH_FUZZY",
          "COLLECTION_MATCH_NONE",
          "TAXON_ID_NOT_FOUND"
        ],
        "media": [
          {
            "url": "https://images.mobot.org/tropicosimages6/detailimages/TropicosImagesVol6/102577000/5F675AF0-F7D5-4561-B5AB-3E0BDA8897B9.jpg",
            "references": "https://www.tropicos.org/ImageFullView.aspx?imageid=102577440",
            "title": "Lehmann - 5662 - Colombia",
            "creator": "MBG",
            "publisher": null,
            "license": "http://creativecommons.org/licenses/by-nc-sa/3.0/",
            "rightsHolder": "MBG"
          }
        ]
      }
    },
    {
      "type": "Feature",
      "geometry": {
        "type": "Point",
        "coordinates": [
          -76.566667,
          3.5
        ]
      },
      "properties": {
        "gbifID": "1258334167",
        "species": "Passiflora tryphostemmatoides",
        "genus": "Passiflora",
        "family": "Passifloraceae",
        "scientificName": "Passiflora tryphostemmatoides Harms",
        "coordinateUncertaintyInMeters": "",
        "basisOfRecord": "PRESERVED_SPECIMEN",
        "eventDate": "1995-03-05",
        "country": null,
        "datasetName": "Tropicos",
        "publisher": "Missouri Botanical Garden",
        "license": "CC_BY_4_0",
        "issues": [
          "OCCURRENCE_STATUS_INFERRED_FROM_INDIVIDUAL_COUNT",
          "COORDINATE_ROUNDED",
          "GEODETIC_DATUM_ASSUMED_WGS84",
          "INSTITUTION_MATCH_FUZZY",
          "COLLECTION_MATCH_NONE",
          "TAXON_ID_NOT_FOUND"
        ],
        "media": [
          {
            "url": "https://images.mobot.org/RISScanning04/detailImages/RISScanning04/103938000/5BCE069D-064B-495C-889E-1A360D00A39A.jpg",
            "references": "https://www.tropicos.org/ImageFullView.aspx?imageid=103938687",
            "title": "Giraldo Gensini - 616 - Colombia",
            "creator": "MBG",
            "publisher": null,
            "license": "http://creativecommons.org/licenses/by-nc-sa/3.0/",
            "rightsHolder": "MBG"
          }
        ]
      }
    },
    {
      "type": "Feature",
      "geometry": {
        "type": "Point",
        "coordinates": [
          -76.608056,
          3.543056
        ]
      },
      "properties": {
        "gbifID": "2268954554",
        "species": "Passiflora tryphostemmatoides",
        "genus": "Passiflora",
        "family": "Passifloraceae",
        "scientificName": "Passiflora tryphostemmatoides Harms",
        "coordinateUncertaintyInMeters": "",
        "basisOfRecord": "PRESERVED_SPECIMEN",
        "eventDate": "2004-03-14",
        "country": null,
        "datasetName": "Tropicos",
        "publisher": "Missouri Botanical Garden",
        "license": "CC_BY_4_0",
        "issues": [
          "OCCURRENCE_STATUS_INFERRED_FROM_INDIVIDUAL_COUNT",
          "COORDINATE_ROUNDED",
          "GEODETIC_DATUM_ASSUMED_WGS84",
          "INSTITUTION_MATCH_FUZZY",
          "COLLECTION_MATCH_NONE",
          "TAXON_ID_NOT_FOUND"
        ],
        "media": [
          {
            "url": "https://images.mobot.org/tropicosimages3/detailimages/TropicosImageVol3/100602000/A0603C02-7658-43D0-880B-2EFEFDDC3724.jpg",
            "references": "https://www.tropicos.org/ImageFullView.aspx?imageid=100602703",
            "title": "Silverstone-Sopkin - 10229 - Colombia",
            "creator": "MBG",
            "publisher": null,
            "license": "http://creativecommons.org/licenses/by-nc-sa/3.0/",
            "rightsHolder": "MBG"
          }
        ]
      }
    },
    {
      "type": "Feature",
      "geometry": {
        "type": "Point",
        "coordinates": [
          -78.0533,
          -1.3875
        ]
      },
      "properties": {
        "gbifID": "1322529966",
        "species": "Passiflora tryphostemmatoides",
        "genus": "Passiflora",
        "family": "Passifloraceae",
        "scientificName": "Passiflora tryphostemmatoides Harms",
        "coordinateUncertaintyInMeters": "",
        "basisOfRecord": "PRESERVED_SPECIMEN",
        "eventDate": "2003-05-06",
        "country": null,
        "datasetName": "NMNH Extant Biology",
        "publisher": "National Museum of Natural History, Smithsonian Institution",
        "license": "CC0_1_0",
        "issues": [
          "OCCURRENCE_STATUS_INFERRED_FROM_INDIVIDUAL_COUNT",
          "GEODETIC_DATUM_ASSUMED_WGS84"
        ],
        "media": [
          {
            "url": "https://collections.nmnh.si.edu/media/?i=15491218&h=2000",
            "references": null,
            "title": "01326073.tif",
            "creator": "Conveyor Belt",
            "publisher": "Smithsonian Institution, NMNH, Botany",
            "license": "http://creativecommons.org/publicdomain/zero/1.0/",
            "rightsHolder": null
          }
        ]
      }
    },
    {
      "type": "Feature",
      "geometry": {
        "type": "Point",
        "coordinates": [
          -76.379012,
          4.199635
        ]
      },
      "properties": {
        "gbifID": "4440567588",
        "species": "Passiflora tryphostemmatoides",
        "genus": "Passiflora",
        "family": "Passifloraceae",
        "scientificName": "Passiflora tryphostemmatoides Harms",
        "coordinateUncertaintyInMeters": "877.0",
        "basisOfRecord": "PRESERVED_SPECIMEN",
        "eventDate": "1982-03-07",
        "country": null,
        "datasetName": "",
        "publisher": "Instituto para la Investigación y la Preservación del Patrimonio Cultural y Natural del Valle del Cauca - INCIVA",
        "license": "CC_BY_NC_4_0",
        "issues": [
          "INSTITUTION_MATCH_FUZZY"
        ],
        "fallback_media": {
          "url": "https://inaturalist-open-data.s3.amazonaws.com/photos/329472539/original.jpeg",
          "references": "https://www.inaturalist.org/photos/329472539",
          "title": null,
          "creator": "John Ocampo",
          "publisher": "iNaturalist",
          "license": "http://creativecommons.org/licenses/by/4.0/",
          "rightsHolder": "John Ocampo"
        }
      }
    },
    {
      "type": "Feature",
      "geometry": {
        "type": "Point",
        "coordinates": [
          -78.320968,
          0.752694
        ]
      },
      "properties": {
        "gbifID": "6147762358",
        "species": "Passiflora tryphostemmatoides",
        "genus": "Passiflora",
        "family": "Passifloraceae",
        "scientificName": "Passiflora tryphostemmatoides Harms",
        "coordinateUncertaintyInMeters": "",
        "basisOfRecord": "PRESERVED_SPECIMEN",
        "eventDate": "2025-02-19",
        "country": null,
        "datasetName": "Vascular",
        "publisher": "Herbario HUTPL de la Universidad Técnica Particular de Loja",
        "license": "CC_BY_NC_4_0",
        "issues": [
          "GEODETIC_DATUM_ASSUMED_WGS84",
          "CONTINENT_DERIVED_FROM_COORDINATES",
          "INSTITUTION_MATCH_NONE",
          "TAXON_ID_NOT_FOUND"
        ],
        "fallback_media": {
          "url": "https://inaturalist-open-data.s3.amazonaws.com/photos/329472539/original.jpeg",
          "references": "https://www.inaturalist.org/photos/329472539",
          "title": null,
          "creator": "John Ocampo",
          "publisher": "iNaturalist",
          "license": "http://creativecommons.org/licenses/by/4.0/",
          "rightsHolder": "John Ocampo"
        }
      }
    },
    {
      "type": "Feature",
      "geometry": {
        "type": "Point",
        "coordinates": [
          -77.737625,
          -0.704093
        ]
      },
      "properties": {
        "gbifID": "6147763102",
        "species": "Passiflora tryphostemmatoides",
        "genus": "Passiflora",
        "family": "Passifloraceae",
        "scientificName": "Passiflora tryphostemmatoides Harms",
        "coordinateUncertaintyInMeters": "",
        "basisOfRecord": "PRESERVED_SPECIMEN",
        "eventDate": "2025-05-31",
        "country": null,
        "datasetName": "Vascular",
        "publisher": "Herbario HUTPL de la Universidad Técnica Particular de Loja",
        "license": "CC_BY_NC_4_0",
        "issues": [
          "GEODETIC_DATUM_ASSUMED_WGS84",
          "CONTINENT_DERIVED_FROM_COORDINATES",
          "INSTITUTION_MATCH_NONE",
          "TAXON_ID_NOT_FOUND"
        ],
        "fallback_media": {
          "url": "https://inaturalist-open-data.s3.amazonaws.com/photos/329472539/original.jpeg",
          "references": "https://www.inaturalist.org/photos/329472539",
          "title": null,
          "creator": "John Ocampo",
          "publisher": "iNaturalist",
          "license": "http://creativecommons.org/licenses/by/4.0/",
          "rightsHolder": "John Ocampo"
        }
      }
    },
    {
      "type": "Feature",
      "geometry": {
        "type": "Point",
        "coordinates": [
          -75.75,
          2.5
        ]
      },
      "properties": {
        "gbifID": "1228226067",
        "species": "Passiflora tryphostemmatoides",
        "genus": "Passiflora",
        "family": "Passifloraceae",
        "scientificName": "Passiflora tryphostemmatoides Harms",
        "coordinateUncertaintyInMeters": "",
        "basisOfRecord": "PRESERVED_SPECIMEN",
        "eventDate": "1958-08-27",
        "country": null,
        "datasetName": "seeds-22-sep-2023",
        "publisher": "Field Museum",
        "license": "CC0_1_0",
        "issues": [
          "GEODETIC_DATUM_ASSUMED_WGS84",
          "INSTITUTION_MATCH_FUZZY",
          "AMBIGUOUS_COLLECTION"
        ],
        "fallback_media": {
          "url": "https://inaturalist-open-data.s3.amazonaws.com/photos/329472539/original.jpeg",
          "references": "https://www.inaturalist.org/photos/329472539",
          "title": null,
          "creator": "John Ocampo",
          "publisher": "iNaturalist",
          "license": "http://creativecommons.org/licenses/by/4.0/",
          "rightsHolder": "John Ocampo"
        }
      }
    },
    {
      "type": "Feature",
      "geometry": {
        "type": "Point",
        "coordinates": [
          -77.7,
          -0.466
        ]
      },
      "properties": {
        "gbifID": "47821256",
        "species": "Passiflora tryphostemmatoides",
        "genus": "Passiflora",
        "family": "Passifloraceae",
        "scientificName": "Passiflora tryphostemmatoides Harms",
        "coordinateUncertaintyInMeters": "2000.0",
        "basisOfRecord": "PRESERVED_SPECIMEN",
        "eventDate": "1980-09-28",
        "country": null,
        "datasetName": "",
        "publisher": "Herbarium of the University of Aarhus",
        "license": "CC_BY_4_0",
        "issues": [
          "GEODETIC_DATUM_ASSUMED_WGS84",
          "INSTITUTION_MATCH_FUZZY",
          "COLLECTION_MATCH_FUZZY"
        ],
        "fallback_media": {
          "url": "https://inaturalist-open-data.s3.amazonaws.com/photos/329472539/original.jpeg",
          "references": "https://www.inaturalist.org/photos/329472539",
          "title": null,
          "creator": "John Ocampo",
          "publisher": "iNaturalist",
          "license": "http://creativecommons.org/licenses/by/4.0/",
          "rightsHolder": "John Ocampo"
        }
      }
    },
    {
      "type": "Feature",
      "geometry": {
        "type": "Point",
        "coordinates": [
          -76.349167,
          1.809444
        ]
      },
      "properties": {
        "gbifID": "1257515980",
        "species": "Passiflora tryphostemmatoides",
        "genus": "Passiflora",
        "family": "Passifloraceae",
        "scientificName": "Passiflora tryphostemmatoides Harms",
        "coordinateUncertaintyInMeters": "",
        "basisOfRecord": "PRESERVED_SPECIMEN",
        "eventDate": "1958-08-27",
        "country": null,
        "datasetName": "Tropicos",
        "publisher": "Missouri Botanical Garden",
        "license": "CC_BY_4_0",
        "issues": [
          "OCCURRENCE_STATUS_INFERRED_FROM_INDIVIDUAL_COUNT",
          "COORDINATE_ROUNDED",
          "GEODETIC_DATUM_ASSUMED_WGS84",
          "INSTITUTION_MATCH_NONE",
          "TAXON_ID_NOT_FOUND"
        ],
        "fallback_media": {
          "url": "https://inaturalist-open-data.s3.amazonaws.com/photos/329472539/original.jpeg",
          "references": "https://www.inaturalist.org/photos/329472539",
          "title": null,
          "creator": "John Ocampo",
          "publisher": "iNaturalist",
          "license": "http://creativecommons.org/licenses/by/4.0/",
          "rightsHolder": "John Ocampo"
        }
      }
    },
    {
      "type": "Feature",
      "geometry": {
        "type": "Point",
        "coordinates": [
          -75.880278,
          4.096944
        ]
      },
      "properties": {
        "gbifID": "1260687942",
        "species": "Passiflora tryphostemmatoides",
        "genus": "Passiflora",
        "family": "Passifloraceae",
        "scientificName": "Passiflora tryphostemmatoides Harms",
        "coordinateUncertaintyInMeters": "",
        "basisOfRecord": "PRESERVED_SPECIMEN",
        "eventDate": "1922-05-07",
        "country": null,
        "datasetName": "Tropicos",
        "publisher": "Missouri Botanical Garden",
        "license": "CC_BY_4_0",
        "issues": [
          "OCCURRENCE_STATUS_INFERRED_FROM_INDIVIDUAL_COUNT",
          "COORDINATE_ROUNDED",
          "GEODETIC_DATUM_ASSUMED_WGS84",
          "INSTITUTION_MATCH_FUZZY",
          "COLLECTION_MATCH_NONE",
          "TAXON_ID_NOT_FOUND"
        ],
        "fallback_media": {
          "url": "https://inaturalist-open-data.s3.amazonaws.com/photos/329472539/original.jpeg",
          "references": "https://www.inaturalist.org/photos/329472539",
          "title": null,
          "creator": "John Ocampo",
          "publisher": "iNaturalist",
          "license": "http://creativecommons.org/licenses/by/4.0/",
          "rightsHolder": "John Ocampo"
        }
      }
    },
    {
      "type": "Feature",
      "geometry": {
        "type": "Point",
        "coordinates": [
          -75.694444,
          4.814167
        ]
      },
      "properties": {
        "gbifID": "1257537331",
        "species": "Passiflora tryphostemmatoides",
        "genus": "Passiflora",
        "family": "Passifloraceae",
        "scientificName": "Passiflora tryphostemmatoides Harms",
        "coordinateUncertaintyInMeters": "",
        "basisOfRecord": "PRESERVED_SPECIMEN",
        "eventDate": "1922-08-29",
        "country": null,
        "datasetName": "Tropicos",
        "publisher": "Missouri Botanical Garden",
        "license": "CC_BY_4_0",
        "issues": [
          "OCCURRENCE_STATUS_INFERRED_FROM_INDIVIDUAL_COUNT",
          "COORDINATE_ROUNDED",
          "GEODETIC_DATUM_ASSUMED_WGS84",
          "AMBIGUOUS_INSTITUTION",
          "TAXON_ID_NOT_FOUND"
        ],
        "fallback_media": {
          "url": "https://inaturalist-open-data.s3.amazonaws.com/photos/329472539/original.jpeg",
          "references": "https://www.inaturalist.org/photos/329472539",
          "title": null,
          "creator": "John Ocampo",
          "publisher": "iNaturalist",
          "license": "http://creativecommons.org/licenses/by/4.0/",
          "rightsHolder": "John Ocampo"
        }
      }
    },
    {
      "type": "Feature",
      "geometry": {
        "type": "Point",
        "coordinates": [
          -76.666667,
          2.45
        ]
      },
      "properties": {
        "gbifID": "1260688285",
        "species": "Passiflora tryphostemmatoides",
        "genus": "Passiflora",
        "family": "Passifloraceae",
        "scientificName": "Passiflora tryphostemmatoides Harms",
        "coordinateUncertaintyInMeters": "",
        "basisOfRecord": "PRESERVED_SPECIMEN",
        "eventDate": "",
        "country": null,
        "datasetName": "Tropicos",
        "publisher": "Missouri Botanical Garden",
        "license": "CC_BY_4_0",
        "issues": [
          "OCCURRENCE_STATUS_INFERRED_FROM_INDIVIDUAL_COUNT",
          "COORDINATE_ROUNDED",
          "GEODETIC_DATUM_ASSUMED_WGS84",
          "INSTITUTION_MATCH_FUZZY",
          "COLLECTION_MATCH_NONE",
          "TAXON_ID_NOT_FOUND"
        ],
        "fallback_media": {
          "url": "https://inaturalist-open-data.s3.amazonaws.com/photos/329472539/original.jpeg",
          "references": "https://www.inaturalist.org/photos/329472539",
          "title": null,
          "creator": "John Ocampo",
          "publisher": "iNaturalist",
          "license": "http://creativecommons.org/licenses/by/4.0/",
          "rightsHolder": "John Ocampo"
        }
      }
    },
    {
      "type": "Feature",
      "geometry": {
        "type": "Point",
        "coordinates": [
          -76.583333,
          1.433333
        ]
      },
      "properties": {
        "gbifID": "1257603892",
        "species": "Passiflora tryphostemmatoides",
        "genus": "Passiflora",
        "family": "Passifloraceae",
        "scientificName": "Passiflora tryphostemmatoides Harms",
        "coordinateUncertaintyInMeters": "",
        "basisOfRecord": "PRESERVED_SPECIMEN",
        "eventDate": "1939-02-27",
        "country": null,
        "datasetName": "Tropicos",
        "publisher": "Missouri Botanical Garden",
        "license": "CC_BY_4_0",
        "issues": [
          "OCCURRENCE_STATUS_INFERRED_FROM_INDIVIDUAL_COUNT",
          "COORDINATE_ROUNDED",
          "GEODETIC_DATUM_ASSUMED_WGS84",
          "INSTITUTION_MATCH_NONE",
          "TAXON_ID_NOT_FOUND"
        ],
        "fallback_media": {
          "url": "https://inaturalist-open-data.s3.amazonaws.com/photos/329472539/original.jpeg",
          "references": "https://www.inaturalist.org/photos/329472539",
          "title": null,
          "creator": "John Ocampo",
          "publisher": "iNaturalist",
          "license": "http://creativecommons.org/licenses/by/4.0/",
          "rightsHolder": "John Ocampo"
        }
      }
    },
    {
      "type": "Feature",
      "geometry": {
        "type": "Point",
        "coordinates": [
          -76.133333,
          3.516667
        ]
      },
      "properties": {
        "gbifID": "1260688030",
        "species": "Passiflora tryphostemmatoides",
        "genus": "Passiflora",
        "family": "Passifloraceae",
        "scientificName": "Passiflora tryphostemmatoides Harms",
        "coordinateUncertaintyInMeters": "",
        "basisOfRecord": "PRESERVED_SPECIMEN",
        "eventDate": "1922-05-27",
        "country": null,
        "datasetName": "Tropicos",
        "publisher": "Missouri Botanical Garden",
        "license": "CC_BY_4_0",
        "issues": [
          "OCCURRENCE_STATUS_INFERRED_FROM_INDIVIDUAL_COUNT",
          "COORDINATE_ROUNDED",
          "GEODETIC_DATUM_ASSUMED_WGS84",
          "INSTITUTION_MATCH_FUZZY",
          "COLLECTION_MATCH_NONE",
          "TAXON_ID_NOT_FOUND"
        ],
        "fallback_media": {
          "url": "https://inaturalist-open-data.s3.amazonaws.com/photos/329472539/original.jpeg",
          "references": "https://www.inaturalist.org/photos/329472539",
          "title": null,
          "creator": "John Ocampo",
          "publisher": "iNaturalist",
          "license": "http://creativecommons.org/licenses/by/4.0/",
          "rightsHolder": "John Ocampo"
        }
      }
    },
    {
      "type": "Feature",
      "geometry": {
        "type": "Point",
        "coordinates": [
          -76.572222,
          3.661111
        ]
      },
      "properties": {
        "gbifID": "4060983564",
        "species": "Passiflora tryphostemmatoides",
        "genus": "Passiflora",
        "family": "Passifloraceae",
        "scientificName": "Passiflora tryphostemmatoides Harms",
        "coordinateUncertaintyInMeters": "",
        "basisOfRecord": "PRESERVED_SPECIMEN",
        "eventDate": "1922-07-11",
        "country": null,
        "datasetName": "Tropicos",
        "publisher": "Missouri Botanical Garden",
        "license": "CC_BY_4_0",
        "issues": [
          "OCCURRENCE_STATUS_INFERRED_FROM_INDIVIDUAL_COUNT",
          "COORDINATE_ROUNDED",
          "GEODETIC_DATUM_ASSUMED_WGS84",
          "INSTITUTION_MATCH_NONE",
          "TAXON_ID_NOT_FOUND"
        ],
        "fallback_media": {
          "url": "https://inaturalist-open-data.s3.amazonaws.com/photos/329472539/original.jpeg",
          "references": "https://www.inaturalist.org/photos/329472539",
          "title": null,
          "creator": "John Ocampo",
          "publisher": "iNaturalist",
          "license": "http://creativecommons.org/licenses/by/4.0/",
          "rightsHolder": "John Ocampo"
        }
      }
    },
    {
      "type": "Feature",
      "geometry": {
        "type": "Point",
        "coordinates": [
          -75.896944,
          4.096944
        ]
      },
      "properties": {
        "gbifID": "4060885624",
        "species": "Passiflora tryphostemmatoides",
        "genus": "Passiflora",
        "family": "Passifloraceae",
        "scientificName": "Passiflora tryphostemmatoides Harms",
        "coordinateUncertaintyInMeters": "",
        "basisOfRecord": "PRESERVED_SPECIMEN",
        "eventDate": "1922-05-14",
        "country": null,
        "datasetName": "Tropicos",
        "publisher": "Missouri Botanical Garden",
        "license": "CC_BY_4_0",
        "issues": [
          "OCCURRENCE_STATUS_INFERRED_FROM_INDIVIDUAL_COUNT",
          "COORDINATE_ROUNDED",
          "GEODETIC_DATUM_ASSUMED_WGS84",
          "INSTITUTION_MATCH_NONE",
          "TAXON_ID_NOT_FOUND"
        ],
        "fallback_media": {
          "url": "https://inaturalist-open-data.s3.amazonaws.com/photos/329472539/original.jpeg",
          "references": "https://www.inaturalist.org/photos/329472539",
          "title": null,
          "creator": "John Ocampo",
          "publisher": "iNaturalist",
          "license": "http://creativecommons.org/licenses/by/4.0/",
          "rightsHolder": "John Ocampo"
        }
      }
    },
    {
      "type": "Feature",
      "geometry": {
        "type": "Point",
        "coordinates": [
          -76.500833,
          2.651111
        ]
      },
      "properties": {
        "gbifID": "1260687604",
        "species": "Passiflora tryphostemmatoides",
        "genus": "Passiflora",
        "family": "Passifloraceae",
        "scientificName": "Passiflora tryphostemmatoides Harms",
        "coordinateUncertaintyInMeters": "",
        "basisOfRecord": "PRESERVED_SPECIMEN",
        "eventDate": "1922-07-02",
        "country": null,
        "datasetName": "Tropicos",
        "publisher": "Missouri Botanical Garden",
        "license": "CC_BY_4_0",
        "issues": [
          "OCCURRENCE_STATUS_INFERRED_FROM_INDIVIDUAL_COUNT",
          "COORDINATE_ROUNDED",
          "GEODETIC_DATUM_ASSUMED_WGS84",
          "AMBIGUOUS_INSTITUTION",
          "TAXON_ID_NOT_FOUND"
        ],
        "fallback_media": {
          "url": "https://inaturalist-open-data.s3.amazonaws.com/photos/329472539/original.jpeg",
          "references": "https://www.inaturalist.org/photos/329472539",
          "title": null,
          "creator": "John Ocampo",
          "publisher": "iNaturalist",
          "license": "http://creativecommons.org/licenses/by/4.0/",
          "rightsHolder": "John Ocampo"
        }
      }
    },
    {
      "type": "Feature",
      "geometry": {
        "type": "Point",
        "coordinates": [
          -76.817778,
          2.454167
        ]
      },
      "properties": {
        "gbifID": "1260687820",
        "species": "Passiflora tryphostemmatoides",
        "genus": "Passiflora",
        "family": "Passifloraceae",
        "scientificName": "Passiflora tryphostemmatoides Harms",
        "coordinateUncertaintyInMeters": "",
        "basisOfRecord": "PRESERVED_SPECIMEN",
        "eventDate": "",
        "country": null,
        "datasetName": "Tropicos",
        "publisher": "Missouri Botanical Garden",
        "license": "CC_BY_4_0",
        "issues": [
          "OCCURRENCE_STATUS_INFERRED_FROM_INDIVIDUAL_COUNT",
          "COORDINATE_ROUNDED",
          "GEODETIC_DATUM_ASSUMED_WGS84",
          "INSTITUTION_MATCH_FUZZY",
          "COLLECTION_MATCH_NONE",
          "TAXON_ID_NOT_FOUND"
        ],
        "fallback_media": {
          "url": "https://inaturalist-open-data.s3.amazonaws.com/photos/329472539/original.jpeg",
          "references": "https://www.inaturalist.org/photos/329472539",
          "title": null,
          "creator": "John Ocampo",
          "publisher": "iNaturalist",
          "license": "http://creativecommons.org/licenses/by/4.0/",
          "rightsHolder": "John Ocampo"
        }
      }
    },
    {
      "type": "Feature",
      "geometry": {
        "type": "Point",
        "coordinates": [
          -77.283333,
          2.25
        ]
      },
      "properties": {
        "gbifID": "1260687662",
        "species": "Passiflora tryphostemmatoides",
        "genus": "Passiflora",
        "family": "Passifloraceae",
        "scientificName": "Passiflora tryphostemmatoides Harms",
        "coordinateUncertaintyInMeters": "",
        "basisOfRecord": "PRESERVED_SPECIMEN",
        "eventDate": "1922-07-01",
        "country": null,
        "datasetName": "Tropicos",
        "publisher": "Missouri Botanical Garden",
        "license": "CC_BY_4_0",
        "issues": [
          "OCCURRENCE_STATUS_INFERRED_FROM_INDIVIDUAL_COUNT",
          "COORDINATE_ROUNDED",
          "GEODETIC_DATUM_ASSUMED_WGS84",
          "AMBIGUOUS_INSTITUTION",
          "TAXON_ID_NOT_FOUND"
        ],
        "fallback_media": {
          "url": "https://inaturalist-open-data.s3.amazonaws.com/photos/329472539/original.jpeg",
          "references": "https://www.inaturalist.org/photos/329472539",
          "title": null,
          "creator": "John Ocampo",
          "publisher": "iNaturalist",
          "license": "http://creativecommons.org/licenses/by/4.0/",
          "rightsHolder": "John Ocampo"
        }
      }
    },
    {
      "type": "Feature",
      "geometry": {
        "type": "Point",
        "coordinates": [
          -79.157778,
          -3.4125
        ]
      },
      "properties": {
        "gbifID": "4062063372",
        "species": "Passiflora tryphostemmatoides",
        "genus": "Passiflora",
        "family": "Passifloraceae",
        "scientificName": "Passiflora tryphostemmatoides Harms",
        "coordinateUncertaintyInMeters": "",
        "basisOfRecord": "PRESERVED_SPECIMEN",
        "eventDate": "1977-02-17",
        "country": null,
        "datasetName": "Tropicos",
        "publisher": "Missouri Botanical Garden",
        "license": "CC_BY_4_0",
        "issues": [
          "OCCURRENCE_STATUS_INFERRED_FROM_INDIVIDUAL_COUNT",
          "COORDINATE_ROUNDED",
          "GEODETIC_DATUM_ASSUMED_WGS84",
          "INSTITUTION_MATCH_FUZZY",
          "COLLECTION_MATCH_NONE",
          "TAXON_ID_NOT_FOUND"
        ],
        "fallback_media": {
          "url": "https://inaturalist-open-data.s3.amazonaws.com/photos/329472539/original.jpeg",
          "references": "https://www.inaturalist.org/photos/329472539",
          "title": null,
          "creator": "John Ocampo",
          "publisher": "iNaturalist",
          "license": "http://creativecommons.org/licenses/by/4.0/",
          "rightsHolder": "John Ocampo"
        }
      }
    },
    {
      "type": "Feature",
      "geometry": {
        "type": "Point",
        "coordinates": [
          -75.62,
          4.675833
        ]
      },
      "properties": {
        "gbifID": "1257799028",
        "species": "Passiflora tryphostemmatoides",
        "genus": "Passiflora",
        "family": "Passifloraceae",
        "scientificName": "Passiflora tryphostemmatoides Harms",
        "coordinateUncertaintyInMeters": "",
        "basisOfRecord": "PRESERVED_SPECIMEN",
        "eventDate": "2008-09-06",
        "country": null,
        "datasetName": "Tropicos",
        "publisher": "Missouri Botanical Garden",
        "license": "CC_BY_4_0",
        "issues": [
          "OCCURRENCE_STATUS_INFERRED_FROM_INDIVIDUAL_COUNT",
          "COORDINATE_ROUNDED",
          "GEODETIC_DATUM_ASSUMED_WGS84",
          "INSTITUTION_MATCH_FUZZY",
          "COLLECTION_MATCH_NONE",
          "TAXON_ID_NOT_FOUND"
        ],
        "fallback_media": {
          "url": "https://inaturalist-open-data.s3.amazonaws.com/photos/329472539/original.jpeg",
          "references": "https://www.inaturalist.org/photos/329472539",
          "title": null,
          "creator": "John Ocampo",
          "publisher": "iNaturalist",
          "license": "http://creativecommons.org/licenses/by/4.0/",
          "rightsHolder": "John Ocampo"
        }
      }
    },
    {
      "type": "Feature",
      "geometry": {
        "type": "Point",
        "coordinates": [
          -76.566667,
          3.6
        ]
      },
      "properties": {
        "gbifID": "1257768658",
        "species": "Passiflora tryphostemmatoides",
        "genus": "Passiflora",
        "family": "Passifloraceae",
        "scientificName": "Passiflora tryphostemmatoides Harms",
        "coordinateUncertaintyInMeters": "",
        "basisOfRecord": "PRESERVED_SPECIMEN",
        "eventDate": "1998-12-10",
        "country": null,
        "datasetName": "Tropicos",
        "publisher": "Missouri Botanical Garden",
        "license": "CC_BY_4_0",
        "issues": [
          "OCCURRENCE_STATUS_INFERRED_FROM_INDIVIDUAL_COUNT",
          "COORDINATE_ROUNDED",
          "GEODETIC_DATUM_ASSUMED_WGS84",
          "INSTITUTION_MATCH_FUZZY",
          "COLLECTION_MATCH_NONE",
          "TAXON_ID_NOT_FOUND"
        ],
        "fallback_media": {
          "url": "https://inaturalist-open-data.s3.amazonaws.com/photos/329472539/original.jpeg",
          "references": "https://www.inaturalist.org/photos/329472539",
          "title": null,
          "creator": "John Ocampo",
          "publisher": "iNaturalist",
          "license": "http://creativecommons.org/licenses/by/4.0/",
          "rightsHolder": "John Ocampo"
        }
      }
    },
    {
      "type": "Feature",
      "geometry": {
        "type": "Point",
        "coordinates": [
          -75.629372,
          4.771756
        ]
      },
      "properties": {
        "gbifID": "6120846326",
        "species": "Passiflora tryphostemmatoides",
        "genus": "Passiflora",
        "family": "Passifloraceae",
        "scientificName": "Passiflora tryphostemmatoides Harms",
        "coordinateUncertaintyInMeters": "",
        "basisOfRecord": "PRESERVED_SPECIMEN",
        "eventDate": "",
        "country": null,
        "datasetName": "Tropicos",
        "publisher": "Missouri Botanical Garden",
        "license": "CC_BY_4_0",
        "issues": [
          "OCCURRENCE_STATUS_INFERRED_FROM_INDIVIDUAL_COUNT",
          "RECORDED_DATE_INVALID",
          "COORDINATE_ROUNDED",
          "GEODETIC_DATUM_ASSUMED_WGS84",
          "INSTITUTION_MATCH_NONE",
          "TAXON_ID_NOT_FOUND"
        ],
        "fallback_media": {
          "url": "https://inaturalist-open-data.s3.amazonaws.com/photos/329472539/original.jpeg",
          "references": "https://www.inaturalist.org/photos/329472539",
          "title": null,
          "creator": "John Ocampo",
          "publisher": "iNaturalist",
          "license": "http://creativecommons.org/licenses/by/4.0/",
          "rightsHolder": "John Ocampo"
        }
      }
    },
    {
      "type": "Feature",
      "geometry": {
        "type": "Point",
        "coordinates": [
          -76.683333,
          3.183333
        ]
      },
      "properties": {
        "gbifID": "1257768608",
        "species": "Passiflora tryphostemmatoides",
        "genus": "Passiflora",
        "family": "Passifloraceae",
        "scientificName": "Passiflora tryphostemmatoides Harms",
        "coordinateUncertaintyInMeters": "",
        "basisOfRecord": "PRESERVED_SPECIMEN",
        "eventDate": "1981-11-08",
        "country": null,
        "datasetName": "Tropicos",
        "publisher": "Missouri Botanical Garden",
        "license": "CC_BY_4_0",
        "issues": [
          "OCCURRENCE_STATUS_INFERRED_FROM_INDIVIDUAL_COUNT",
          "COORDINATE_ROUNDED",
          "GEODETIC_DATUM_ASSUMED_WGS84",
          "INSTITUTION_MATCH_FUZZY",
          "COLLECTION_MATCH_NONE",
          "TAXON_ID_NOT_FOUND"
        ],
        "fallback_media": {
          "url": "https://inaturalist-open-data.s3.amazonaws.com/photos/329472539/original.jpeg",
          "references": "https://www.inaturalist.org/photos/329472539",
          "title": null,
          "creator": "John Ocampo",
          "publisher": "iNaturalist",
          "license": "http://creativecommons.org/licenses/by/4.0/",
          "rightsHolder": "John Ocampo"
        }
      }
    },
    {
      "type": "Feature",
      "geometry": {
        "type": "Point",
        "coordinates": [
          -76.166667,
          4.566667
        ]
      },
      "properties": {
        "gbifID": "4061538994",
        "species": "Passiflora tryphostemmatoides",
        "genus": "Passiflora",
        "family": "Passifloraceae",
        "scientificName": "Passiflora tryphostemmatoides Harms",
        "coordinateUncertaintyInMeters": "",
        "basisOfRecord": "PRESERVED_SPECIMEN",
        "eventDate": "1962-12-05",
        "country": null,
        "datasetName": "Tropicos",
        "publisher": "Missouri Botanical Garden",
        "license": "CC_BY_4_0",
        "issues": [
          "OCCURRENCE_STATUS_INFERRED_FROM_INDIVIDUAL_COUNT",
          "COORDINATE_ROUNDED",
          "GEODETIC_DATUM_ASSUMED_WGS84",
          "AMBIGUOUS_INSTITUTION",
          "TAXON_ID_NOT_FOUND"
        ],
        "fallback_media": {
          "url": "https://inaturalist-open-data.s3.amazonaws.com/photos/329472539/original.jpeg",
          "references": "https://www.inaturalist.org/photos/329472539",
          "title": null,
          "creator": "John Ocampo",
          "publisher": "iNaturalist",
          "license": "http://creativecommons.org/licenses/by/4.0/",
          "rightsHolder": "John Ocampo"
        }
      }
    },
    {
      "type": "Feature",
      "geometry": {
        "type": "Point",
        "coordinates": [
          -76.933333,
          2.533333
        ]
      },
      "properties": {
        "gbifID": "1257768639",
        "species": "Passiflora tryphostemmatoides",
        "genus": "Passiflora",
        "family": "Passifloraceae",
        "scientificName": "Passiflora tryphostemmatoides Harms",
        "coordinateUncertaintyInMeters": "",
        "basisOfRecord": "PRESERVED_SPECIMEN",
        "eventDate": "",
        "country": null,
        "datasetName": "Tropicos",
        "publisher": "Missouri Botanical Garden",
        "license": "CC_BY_4_0",
        "issues": [
          "OCCURRENCE_STATUS_INFERRED_FROM_INDIVIDUAL_COUNT",
          "COORDINATE_ROUNDED",
          "GEODETIC_DATUM_ASSUMED_WGS84",
          "INSTITUTION_MATCH_NONE",
          "TAXON_ID_NOT_FOUND"
        ],
        "fallback_media": {
          "url": "https://inaturalist-open-data.s3.amazonaws.com/photos/329472539/original.jpeg",
          "references": "https://www.inaturalist.org/photos/329472539",
          "title": null,
          "creator": "John Ocampo",
          "publisher": "iNaturalist",
          "license": "http://creativecommons.org/licenses/by/4.0/",
          "rightsHolder": "John Ocampo"
        }
      }
    },
    {
      "type": "Feature",
      "geometry": {
        "type": "Point",
        "coordinates": [
          -76.65,
          3.416667
        ]
      },
      "properties": {
        "gbifID": "1257603952",
        "species": "Passiflora tryphostemmatoides",
        "genus": "Passiflora",
        "family": "Passifloraceae",
        "scientificName": "Passiflora tryphostemmatoides Harms",
        "coordinateUncertaintyInMeters": "",
        "basisOfRecord": "PRESERVED_SPECIMEN",
        "eventDate": "1940-05-09",
        "country": null,
        "datasetName": "Tropicos",
        "publisher": "Missouri Botanical Garden",
        "license": "CC_BY_4_0",
        "issues": [
          "OCCURRENCE_STATUS_INFERRED_FROM_INDIVIDUAL_COUNT",
          "COORDINATE_ROUNDED",
          "GEODETIC_DATUM_ASSUMED_WGS84",
          "AMBIGUOUS_INSTITUTION",
          "TAXON_ID_NOT_FOUND"
        ],
        "fallback_media": {
          "url": "https://inaturalist-open-data.s3.amazonaws.com/photos/329472539/original.jpeg",
          "references": "https://www.inaturalist.org/photos/329472539",
          "title": null,
          "creator": "John Ocampo",
          "publisher": "iNaturalist",
          "license": "http://creativecommons.org/licenses/by/4.0/",
          "rightsHolder": "John Ocampo"
        }
      }
    },
    {
      "type": "Feature",
      "geometry": {
        "type": "Point",
        "coordinates": [
          -76.6,
          3.433333
        ]
      },
      "properties": {
        "gbifID": "1257541525",
        "species": "Passiflora tryphostemmatoides",
        "genus": "Passiflora",
        "family": "Passifloraceae",
        "scientificName": "Passiflora tryphostemmatoides Harms",
        "coordinateUncertaintyInMeters": "",
        "basisOfRecord": "PRESERVED_SPECIMEN",
        "eventDate": "1961-07-05",
        "country": null,
        "datasetName": "Tropicos",
        "publisher": "Missouri Botanical Garden",
        "license": "CC_BY_4_0",
        "issues": [
          "OCCURRENCE_STATUS_INFERRED_FROM_INDIVIDUAL_COUNT",
          "COORDINATE_ROUNDED",
          "GEODETIC_DATUM_ASSUMED_WGS84",
          "INSTITUTION_MATCH_FUZZY",
          "COLLECTION_MATCH_NONE",
          "TAXON_ID_NOT_FOUND"
        ],
        "fallback_media": {
          "url": "https://inaturalist-open-data.s3.amazonaws.com/photos/329472539/original.jpeg",
          "references": "https://www.inaturalist.org/photos/329472539",
          "title": null,
          "creator": "John Ocampo",
          "publisher": "iNaturalist",
          "license": "http://creativecommons.org/licenses/by/4.0/",
          "rightsHolder": "John Ocampo"
        }
      }
    },
    {
      "type": "Feature",
      "geometry": {
        "type": "Point",
        "coordinates": [
          -76.562778,
          3.638889
        ]
      },
      "properties": {
        "gbifID": "1257517256",
        "species": "Passiflora tryphostemmatoides",
        "genus": "Passiflora",
        "family": "Passifloraceae",
        "scientificName": "Passiflora tryphostemmatoides Harms",
        "coordinateUncertaintyInMeters": "",
        "basisOfRecord": "PRESERVED_SPECIMEN",
        "eventDate": "1945-02-24",
        "country": null,
        "datasetName": "Tropicos",
        "publisher": "Missouri Botanical Garden",
        "license": "CC_BY_4_0",
        "issues": [
          "OCCURRENCE_STATUS_INFERRED_FROM_INDIVIDUAL_COUNT",
          "COORDINATE_ROUNDED",
          "GEODETIC_DATUM_ASSUMED_WGS84",
          "INSTITUTION_MATCH_FUZZY",
          "COLLECTION_MATCH_NONE",
          "TAXON_ID_NOT_FOUND"
        ],
        "fallback_media": {
          "url": "https://inaturalist-open-data.s3.amazonaws.com/photos/329472539/original.jpeg",
          "references": "https://www.inaturalist.org/photos/329472539",
          "title": null,
          "creator": "John Ocampo",
          "publisher": "iNaturalist",
          "license": "http://creativecommons.org/licenses/by/4.0/",
          "rightsHolder": "John Ocampo"
        }
      }
    },
    {
      "type": "Feature",
      "geometry": {
        "type": "Point",
        "coordinates": [
          -76.916667,
          2.5
        ]
      },
      "properties": {
        "gbifID": "1257768601",
        "species": "Passiflora tryphostemmatoides",
        "genus": "Passiflora",
        "family": "Passifloraceae",
        "scientificName": "Passiflora tryphostemmatoides Harms",
        "coordinateUncertaintyInMeters": "",
        "basisOfRecord": "PRESERVED_SPECIMEN",
        "eventDate": "1984-05-07",
        "country": null,
        "datasetName": "Tropicos",
        "publisher": "Missouri Botanical Garden",
        "license": "CC_BY_4_0",
        "issues": [
          "OCCURRENCE_STATUS_INFERRED_FROM_INDIVIDUAL_COUNT",
          "COORDINATE_ROUNDED",
          "GEODETIC_DATUM_ASSUMED_WGS84",
          "INSTITUTION_MATCH_FUZZY",
          "COLLECTION_MATCH_NONE",
          "TAXON_ID_NOT_FOUND"
        ],
        "fallback_media": {
          "url": "https://inaturalist-open-data.s3.amazonaws.com/photos/329472539/original.jpeg",
          "references": "https://www.inaturalist.org/photos/329472539",
          "title": null,
          "creator": "John Ocampo",
          "publisher": "iNaturalist",
          "license": "http://creativecommons.org/licenses/by/4.0/",
          "rightsHolder": "John Ocampo"
        }
      }
    },
    {
      "type": "Feature",
      "geometry": {
        "type": "Point",
        "coordinates": [
          -76.883056,
          2.459444
        ]
      },
      "properties": {
        "gbifID": "1257752632",
        "species": "Passiflora tryphostemmatoides",
        "genus": "Passiflora",
        "family": "Passifloraceae",
        "scientificName": "Passiflora tryphostemmatoides Harms",
        "coordinateUncertaintyInMeters": "",
        "basisOfRecord": "PRESERVED_SPECIMEN",
        "eventDate": "1991-05-13",
        "country": null,
        "datasetName": "Tropicos",
        "publisher": "Missouri Botanical Garden",
        "license": "CC_BY_4_0",
        "issues": [
          "OCCURRENCE_STATUS_INFERRED_FROM_INDIVIDUAL_COUNT",
          "COORDINATE_ROUNDED",
          "GEODETIC_DATUM_ASSUMED_WGS84",
          "INSTITUTION_MATCH_FUZZY",
          "COLLECTION_MATCH_NONE",
          "TAXON_ID_NOT_FOUND"
        ],
        "fallback_media": {
          "url": "https://inaturalist-open-data.s3.amazonaws.com/photos/329472539/original.jpeg",
          "references": "https://www.inaturalist.org/photos/329472539",
          "title": null,
          "creator": "John Ocampo",
          "publisher": "iNaturalist",
          "license": "http://creativecommons.org/licenses/by/4.0/",
          "rightsHolder": "John Ocampo"
        }
      }
    },
    {
      "type": "Feature",
      "geometry": {
        "type": "Point",
        "coordinates": [
          -76.65,
          3.525833
        ]
      },
      "properties": {
        "gbifID": "1260688102",
        "species": "Passiflora tryphostemmatoides",
        "genus": "Passiflora",
        "family": "Passifloraceae",
        "scientificName": "Passiflora tryphostemmatoides Harms",
        "coordinateUncertaintyInMeters": "",
        "basisOfRecord": "PRESERVED_SPECIMEN",
        "eventDate": "1905-12",
        "country": null,
        "datasetName": "Tropicos",
        "publisher": "Missouri Botanical Garden",
        "license": "CC_BY_4_0",
        "issues": [
          "OCCURRENCE_STATUS_INFERRED_FROM_INDIVIDUAL_COUNT",
          "COORDINATE_ROUNDED",
          "GEODETIC_DATUM_ASSUMED_WGS84",
          "AMBIGUOUS_INSTITUTION",
          "TAXON_ID_NOT_FOUND"
        ],
        "fallback_media": {
          "url": "https://inaturalist-open-data.s3.amazonaws.com/photos/329472539/original.jpeg",
          "references": "https://www.inaturalist.org/photos/329472539",
          "title": null,
          "creator": "John Ocampo",
          "publisher": "iNaturalist",
          "license": "http://creativecommons.org/licenses/by/4.0/",
          "rightsHolder": "John Ocampo"
        }
      }
    },
    {
      "type": "Feature",
      "geometry": {
        "type": "Point",
        "coordinates": [
          -76.933333,
          2.516667
        ]
      },
      "properties": {
        "gbifID": "1257768650",
        "species": "Passiflora tryphostemmatoides",
        "genus": "Passiflora",
        "family": "Passifloraceae",
        "scientificName": "Passiflora tryphostemmatoides Harms",
        "coordinateUncertaintyInMeters": "",
        "basisOfRecord": "PRESERVED_SPECIMEN",
        "eventDate": "1984-05-05",
        "country": null,
        "datasetName": "Tropicos",
        "publisher": "Missouri Botanical Garden",
        "license": "CC_BY_4_0",
        "issues": [
          "OCCURRENCE_STATUS_INFERRED_FROM_INDIVIDUAL_COUNT",
          "COORDINATE_ROUNDED",
          "GEODETIC_DATUM_ASSUMED_WGS84",
          "INSTITUTION_MATCH_FUZZY",
          "COLLECTION_MATCH_NONE",
          "TAXON_ID_NOT_FOUND"
        ],
        "fallback_media": {
          "url": "https://inaturalist-open-data.s3.amazonaws.com/photos/329472539/original.jpeg",
          "references": "https://www.inaturalist.org/photos/329472539",
          "title": null,
          "creator": "John Ocampo",
          "publisher": "iNaturalist",
          "license": "http://creativecommons.org/licenses/by/4.0/",
          "rightsHolder": "John Ocampo"
        }
      }
    },
    {
      "type": "Feature",
      "geometry": {
        "type": "Point",
        "coordinates": [
          -76.039464,
          2.467523
        ]
      },
      "properties": {
        "gbifID": "4430687177",
        "species": "Passiflora tryphostemmatoides",
        "genus": "Passiflora",
        "family": "Passifloraceae",
        "scientificName": "Passiflora tryphostemmatoides Harms",
        "coordinateUncertaintyInMeters": "2015.0",
        "basisOfRecord": "HUMAN_OBSERVATION",
        "eventDate": "2008-11-17T23:27",
        "country": null,
        "datasetName": "iNaturalist research-grade observations",
        "publisher": "iNaturalist.org",
        "license": "CC_BY_4_0",
        "issues": [
          "COORDINATE_ROUNDED",
          "CONTINENT_DERIVED_FROM_COORDINATES",
          "TAXON_ID_NOT_FOUND"
        ],
        "media": [
          {
            "url": "https://inaturalist-open-data.s3.amazonaws.com/photos/329472539/original.jpeg",
            "references": "https://www.inaturalist.org/photos/329472539",
            "title": null,
            "creator": "John Ocampo",
            "publisher": "iNaturalist",
            "license": "http://creativecommons.org/licenses/by/4.0/",
            "rightsHolder": "John Ocampo"
          }
        ]
      }
    },
    {
      "type": "Feature",
      "geometry": {
        "type": "Point",
        "coordinates": [
          -76.744594,
          3.435706
        ]
      },
      "properties": {
        "gbifID": "5903951105",
        "species": "Passiflora tryphostemmatoides",
        "genus": "Passiflora",
        "family": "Passifloraceae",
        "scientificName": "Passiflora tryphostemmatoides Harms",
        "coordinateUncertaintyInMeters": "31422.0",
        "basisOfRecord": "HUMAN_OBSERVATION",
        "eventDate": "2025-10-19T09:31:25",
        "country": null,
        "datasetName": "iNaturalist research-grade observations",
        "publisher": "iNaturalist.org",
        "license": "CC_BY_NC_4_0",
        "issues": [
          "COORDINATE_ROUNDED",
          "CONTINENT_DERIVED_FROM_COORDINATES",
          "TAXON_ID_NOT_FOUND"
        ],
        "media": [
          {
            "url": "https://inaturalist-open-data.s3.amazonaws.com/photos/590054922/original.jpg",
            "references": "https://www.inaturalist.org/photos/590054922",
            "title": null,
            "creator": "Omar Monzon Carmona",
            "publisher": "iNaturalist",
            "license": "http://creativecommons.org/licenses/by-nc/4.0/",
            "rightsHolder": "Omar Monzon Carmona"
          },
          {
            "url": "https://inaturalist-open-data.s3.amazonaws.com/photos/590054946/original.jpg",
            "references": "https://www.inaturalist.org/photos/590054946",
            "title": null,
            "creator": "Omar Monzon Carmona",
            "publisher": "iNaturalist",
            "license": "http://creativecommons.org/licenses/by-nc/4.0/",
            "rightsHolder": "Omar Monzon Carmona"
          }
        ]
      }
    },
    {
      "type": "Feature",
      "geometry": {
        "type": "Point",
        "coordinates": [
          -76.653814,
          3.453626
        ]
      },
      "properties": {
        "gbifID": "6162862835",
        "species": "Passiflora tryphostemmatoides",
        "genus": "Passiflora",
        "family": "Passifloraceae",
        "scientificName": "Passiflora tryphostemmatoides Harms",
        "coordinateUncertaintyInMeters": "",
        "basisOfRecord": "HUMAN_OBSERVATION",
        "eventDate": "2025-10-18T11:35:27",
        "country": null,
        "datasetName": "iNaturalist research-grade observations",
        "publisher": "iNaturalist.org",
        "license": "CC_BY_NC_4_0",
        "issues": [
          "COORDINATE_ROUNDED",
          "CONTINENT_DERIVED_FROM_COORDINATES",
          "TAXON_ID_NOT_FOUND"
        ],
        "media": [
          {
            "url": "https://inaturalist-open-data.s3.amazonaws.com/photos/581909950/original.jpg",
            "references": "https://www.inaturalist.org/photos/581909950",
            "title": null,
            "creator": "Santiago Sierra-Paz",
            "publisher": "iNaturalist",
            "license": "http://creativecommons.org/licenses/by-nc/4.0/",
            "rightsHolder": "Santiago Sierra-Paz"
          }
        ]
      }
    },
    {
      "type": "Feature",
      "geometry": {
        "type": "Point",
        "coordinates": [
          -76.607404,
          3.506783
        ]
      },
      "properties": {
        "gbifID": "3044565842",
        "species": "Passiflora tryphostemmatoides",
        "genus": "Passiflora",
        "family": "Passifloraceae",
        "scientificName": "Passiflora tryphostemmatoides Harms",
        "coordinateUncertaintyInMeters": "5920.0",
        "basisOfRecord": "HUMAN_OBSERVATION",
        "eventDate": "1997-03-08",
        "country": null,
        "datasetName": "iNaturalist research-grade observations",
        "publisher": "iNaturalist.org",
        "license": "CC_BY_NC_4_0",
        "issues": [
          "COORDINATE_ROUNDED",
          "CONTINENT_DERIVED_FROM_COORDINATES",
          "TAXON_ID_NOT_FOUND"
        ],
        "media": [
          {
            "url": "https://inaturalist-open-data.s3.amazonaws.com/photos/112344688/original.jpeg",
            "references": "https://www.inaturalist.org/photos/112344688",
            "title": null,
            "creator": "coqwallon",
            "publisher": "iNaturalist",
            "license": "http://creativecommons.org/licenses/by-nc/4.0/",
            "rightsHolder": "coqwallon"
          }
        ]
      }
    },
    {
      "type": "Feature",
      "geometry": {
        "type": "Point",
        "coordinates": [
          -76.613674,
          3.522168
        ]
      },
      "properties": {
        "gbifID": "4067377519",
        "species": "Passiflora tryphostemmatoides",
        "genus": "Passiflora",
        "family": "Passifloraceae",
        "scientificName": "Passiflora tryphostemmatoides Harms",
        "coordinateUncertaintyInMeters": "615.0",
        "basisOfRecord": "HUMAN_OBSERVATION",
        "eventDate": "2023-02-23T13:13",
        "country": null,
        "datasetName": "iNaturalist research-grade observations",
        "publisher": "iNaturalist.org",
        "license": "CC_BY_NC_4_0",
        "issues": [
          "COORDINATE_ROUNDED",
          "CONTINENT_DERIVED_FROM_COORDINATES",
          "TAXON_ID_NOT_FOUND"
        ],
        "fallback_media": {
          "url": "https://inaturalist-open-data.s3.amazonaws.com/photos/329472539/original.jpeg",
          "references": "https://www.inaturalist.org/photos/329472539",
          "title": null,
          "creator": "John Ocampo",
          "publisher": "iNaturalist",
          "license": "http://creativecommons.org/licenses/by/4.0/",
          "rightsHolder": "John Ocampo"
        }
      }
    },
    {
      "type": "Feature",
      "geometry": {
        "type": "Point",
        "coordinates": [
          -76.555772,
          3.628617
        ]
      },
      "properties": {
        "gbifID": "5062706472",
        "species": "Passiflora tryphostemmatoides",
        "genus": "Passiflora",
        "family": "Passifloraceae",
        "scientificName": "Passiflora tryphostemmatoides Harms",
        "coordinateUncertaintyInMeters": "39.0",
        "basisOfRecord": "HUMAN_OBSERVATION",
        "eventDate": "2024-01-02T09:47:05",
        "country": null,
        "datasetName": "iNaturalist research-grade observations",
        "publisher": "iNaturalist.org",
        "license": "CC_BY_4_0",
        "issues": [
          "COORDINATE_ROUNDED",
          "CONTINENT_DERIVED_FROM_COORDINATES",
          "TAXON_ID_NOT_FOUND"
        ],
        "media": [
          {
            "url": "https://inaturalist-open-data.s3.amazonaws.com/photos/344114658/original.jpg",
            "references": "https://www.inaturalist.org/photos/344114658",
            "title": null,
            "creator": "Nicolás Baresch Uribe",
            "publisher": "iNaturalist",
            "license": "http://creativecommons.org/licenses/by/4.0/",
            "rightsHolder": "Nicolás Baresch Uribe"
          },
          {
            "url": "https://inaturalist-open-data.s3.amazonaws.com/photos/344114681/original.jpg",
            "references": "https://www.inaturalist.org/photos/344114681",
            "title": null,
            "creator": "Nicolás Baresch Uribe",
            "publisher": "iNaturalist",
            "license": "http://creativecommons.org/licenses/by/4.0/",
            "rightsHolder": "Nicolás Baresch Uribe"
          }
        ]
      }
    },
    {
      "type": "Feature",
      "geometry": {
        "type": "Point",
        "coordinates": [
          -76.654029,
          3.3472
        ]
      },
      "properties": {
        "gbifID": "4535597882",
        "species": "Passiflora tryphostemmatoides",
        "genus": "Passiflora",
        "family": "Passifloraceae",
        "scientificName": "Passiflora tryphostemmatoides Harms",
        "coordinateUncertaintyInMeters": "151.0",
        "basisOfRecord": "HUMAN_OBSERVATION",
        "eventDate": "2023-07-25T13:10",
        "country": null,
        "datasetName": "iNaturalist research-grade observations",
        "publisher": "iNaturalist.org",
        "license": "CC_BY_NC_4_0",
        "issues": [
          "COORDINATE_ROUNDED",
          "CONTINENT_DERIVED_FROM_COORDINATES",
          "TAXON_ID_NOT_FOUND"
        ],
        "fallback_media": {
          "url": "https://inaturalist-open-data.s3.amazonaws.com/photos/329472539/original.jpeg",
          "references": "https://www.inaturalist.org/photos/329472539",
          "title": null,
          "creator": "John Ocampo",
          "publisher": "iNaturalist",
          "license": "http://creativecommons.org/licenses/by/4.0/",
          "rightsHolder": "John Ocampo"
        }
      }
    },
    {
      "type": "Feature",
      "geometry": {
        "type": "Point",
        "coordinates": [
          -76.606306,
          3.539576
        ]
      },
      "properties": {
        "gbifID": "5140027486",
        "species": "Passiflora tryphostemmatoides",
        "genus": "Passiflora",
        "family": "Passifloraceae",
        "scientificName": "Passiflora tryphostemmatoides Harms",
        "coordinateUncertaintyInMeters": "217.0",
        "basisOfRecord": "HUMAN_OBSERVATION",
        "eventDate": "2025-02-04T13:45",
        "country": null,
        "datasetName": "iNaturalist research-grade observations",
        "publisher": "iNaturalist.org",
        "license": "CC0_1_0",
        "issues": [
          "COORDINATE_ROUNDED",
          "CONTINENT_DERIVED_FROM_COORDINATES",
          "TAXON_ID_NOT_FOUND"
        ],
        "media": [
          {
            "url": "https://inaturalist-open-data.s3.amazonaws.com/photos/473341748/original.jpeg",
            "references": "https://www.inaturalist.org/photos/473341748",
            "title": null,
            "creator": "Arne Holgersson",
            "publisher": "iNaturalist",
            "license": "http://creativecommons.org/publicdomain/zero/1.0/",
            "rightsHolder": "Arne Holgersson"
          }
        ]
      }
    },
    {
      "type": "Feature",
      "geometry": {
        "type": "Point",
        "coordinates": [
          -76.436272,
          3.876089
        ]
      },
      "properties": {
        "gbifID": "6235931511",
        "species": "Passiflora tryphostemmatoides",
        "genus": "Passiflora",
        "family": "Passifloraceae",
        "scientificName": "Passiflora tryphostemmatoides Harms",
        "coordinateUncertaintyInMeters": "31.0",
        "basisOfRecord": "HUMAN_OBSERVATION",
        "eventDate": "2005-12-20T20:25:03",
        "country": null,
        "datasetName": "iNaturalist research-grade observations",
        "publisher": "iNaturalist.org",
        "license": "CC_BY_4_0",
        "issues": [
          "COORDINATE_ROUNDED",
          "CONTINENT_DERIVED_FROM_COORDINATES",
          "TAXON_ID_NOT_FOUND"
        ],
        "media": [
          {
            "url": "https://inaturalist-open-data.s3.amazonaws.com/photos/638562130/original.jpg",
            "references": "https://www.inaturalist.org/photos/638562130",
            "title": null,
            "creator": "John Ocampo",
            "publisher": "iNaturalist",
            "license": "http://creativecommons.org/licenses/by/4.0/",
            "rightsHolder": "John Ocampo"
          },
          {
            "url": "https://inaturalist-open-data.s3.amazonaws.com/photos/638563190/original.jpg",
            "references": "https://www.inaturalist.org/photos/638563190",
            "title": null,
            "creator": "John Ocampo",
            "publisher": "iNaturalist",
            "license": "http://creativecommons.org/licenses/by/4.0/",
            "rightsHolder": "John Ocampo"
          },
          {
            "url": "https://inaturalist-open-data.s3.amazonaws.com/photos/638563194/original.jpg",
            "references": "https://www.inaturalist.org/photos/638563194",
            "title": null,
            "creator": "John Ocampo",
            "publisher": "iNaturalist",
            "license": "http://creativecommons.org/licenses/by/4.0/",
            "rightsHolder": "John Ocampo"
          },
          {
            "url": "https://inaturalist-open-data.s3.amazonaws.com/photos/638563526/original.jpg",
            "references": "https://www.inaturalist.org/photos/638563526",
            "title": null,
            "creator": "John Ocampo",
            "publisher": "iNaturalist",
            "license": "http://creativecommons.org/licenses/by/4.0/",
            "rightsHolder": "John Ocampo"
          }
        ]
      }
    },
    {
      "type": "Feature",
      "geometry": {
        "type": "Point",
        "coordinates": [
          -75.9589,
          2.28917
        ]
      },
      "properties": {
        "gbifID": "1314960014",
        "species": "Passiflora tryphostemmatoides",
        "genus": "Passiflora",
        "family": "Passifloraceae",
        "scientificName": "Passiflora tryphostemmatoides Harms",
        "coordinateUncertaintyInMeters": "",
        "basisOfRecord": "HUMAN_OBSERVATION",
        "eventDate": "",
        "country": null,
        "datasetName": "",
        "publisher": "Universidad Nacional de Colombia",
        "license": "CC_BY_NC_4_0",
        "issues": [
          "GEODETIC_DATUM_ASSUMED_WGS84",
          "CONTINENT_DERIVED_FROM_COORDINATES",
          "COORDINATE_PRECISION_INVALID"
        ],
        "fallback_media": {
          "url": "https://inaturalist-open-data.s3.amazonaws.com/photos/329472539/original.jpeg",
          "references": "https://www.inaturalist.org/photos/329472539",
          "title": null,
          "creator": "John Ocampo",
          "publisher": "iNaturalist",
          "license": "http://creativecommons.org/licenses/by/4.0/",
          "rightsHolder": "John Ocampo"
        }
      }
    },
    {
      "type": "Feature",
      "geometry": {
        "type": "Point",
        "coordinates": [
          -76.111981,
          2.212623
        ]
      },
      "properties": {
        "gbifID": "1890978589",
        "species": "Passiflora tryphostemmatoides",
        "genus": "Passiflora",
        "family": "Passifloraceae",
        "scientificName": "Passiflora tryphostemmatoides Harms",
        "coordinateUncertaintyInMeters": "883.0",
        "basisOfRecord": "PRESERVED_SPECIMEN",
        "eventDate": "1982-04-22",
        "country": null,
        "datasetName": "Datos Depurados/sistematizados por Expedición por la historia - ColombiaBio",
        "publisher": "Universidad Nacional de Colombia",
        "license": "CC_BY_4_0",
        "issues": [],
        "fallback_media": {
          "url": "https://inaturalist-open-data.s3.amazonaws.com/photos/329472539/original.jpeg",
          "references": "https://www.inaturalist.org/photos/329472539",
          "title": null,
          "creator": "John Ocampo",
          "publisher": "iNaturalist",
          "license": "http://creativecommons.org/licenses/by/4.0/",
          "rightsHolder": "John Ocampo"
        }
      }
    },
    {
      "type": "Feature",
      "geometry": {
        "type": "Point",
        "coordinates": [
          -76.117875,
          2.218862
        ]
      },
      "properties": {
        "gbifID": "1844951349",
        "species": "Passiflora tryphostemmatoides",
        "genus": "Passiflora",
        "family": "Passifloraceae",
        "scientificName": "Passiflora tryphostemmatoides Harms",
        "coordinateUncertaintyInMeters": "883.0",
        "basisOfRecord": "PRESERVED_SPECIMEN",
        "eventDate": "1975-07-20",
        "country": null,
        "datasetName": "Convenio Especial de Cooperación #13-238 entre IAvH y UN - 30 Septiembre 2013",
        "publisher": "Universidad Nacional de Colombia",
        "license": "CC_BY_4_0",
        "issues": [],
        "fallback_media": {
          "url": "https://inaturalist-open-data.s3.amazonaws.com/photos/329472539/original.jpeg",
          "references": "https://www.inaturalist.org/photos/329472539",
          "title": null,
          "creator": "John Ocampo",
          "publisher": "iNaturalist",
          "license": "http://creativecommons.org/licenses/by/4.0/",
          "rightsHolder": "John Ocampo"
        }
      }
    },
    {
      "type": "Feature",
      "geometry": {
        "type": "Point",
        "coordinates": [
          -76.900574,
          2.687386
        ]
      },
      "properties": {
        "gbifID": "1898918018",
        "species": "Passiflora tryphostemmatoides",
        "genus": "Passiflora",
        "family": "Passifloraceae",
        "scientificName": "Passiflora tryphostemmatoides Harms",
        "coordinateUncertaintyInMeters": "1681.0",
        "basisOfRecord": "PRESERVED_SPECIMEN",
        "eventDate": "1993-07-26",
        "country": null,
        "datasetName": "Datos Depurados/sistematizados por Expedición por la historia - ColombiaBio",
        "publisher": "Universidad Nacional de Colombia",
        "license": "CC_BY_4_0",
        "issues": [],
        "fallback_media": {
          "url": "https://inaturalist-open-data.s3.amazonaws.com/photos/329472539/original.jpeg",
          "references": "https://www.inaturalist.org/photos/329472539",
          "title": null,
          "creator": "John Ocampo",
          "publisher": "iNaturalist",
          "license": "http://creativecommons.org/licenses/by/4.0/",
          "rightsHolder": "John Ocampo"
        }
      }
    },
    {
      "type": "Feature",
      "geometry": {
        "type": "Point",
        "coordinates": [
          -76.258355,
          1.981433
        ]
      },
      "properties": {
        "gbifID": "1890951127",
        "species": "Passiflora tryphostemmatoides",
        "genus": "Passiflora",
        "family": "Passifloraceae",
        "scientificName": "Passiflora tryphostemmatoides Harms",
        "coordinateUncertaintyInMeters": "524.0",
        "basisOfRecord": "PRESERVED_SPECIMEN",
        "eventDate": "1980-07-23",
        "country": null,
        "datasetName": "Datos Depurados/sistematizados por Expedición por la historia - ColombiaBio",
        "publisher": "Universidad Nacional de Colombia",
        "license": "CC_BY_4_0",
        "issues": [],
        "fallback_media": {
          "url": "https://inaturalist-open-data.s3.amazonaws.com/photos/329472539/original.jpeg",
          "references": "https://www.inaturalist.org/photos/329472539",
          "title": null,
          "creator": "John Ocampo",
          "publisher": "iNaturalist",
          "license": "http://creativecommons.org/licenses/by/4.0/",
          "rightsHolder": "John Ocampo"
        }
      }
    },
    {
      "type": "Feature",
      "geometry": {
        "type": "Point",
        "coordinates": [
          -76.605937,
          3.482927
        ]
      },
      "properties": {
        "gbifID": "2013814211",
        "species": "Passiflora tryphostemmatoides",
        "genus": "Passiflora",
        "family": "Passifloraceae",
        "scientificName": "Passiflora tryphostemmatoides Harms",
        "coordinateUncertaintyInMeters": "1293.0",
        "basisOfRecord": "PRESERVED_SPECIMEN",
        "eventDate": "1997-07-14",
        "country": null,
        "datasetName": "Datos Depurados/sistematizados por Expedición por la historia - ColombiaBio",
        "publisher": "Universidad Nacional de Colombia",
        "license": "CC_BY_4_0",
        "issues": [],
        "fallback_media": {
          "url": "https://inaturalist-open-data.s3.amazonaws.com/photos/329472539/original.jpeg",
          "references": "https://www.inaturalist.org/photos/329472539",
          "title": null,
          "creator": "John Ocampo",
          "publisher": "iNaturalist",
          "license": "http://creativecommons.org/licenses/by/4.0/",
          "rightsHolder": "John Ocampo"
        }
      }
    },
    {
      "type": "Feature",
      "geometry": {
        "type": "Point",
        "coordinates": [
          -75.554157,
          4.861436
        ]
      },
      "properties": {
        "gbifID": "1891010563",
        "species": "Passiflora tryphostemmatoides",
        "genus": "Passiflora",
        "family": "Passifloraceae",
        "scientificName": "Passiflora tryphostemmatoides Harms",
        "coordinateUncertaintyInMeters": "551.0",
        "basisOfRecord": "PRESERVED_SPECIMEN",
        "eventDate": "1980-07-20",
        "country": null,
        "datasetName": "Datos Depurados/sistematizados por Expedición por la historia - ColombiaBio",
        "publisher": "Universidad Nacional de Colombia",
        "license": "CC_BY_4_0",
        "issues": [],
        "fallback_media": {
          "url": "https://inaturalist-open-data.s3.amazonaws.com/photos/329472539/original.jpeg",
          "references": "https://www.inaturalist.org/photos/329472539",
          "title": null,
          "creator": "John Ocampo",
          "publisher": "iNaturalist",
          "license": "http://creativecommons.org/licenses/by/4.0/",
          "rightsHolder": "John Ocampo"
        }
      }
    },
    {
      "type": "Feature",
      "geometry": {
        "type": "Point",
        "coordinates": [
          -76.883769,
          2.706993
        ]
      },
      "properties": {
        "gbifID": "2013814241",
        "species": "Passiflora tryphostemmatoides",
        "genus": "Passiflora",
        "family": "Passifloraceae",
        "scientificName": "Passiflora tryphostemmatoides Harms",
        "coordinateUncertaintyInMeters": "391.0",
        "basisOfRecord": "PRESERVED_SPECIMEN",
        "eventDate": "",
        "country": null,
        "datasetName": "Datos Depurados/sistematizados por Expedición por la historia - ColombiaBio",
        "publisher": "Universidad Nacional de Colombia",
        "license": "CC_BY_4_0",
        "issues": [],
        "fallback_media": {
          "url": "https://inaturalist-open-data.s3.amazonaws.com/photos/329472539/original.jpeg",
          "references": "https://www.inaturalist.org/photos/329472539",
          "title": null,
          "creator": "John Ocampo",
          "publisher": "iNaturalist",
          "license": "http://creativecommons.org/licenses/by/4.0/",
          "rightsHolder": "John Ocampo"
        }
      }
    },
    {
      "type": "Feature",
      "geometry": {
        "type": "Point",
        "coordinates": [
          -76.375363,
          1.847059
        ]
      },
      "properties": {
        "gbifID": "1934697083",
        "species": "Passiflora tryphostemmatoides",
        "genus": "Passiflora",
        "family": "Passifloraceae",
        "scientificName": "Passiflora tryphostemmatoides Harms",
        "coordinateUncertaintyInMeters": "1159.0",
        "basisOfRecord": "PRESERVED_SPECIMEN",
        "eventDate": "1958-08-27",
        "country": null,
        "datasetName": "Datos Depurados/sistematizados por Expedición por la historia - ColombiaBio",
        "publisher": "Universidad Nacional de Colombia",
        "license": "CC_BY_4_0",
        "issues": [],
        "fallback_media": {
          "url": "https://inaturalist-open-data.s3.amazonaws.com/photos/329472539/original.jpeg",
          "references": "https://www.inaturalist.org/photos/329472539",
          "title": null,
          "creator": "John Ocampo",
          "publisher": "iNaturalist",
          "license": "http://creativecommons.org/licenses/by/4.0/",
          "rightsHolder": "John Ocampo"
        }
      }
    },
    {
      "type": "Feature",
      "geometry": {
        "type": "Point",
        "coordinates": [
          -76.910723,
          2.684198
        ]
      },
      "properties": {
        "gbifID": "2013814161",
        "species": "Passiflora tryphostemmatoides",
        "genus": "Passiflora",
        "family": "Passifloraceae",
        "scientificName": "Passiflora tryphostemmatoides Harms",
        "coordinateUncertaintyInMeters": "1681.0",
        "basisOfRecord": "PRESERVED_SPECIMEN",
        "eventDate": "1994-04-14",
        "country": null,
        "datasetName": "Datos Depurados/sistematizados por Expedición por la historia - ColombiaBio",
        "publisher": "Universidad Nacional de Colombia",
        "license": "CC_BY_4_0",
        "issues": [],
        "fallback_media": {
          "url": "https://inaturalist-open-data.s3.amazonaws.com/photos/329472539/original.jpeg",
          "references": "https://www.inaturalist.org/photos/329472539",
          "title": null,
          "creator": "John Ocampo",
          "publisher": "iNaturalist",
          "license": "http://creativecommons.org/licenses/by/4.0/",
          "rightsHolder": "John Ocampo"
        }
      }
    },
    {
      "type": "Feature",
      "geometry": {
        "type": "Point",
        "coordinates": [
          -76.895102,
          2.747171
        ]
      },
      "properties": {
        "gbifID": "1898918003",
        "species": "Passiflora tryphostemmatoides",
        "genus": "Passiflora",
        "family": "Passifloraceae",
        "scientificName": "Passiflora tryphostemmatoides Harms",
        "coordinateUncertaintyInMeters": "1681.0",
        "basisOfRecord": "PRESERVED_SPECIMEN",
        "eventDate": "1993-07-19",
        "country": null,
        "datasetName": "Datos Depurados/sistematizados por Expedición por la historia - ColombiaBio",
        "publisher": "Universidad Nacional de Colombia",
        "license": "CC_BY_4_0",
        "issues": [],
        "fallback_media": {
          "url": "https://inaturalist-open-data.s3.amazonaws.com/photos/329472539/original.jpeg",
          "references": "https://www.inaturalist.org/photos/329472539",
          "title": null,
          "creator": "John Ocampo",
          "publisher": "iNaturalist",
          "license": "http://creativecommons.org/licenses/by/4.0/",
          "rightsHolder": "John Ocampo"
        }
      }
    },
    {
      "type": "Feature",
      "geometry": {
        "type": "Point",
        "coordinates": [
          -76.906598,
          2.634723
        ]
      },
      "properties": {
        "gbifID": "2013814313",
        "species": "Passiflora tryphostemmatoides",
        "genus": "Passiflora",
        "family": "Passifloraceae",
        "scientificName": "Passiflora tryphostemmatoides Harms",
        "coordinateUncertaintyInMeters": "1681.0",
        "basisOfRecord": "PRESERVED_SPECIMEN",
        "eventDate": "1994-04-15",
        "country": null,
        "datasetName": "Datos Depurados/sistematizados por Expedición por la historia - ColombiaBio",
        "publisher": "Universidad Nacional de Colombia",
        "license": "CC_BY_4_0",
        "issues": [],
        "fallback_media": {
          "url": "https://inaturalist-open-data.s3.amazonaws.com/photos/329472539/original.jpeg",
          "references": "https://www.inaturalist.org/photos/329472539",
          "title": null,
          "creator": "John Ocampo",
          "publisher": "iNaturalist",
          "license": "http://creativecommons.org/licenses/by/4.0/",
          "rightsHolder": "John Ocampo"
        }
      }
    },
    {
      "type": "Feature",
      "geometry": {
        "type": "Point",
        "coordinates": [
          -76.905956,
          2.686603
        ]
      },
      "properties": {
        "gbifID": "1898918021",
        "species": "Passiflora tryphostemmatoides",
        "genus": "Passiflora",
        "family": "Passifloraceae",
        "scientificName": "Passiflora tryphostemmatoides Harms",
        "coordinateUncertaintyInMeters": "1681.0",
        "basisOfRecord": "PRESERVED_SPECIMEN",
        "eventDate": "1993-07-28",
        "country": null,
        "datasetName": "Datos Depurados/sistematizados por Expedición por la historia - ColombiaBio",
        "publisher": "Universidad Nacional de Colombia",
        "license": "CC_BY_4_0",
        "issues": [],
        "fallback_media": {
          "url": "https://inaturalist-open-data.s3.amazonaws.com/photos/329472539/original.jpeg",
          "references": "https://www.inaturalist.org/photos/329472539",
          "title": null,
          "creator": "John Ocampo",
          "publisher": "iNaturalist",
          "license": "http://creativecommons.org/licenses/by/4.0/",
          "rightsHolder": "John Ocampo"
        }
      }
    }
  ]
}
