{
  "type": "FeatureCollection",
  "metadata": {
    "host_taxon": {
      "canonical_name": "Passiflora elegans",
      "rank": "species",
      "family": "Passifloraceae",
      "genus": "Passiflora",
      "species": "Passiflora elegans",
      "slug": "species_passiflora_elegans",
      "resolvable_to_gbif": true,
      "use_for_default_download": true,
      "association_count": 2,
      "butterfly_taxa": [
        "Dryas iulia",
        "Heliconius erato"
      ],
      "confidence_counts": {
        "medium": 2
      },
      "occurrence_file": "occurrences/species_passiflora_elegans.geojson",
      "gbif_resolution": {
        "query": "Passiflora elegans",
        "rank": "species",
        "status": "resolved",
        "gbif_taxon_key": 8022506,
        "accepted_usage_key": null,
        "scientific_name": "Passiflora elegans Mart.",
        "canonical_name": "Passiflora elegans",
        "gbif_rank": "SPECIES",
        "taxonomic_status": "ACCEPTED",
        "match_type": "EXACT",
        "confidence": 99,
        "kingdom": "Plantae",
        "family": "Passifloraceae",
        "genus": "Passiflora",
        "resolved_at": "2026-05-21T03:58:18+00:00"
      },
      "gbif_taxon_key": 8022506,
      "gbif_status": "resolved",
      "occurrence_count": 0,
      "occurrence_mode": "not_generated",
      "occurrence_cap": null
    },
    "gbif_resolution": {
      "query": "Passiflora elegans",
      "rank": "species",
      "status": "resolved",
      "gbif_taxon_key": 8022506,
      "accepted_usage_key": null,
      "scientific_name": "Passiflora elegans Mart.",
      "canonical_name": "Passiflora elegans",
      "gbif_rank": "SPECIES",
      "taxonomic_status": "ACCEPTED",
      "match_type": "EXACT",
      "confidence": 99,
      "kingdom": "Plantae",
      "family": "Passifloraceae",
      "genus": "Passiflora",
      "resolved_at": "2026-05-21T03:58:18+00:00"
    },
    "occurrence_query": {
      "method": "gbif_download_api",
      "download_key": "0004690-260519110011954",
      "download_doi": "10.15468/dl.s2gcc3",
      "download_doi_url": "https://doi.org/10.15468/dl.s2gcc3",
      "limit": null,
      "dedupe": "Exact duplicate coordinates removed per taxon after DWCA download.",
      "filters": "GBIF Download API DWCA with TAXON_KEY, HAS_COORDINATE=true, HAS_GEOSPATIAL_ISSUE=false, OCCURRENCE_STATUS=PRESENT; app study extent and coordinate uncertainty <=100km applied locally.",
      "returned_unique_coordinate_records": 42
    },
    "scientific_caveat": "GBIF plant occurrences are sampling-biased context records and do not prove local host use or ecological availability for the butterfly.",
    "generated_at": "2026-05-21T15:57:20+00:00"
  },
  "features": [
    {
      "type": "Feature",
      "geometry": {
        "type": "Point",
        "coordinates": [
          -53.47,
          -30.508056
        ]
      },
      "properties": {
        "gbifID": "2997677020",
        "species": "Passiflora elegans",
        "genus": "Passiflora",
        "family": "Passifloraceae",
        "scientificName": "Passiflora elegans Mart.",
        "coordinateUncertaintyInMeters": "",
        "basisOfRecord": "PRESERVED_SPECIMEN",
        "eventDate": "2002-10-08",
        "country": null,
        "datasetName": "",
        "publisher": "Instituto de Pesquisas Jardim Botanico do Rio de Janeiro",
        "license": "CC_BY_4_0",
        "issues": [
          "RECORDED_DATE_INVALID",
          "IDENTIFIED_DATE_INVALID",
          "COORDINATE_ROUNDED",
          "GEODETIC_DATUM_ASSUMED_WGS84",
          "CONTINENT_DERIVED_FROM_COORDINATES",
          "ELEVATION_MIN_MAX_SWAPPED",
          "INSTITUTION_MATCH_FUZZY",
          "COLLECTION_MATCH_FUZZY",
          "TAXON_MATCH_HIGHERRANK"
        ],
        "fallback_media": {
          "url": "https://inaturalist-open-data.s3.amazonaws.com/photos/328793576/original.jpg",
          "references": "https://www.inaturalist.org/photos/328793576",
          "title": null,
          "creator": "nicolasweissheimer",
          "publisher": "iNaturalist",
          "license": "http://creativecommons.org/licenses/by-nc/4.0/",
          "rightsHolder": "nicolasweissheimer"
        }
      }
    },
    {
      "type": "Feature",
      "geometry": {
        "type": "Point",
        "coordinates": [
          -55.916667,
          -28.933333
        ]
      },
      "properties": {
        "gbifID": "2997653790",
        "species": "Passiflora elegans",
        "genus": "Passiflora",
        "family": "Passifloraceae",
        "scientificName": "Passiflora elegans Mart.",
        "coordinateUncertaintyInMeters": "",
        "basisOfRecord": "PRESERVED_SPECIMEN",
        "eventDate": "1990-11-02",
        "country": null,
        "datasetName": "",
        "publisher": "Instituto de Pesquisas Jardim Botanico do Rio de Janeiro",
        "license": "CC_BY_4_0",
        "issues": [
          "RECORDED_DATE_INVALID",
          "IDENTIFIED_DATE_INVALID",
          "COORDINATE_ROUNDED",
          "GEODETIC_DATUM_ASSUMED_WGS84",
          "CONTINENT_DERIVED_FROM_COORDINATES",
          "INSTITUTION_MATCH_FUZZY",
          "COLLECTION_MATCH_FUZZY",
          "TAXON_MATCH_HIGHERRANK"
        ],
        "fallback_media": {
          "url": "https://inaturalist-open-data.s3.amazonaws.com/photos/328793576/original.jpg",
          "references": "https://www.inaturalist.org/photos/328793576",
          "title": null,
          "creator": "nicolasweissheimer",
          "publisher": "iNaturalist",
          "license": "http://creativecommons.org/licenses/by-nc/4.0/",
          "rightsHolder": "nicolasweissheimer"
        }
      }
    },
    {
      "type": "Feature",
      "geometry": {
        "type": "Point",
        "coordinates": [
          -53.557222,
          -30.537778
        ]
      },
      "properties": {
        "gbifID": "2997676723",
        "species": "Passiflora elegans",
        "genus": "Passiflora",
        "family": "Passifloraceae",
        "scientificName": "Passiflora elegans Mart.",
        "coordinateUncertaintyInMeters": "",
        "basisOfRecord": "PRESERVED_SPECIMEN",
        "eventDate": "2002-10-10",
        "country": null,
        "datasetName": "",
        "publisher": "Instituto de Pesquisas Jardim Botanico do Rio de Janeiro",
        "license": "CC_BY_4_0",
        "issues": [
          "IDENTIFIED_DATE_INVALID",
          "COORDINATE_ROUNDED",
          "GEODETIC_DATUM_ASSUMED_WGS84",
          "CONTINENT_DERIVED_FROM_COORDINATES",
          "ELEVATION_MIN_MAX_SWAPPED",
          "INSTITUTION_MATCH_FUZZY",
          "COLLECTION_MATCH_FUZZY",
          "TAXON_MATCH_HIGHERRANK"
        ],
        "fallback_media": {
          "url": "https://inaturalist-open-data.s3.amazonaws.com/photos/328793576/original.jpg",
          "references": "https://www.inaturalist.org/photos/328793576",
          "title": null,
          "creator": "nicolasweissheimer",
          "publisher": "iNaturalist",
          "license": "http://creativecommons.org/licenses/by-nc/4.0/",
          "rightsHolder": "nicolasweissheimer"
        }
      }
    },
    {
      "type": "Feature",
      "geometry": {
        "type": "Point",
        "coordinates": [
          -53.367778,
          -30.4825
        ]
      },
      "properties": {
        "gbifID": "2997676983",
        "species": "Passiflora elegans",
        "genus": "Passiflora",
        "family": "Passifloraceae",
        "scientificName": "Passiflora elegans Mart.",
        "coordinateUncertaintyInMeters": "",
        "basisOfRecord": "PRESERVED_SPECIMEN",
        "eventDate": "2002-10-08",
        "country": null,
        "datasetName": "",
        "publisher": "Instituto de Pesquisas Jardim Botanico do Rio de Janeiro",
        "license": "CC_BY_4_0",
        "issues": [
          "RECORDED_DATE_INVALID",
          "IDENTIFIED_DATE_INVALID",
          "COORDINATE_ROUNDED",
          "GEODETIC_DATUM_ASSUMED_WGS84",
          "CONTINENT_DERIVED_FROM_COORDINATES",
          "ELEVATION_MIN_MAX_SWAPPED",
          "INSTITUTION_MATCH_FUZZY",
          "COLLECTION_MATCH_FUZZY",
          "TAXON_MATCH_HIGHERRANK"
        ],
        "fallback_media": {
          "url": "https://inaturalist-open-data.s3.amazonaws.com/photos/328793576/original.jpg",
          "references": "https://www.inaturalist.org/photos/328793576",
          "title": null,
          "creator": "nicolasweissheimer",
          "publisher": "iNaturalist",
          "license": "http://creativecommons.org/licenses/by-nc/4.0/",
          "rightsHolder": "nicolasweissheimer"
        }
      }
    },
    {
      "type": "Feature",
      "geometry": {
        "type": "Point",
        "coordinates": [
          -53.528333,
          -30.609167
        ]
      },
      "properties": {
        "gbifID": "2997676953",
        "species": "Passiflora elegans",
        "genus": "Passiflora",
        "family": "Passifloraceae",
        "scientificName": "Passiflora elegans Mart.",
        "coordinateUncertaintyInMeters": "",
        "basisOfRecord": "PRESERVED_SPECIMEN",
        "eventDate": "2002-10-09",
        "country": null,
        "datasetName": "",
        "publisher": "Instituto de Pesquisas Jardim Botanico do Rio de Janeiro",
        "license": "CC_BY_4_0",
        "issues": [
          "RECORDED_DATE_INVALID",
          "IDENTIFIED_DATE_INVALID",
          "COORDINATE_ROUNDED",
          "GEODETIC_DATUM_ASSUMED_WGS84",
          "CONTINENT_DERIVED_FROM_COORDINATES",
          "ELEVATION_MIN_MAX_SWAPPED",
          "INSTITUTION_MATCH_FUZZY",
          "COLLECTION_MATCH_FUZZY",
          "TAXON_MATCH_HIGHERRANK"
        ],
        "fallback_media": {
          "url": "https://inaturalist-open-data.s3.amazonaws.com/photos/328793576/original.jpg",
          "references": "https://www.inaturalist.org/photos/328793576",
          "title": null,
          "creator": "nicolasweissheimer",
          "publisher": "iNaturalist",
          "license": "http://creativecommons.org/licenses/by-nc/4.0/",
          "rightsHolder": "nicolasweissheimer"
        }
      }
    },
    {
      "type": "Feature",
      "geometry": {
        "type": "Point",
        "coordinates": [
          -53.367778,
          -30.483333
        ]
      },
      "properties": {
        "gbifID": "2997677026",
        "species": "Passiflora elegans",
        "genus": "Passiflora",
        "family": "Passifloraceae",
        "scientificName": "Passiflora elegans Mart.",
        "coordinateUncertaintyInMeters": "",
        "basisOfRecord": "PRESERVED_SPECIMEN",
        "eventDate": "2002-10-08",
        "country": null,
        "datasetName": "",
        "publisher": "Instituto de Pesquisas Jardim Botanico do Rio de Janeiro",
        "license": "CC_BY_4_0",
        "issues": [
          "RECORDED_DATE_INVALID",
          "IDENTIFIED_DATE_INVALID",
          "COORDINATE_ROUNDED",
          "GEODETIC_DATUM_ASSUMED_WGS84",
          "CONTINENT_DERIVED_FROM_COORDINATES",
          "ELEVATION_MIN_MAX_SWAPPED",
          "INSTITUTION_MATCH_FUZZY",
          "COLLECTION_MATCH_FUZZY",
          "TAXON_MATCH_HIGHERRANK"
        ],
        "fallback_media": {
          "url": "https://inaturalist-open-data.s3.amazonaws.com/photos/328793576/original.jpg",
          "references": "https://www.inaturalist.org/photos/328793576",
          "title": null,
          "creator": "nicolasweissheimer",
          "publisher": "iNaturalist",
          "license": "http://creativecommons.org/licenses/by-nc/4.0/",
          "rightsHolder": "nicolasweissheimer"
        }
      }
    },
    {
      "type": "Feature",
      "geometry": {
        "type": "Point",
        "coordinates": [
          -51.3925,
          -30.179722
        ]
      },
      "properties": {
        "gbifID": "2997567950",
        "species": "Passiflora elegans",
        "genus": "Passiflora",
        "family": "Passifloraceae",
        "scientificName": "Passiflora elegans Mart.",
        "coordinateUncertaintyInMeters": "",
        "basisOfRecord": "PRESERVED_SPECIMEN",
        "eventDate": "2008-10-21",
        "country": null,
        "datasetName": "",
        "publisher": "Instituto de Pesquisas Jardim Botanico do Rio de Janeiro",
        "license": "CC_BY_4_0",
        "issues": [
          "IDENTIFIED_DATE_INVALID",
          "COORDINATE_ROUNDED",
          "GEODETIC_DATUM_ASSUMED_WGS84",
          "CONTINENT_DERIVED_FROM_COORDINATES",
          "INSTITUTION_MATCH_FUZZY",
          "COLLECTION_MATCH_FUZZY",
          "TAXON_MATCH_HIGHERRANK"
        ],
        "fallback_media": {
          "url": "https://inaturalist-open-data.s3.amazonaws.com/photos/328793576/original.jpg",
          "references": "https://www.inaturalist.org/photos/328793576",
          "title": null,
          "creator": "nicolasweissheimer",
          "publisher": "iNaturalist",
          "license": "http://creativecommons.org/licenses/by-nc/4.0/",
          "rightsHolder": "nicolasweissheimer"
        }
      }
    },
    {
      "type": "Feature",
      "geometry": {
        "type": "Point",
        "coordinates": [
          -56.1,
          -30.366667
        ]
      },
      "properties": {
        "gbifID": "2997567993",
        "species": "Passiflora elegans",
        "genus": "Passiflora",
        "family": "Passifloraceae",
        "scientificName": "Passiflora elegans Mart.",
        "coordinateUncertaintyInMeters": "",
        "basisOfRecord": "PRESERVED_SPECIMEN",
        "eventDate": "2009-12-02",
        "country": null,
        "datasetName": "",
        "publisher": "Instituto de Pesquisas Jardim Botanico do Rio de Janeiro",
        "license": "CC_BY_4_0",
        "issues": [
          "RECORDED_DATE_INVALID",
          "IDENTIFIED_DATE_INVALID",
          "COORDINATE_ROUNDED",
          "GEODETIC_DATUM_ASSUMED_WGS84",
          "CONTINENT_DERIVED_FROM_COORDINATES",
          "INSTITUTION_MATCH_FUZZY",
          "COLLECTION_MATCH_FUZZY",
          "TAXON_MATCH_HIGHERRANK"
        ],
        "fallback_media": {
          "url": "https://inaturalist-open-data.s3.amazonaws.com/photos/328793576/original.jpg",
          "references": "https://www.inaturalist.org/photos/328793576",
          "title": null,
          "creator": "nicolasweissheimer",
          "publisher": "iNaturalist",
          "license": "http://creativecommons.org/licenses/by-nc/4.0/",
          "rightsHolder": "nicolasweissheimer"
        }
      }
    },
    {
      "type": "Feature",
      "geometry": {
        "type": "Point",
        "coordinates": [
          -53.955,
          -30.354167
        ]
      },
      "properties": {
        "gbifID": "2997676917",
        "species": "Passiflora elegans",
        "genus": "Passiflora",
        "family": "Passifloraceae",
        "scientificName": "Passiflora elegans Mart.",
        "coordinateUncertaintyInMeters": "",
        "basisOfRecord": "PRESERVED_SPECIMEN",
        "eventDate": "2002-11-14",
        "country": null,
        "datasetName": "",
        "publisher": "Instituto de Pesquisas Jardim Botanico do Rio de Janeiro",
        "license": "CC_BY_4_0",
        "issues": [
          "IDENTIFIED_DATE_INVALID",
          "COORDINATE_ROUNDED",
          "GEODETIC_DATUM_ASSUMED_WGS84",
          "CONTINENT_DERIVED_FROM_COORDINATES",
          "ELEVATION_MIN_MAX_SWAPPED",
          "INSTITUTION_MATCH_FUZZY",
          "COLLECTION_MATCH_FUZZY",
          "TAXON_MATCH_HIGHERRANK"
        ],
        "fallback_media": {
          "url": "https://inaturalist-open-data.s3.amazonaws.com/photos/328793576/original.jpg",
          "references": "https://www.inaturalist.org/photos/328793576",
          "title": null,
          "creator": "nicolasweissheimer",
          "publisher": "iNaturalist",
          "license": "http://creativecommons.org/licenses/by-nc/4.0/",
          "rightsHolder": "nicolasweissheimer"
        }
      }
    },
    {
      "type": "Feature",
      "geometry": {
        "type": "Point",
        "coordinates": [
          -51.230278,
          -30.188056
        ]
      },
      "properties": {
        "gbifID": "2997568140",
        "species": "Passiflora elegans",
        "genus": "Passiflora",
        "family": "Passifloraceae",
        "scientificName": "Passiflora elegans Mart.",
        "coordinateUncertaintyInMeters": "",
        "basisOfRecord": "PRESERVED_SPECIMEN",
        "eventDate": "2017-01-04",
        "country": null,
        "datasetName": "",
        "publisher": "Instituto de Pesquisas Jardim Botanico do Rio de Janeiro",
        "license": "CC_BY_4_0",
        "issues": [
          "RECORDED_DATE_INVALID",
          "IDENTIFIED_DATE_INVALID",
          "COORDINATE_ROUNDED",
          "GEODETIC_DATUM_ASSUMED_WGS84",
          "CONTINENT_DERIVED_FROM_COORDINATES",
          "ELEVATION_MIN_MAX_SWAPPED",
          "INSTITUTION_MATCH_FUZZY",
          "COLLECTION_MATCH_FUZZY",
          "TAXON_MATCH_HIGHERRANK"
        ],
        "fallback_media": {
          "url": "https://inaturalist-open-data.s3.amazonaws.com/photos/328793576/original.jpg",
          "references": "https://www.inaturalist.org/photos/328793576",
          "title": null,
          "creator": "nicolasweissheimer",
          "publisher": "iNaturalist",
          "license": "http://creativecommons.org/licenses/by-nc/4.0/",
          "rightsHolder": "nicolasweissheimer"
        }
      }
    },
    {
      "type": "Feature",
      "geometry": {
        "type": "Point",
        "coordinates": [
          -53.3675,
          -30.483056
        ]
      },
      "properties": {
        "gbifID": "2997676956",
        "species": "Passiflora elegans",
        "genus": "Passiflora",
        "family": "Passifloraceae",
        "scientificName": "Passiflora elegans Mart.",
        "coordinateUncertaintyInMeters": "",
        "basisOfRecord": "PRESERVED_SPECIMEN",
        "eventDate": "2002-10-08",
        "country": null,
        "datasetName": "",
        "publisher": "Instituto de Pesquisas Jardim Botanico do Rio de Janeiro",
        "license": "CC_BY_4_0",
        "issues": [
          "RECORDED_DATE_INVALID",
          "IDENTIFIED_DATE_INVALID",
          "COORDINATE_ROUNDED",
          "GEODETIC_DATUM_ASSUMED_WGS84",
          "CONTINENT_DERIVED_FROM_COORDINATES",
          "ELEVATION_MIN_MAX_SWAPPED",
          "INSTITUTION_MATCH_FUZZY",
          "COLLECTION_MATCH_FUZZY",
          "TAXON_MATCH_HIGHERRANK"
        ],
        "fallback_media": {
          "url": "https://inaturalist-open-data.s3.amazonaws.com/photos/328793576/original.jpg",
          "references": "https://www.inaturalist.org/photos/328793576",
          "title": null,
          "creator": "nicolasweissheimer",
          "publisher": "iNaturalist",
          "license": "http://creativecommons.org/licenses/by-nc/4.0/",
          "rightsHolder": "nicolasweissheimer"
        }
      }
    },
    {
      "type": "Feature",
      "geometry": {
        "type": "Point",
        "coordinates": [
          -51.381667,
          -30.180556
        ]
      },
      "properties": {
        "gbifID": "2997567343",
        "species": "Passiflora elegans",
        "genus": "Passiflora",
        "family": "Passifloraceae",
        "scientificName": "Passiflora elegans Mart.",
        "coordinateUncertaintyInMeters": "",
        "basisOfRecord": "PRESERVED_SPECIMEN",
        "eventDate": "2007-09-28",
        "country": null,
        "datasetName": "",
        "publisher": "Instituto de Pesquisas Jardim Botanico do Rio de Janeiro",
        "license": "CC_BY_4_0",
        "issues": [
          "IDENTIFIED_DATE_INVALID",
          "COORDINATE_ROUNDED",
          "GEODETIC_DATUM_ASSUMED_WGS84",
          "CONTINENT_DERIVED_FROM_COORDINATES",
          "INSTITUTION_MATCH_FUZZY",
          "COLLECTION_MATCH_FUZZY",
          "TAXON_MATCH_HIGHERRANK"
        ],
        "fallback_media": {
          "url": "https://inaturalist-open-data.s3.amazonaws.com/photos/328793576/original.jpg",
          "references": "https://www.inaturalist.org/photos/328793576",
          "title": null,
          "creator": "nicolasweissheimer",
          "publisher": "iNaturalist",
          "license": "http://creativecommons.org/licenses/by-nc/4.0/",
          "rightsHolder": "nicolasweissheimer"
        }
      }
    },
    {
      "type": "Feature",
      "geometry": {
        "type": "Point",
        "coordinates": [
          -51.215833,
          -30.146944
        ]
      },
      "properties": {
        "gbifID": "2997568146",
        "species": "Passiflora elegans",
        "genus": "Passiflora",
        "family": "Passifloraceae",
        "scientificName": "Passiflora elegans Mart.",
        "coordinateUncertaintyInMeters": "",
        "basisOfRecord": "PRESERVED_SPECIMEN",
        "eventDate": "2017-01-08",
        "country": null,
        "datasetName": "",
        "publisher": "Instituto de Pesquisas Jardim Botanico do Rio de Janeiro",
        "license": "CC_BY_4_0",
        "issues": [
          "RECORDED_DATE_INVALID",
          "IDENTIFIED_DATE_INVALID",
          "COORDINATE_ROUNDED",
          "GEODETIC_DATUM_ASSUMED_WGS84",
          "CONTINENT_DERIVED_FROM_COORDINATES",
          "ELEVATION_MIN_MAX_SWAPPED",
          "INSTITUTION_MATCH_FUZZY",
          "COLLECTION_MATCH_FUZZY",
          "TAXON_MATCH_HIGHERRANK"
        ],
        "fallback_media": {
          "url": "https://inaturalist-open-data.s3.amazonaws.com/photos/328793576/original.jpg",
          "references": "https://www.inaturalist.org/photos/328793576",
          "title": null,
          "creator": "nicolasweissheimer",
          "publisher": "iNaturalist",
          "license": "http://creativecommons.org/licenses/by-nc/4.0/",
          "rightsHolder": "nicolasweissheimer"
        }
      }
    },
    {
      "type": "Feature",
      "geometry": {
        "type": "Point",
        "coordinates": [
          -52.565,
          -30.174722
        ]
      },
      "properties": {
        "gbifID": "4949723382",
        "species": "Passiflora elegans",
        "genus": "Passiflora",
        "family": "Passifloraceae",
        "scientificName": "Passiflora elegans Mart.",
        "coordinateUncertaintyInMeters": "",
        "basisOfRecord": "PRESERVED_SPECIMEN",
        "eventDate": "2023-01-16",
        "country": null,
        "datasetName": "",
        "publisher": "Universidade de Caxias do Sul",
        "license": "CC_BY_4_0",
        "issues": [
          "CONTINENT_DERIVED_FROM_COORDINATES",
          "INSTITUTION_MATCH_FUZZY",
          "INSTITUTION_COLLECTION_MISMATCH"
        ],
        "fallback_media": {
          "url": "https://inaturalist-open-data.s3.amazonaws.com/photos/328793576/original.jpg",
          "references": "https://www.inaturalist.org/photos/328793576",
          "title": null,
          "creator": "nicolasweissheimer",
          "publisher": "iNaturalist",
          "license": "http://creativecommons.org/licenses/by-nc/4.0/",
          "rightsHolder": "nicolasweissheimer"
        }
      }
    },
    {
      "type": "Feature",
      "geometry": {
        "type": "Point",
        "coordinates": [
          -58.028056,
          -28.018611
        ]
      },
      "properties": {
        "gbifID": "5905103509",
        "species": "Passiflora elegans",
        "genus": "Passiflora",
        "family": "Passifloraceae",
        "scientificName": "Passiflora elegans Mart.",
        "coordinateUncertaintyInMeters": "",
        "basisOfRecord": "PRESERVED_SPECIMEN",
        "eventDate": "1952-09-09",
        "country": null,
        "datasetName": "",
        "publisher": "Lund University Biological Museum",
        "license": "CC_BY_NC_4_0",
        "issues": [
          "OCCURRENCE_STATUS_INFERRED_FROM_INDIVIDUAL_COUNT",
          "COORDINATE_ROUNDED",
          "GEODETIC_DATUM_ASSUMED_WGS84",
          "CONTINENT_DERIVED_FROM_COORDINATES",
          "CONTINENT_INVALID",
          "INSTITUTION_MATCH_FUZZY",
          "COLLECTION_MATCH_NONE"
        ],
        "fallback_media": {
          "url": "https://inaturalist-open-data.s3.amazonaws.com/photos/328793576/original.jpg",
          "references": "https://www.inaturalist.org/photos/328793576",
          "title": null,
          "creator": "nicolasweissheimer",
          "publisher": "iNaturalist",
          "license": "http://creativecommons.org/licenses/by-nc/4.0/",
          "rightsHolder": "nicolasweissheimer"
        }
      }
    },
    {
      "type": "Feature",
      "geometry": {
        "type": "Point",
        "coordinates": [
          -58.18,
          -27.99
        ]
      },
      "properties": {
        "gbifID": "417016185",
        "species": "Passiflora elegans",
        "genus": "Passiflora",
        "family": "Passifloraceae",
        "scientificName": "Passiflora elegans Mart.",
        "coordinateUncertaintyInMeters": "",
        "basisOfRecord": "PRESERVED_SPECIMEN",
        "eventDate": "",
        "country": null,
        "datasetName": "",
        "publisher": "Instituto de Botánica Darwinion - CONICET",
        "license": "CC_BY_4_0",
        "issues": [
          "GEODETIC_DATUM_ASSUMED_WGS84",
          "CONTINENT_DERIVED_FROM_COORDINATES",
          "INSTITUTION_MATCH_FUZZY",
          "INSTITUTION_COLLECTION_MISMATCH"
        ],
        "fallback_media": {
          "url": "https://inaturalist-open-data.s3.amazonaws.com/photos/328793576/original.jpg",
          "references": "https://www.inaturalist.org/photos/328793576",
          "title": null,
          "creator": "nicolasweissheimer",
          "publisher": "iNaturalist",
          "license": "http://creativecommons.org/licenses/by-nc/4.0/",
          "rightsHolder": "nicolasweissheimer"
        }
      }
    },
    {
      "type": "Feature",
      "geometry": {
        "type": "Point",
        "coordinates": [
          -55.4,
          -27.25
        ]
      },
      "properties": {
        "gbifID": "417016201",
        "species": "Passiflora elegans",
        "genus": "Passiflora",
        "family": "Passifloraceae",
        "scientificName": "Passiflora elegans Mart.",
        "coordinateUncertaintyInMeters": "",
        "basisOfRecord": "PRESERVED_SPECIMEN",
        "eventDate": "",
        "country": null,
        "datasetName": "",
        "publisher": "Instituto de Botánica Darwinion - CONICET",
        "license": "CC_BY_4_0",
        "issues": [
          "GEODETIC_DATUM_ASSUMED_WGS84",
          "CONTINENT_DERIVED_FROM_COORDINATES",
          "INSTITUTION_MATCH_FUZZY",
          "INSTITUTION_COLLECTION_MISMATCH"
        ],
        "fallback_media": {
          "url": "https://inaturalist-open-data.s3.amazonaws.com/photos/328793576/original.jpg",
          "references": "https://www.inaturalist.org/photos/328793576",
          "title": null,
          "creator": "nicolasweissheimer",
          "publisher": "iNaturalist",
          "license": "http://creativecommons.org/licenses/by-nc/4.0/",
          "rightsHolder": "nicolasweissheimer"
        }
      }
    },
    {
      "type": "Feature",
      "geometry": {
        "type": "Point",
        "coordinates": [
          -56.54,
          -28.81
        ]
      },
      "properties": {
        "gbifID": "417016202",
        "species": "Passiflora elegans",
        "genus": "Passiflora",
        "family": "Passifloraceae",
        "scientificName": "Passiflora elegans Mart.",
        "coordinateUncertaintyInMeters": "",
        "basisOfRecord": "PRESERVED_SPECIMEN",
        "eventDate": "",
        "country": null,
        "datasetName": "",
        "publisher": "Instituto de Botánica Darwinion - CONICET",
        "license": "CC_BY_4_0",
        "issues": [
          "GEODETIC_DATUM_ASSUMED_WGS84",
          "CONTINENT_DERIVED_FROM_COORDINATES",
          "INSTITUTION_MATCH_FUZZY",
          "INSTITUTION_COLLECTION_MISMATCH"
        ],
        "fallback_media": {
          "url": "https://inaturalist-open-data.s3.amazonaws.com/photos/328793576/original.jpg",
          "references": "https://www.inaturalist.org/photos/328793576",
          "title": null,
          "creator": "nicolasweissheimer",
          "publisher": "iNaturalist",
          "license": "http://creativecommons.org/licenses/by-nc/4.0/",
          "rightsHolder": "nicolasweissheimer"
        }
      }
    },
    {
      "type": "Feature",
      "geometry": {
        "type": "Point",
        "coordinates": [
          -51.087199,
          -29.94127
        ]
      },
      "properties": {
        "gbifID": "4430630287",
        "species": "Passiflora elegans",
        "genus": "Passiflora",
        "family": "Passifloraceae",
        "scientificName": "Passiflora elegans Mart.",
        "coordinateUncertaintyInMeters": "",
        "basisOfRecord": "HUMAN_OBSERVATION",
        "eventDate": "2023-10-17T15:42",
        "country": null,
        "datasetName": "iNaturalist research-grade observations",
        "publisher": "iNaturalist.org",
        "license": "CC_BY_NC_4_0",
        "issues": [
          "COORDINATE_ROUNDED",
          "CONTINENT_DERIVED_FROM_COORDINATES",
          "TAXON_ID_NOT_FOUND"
        ],
        "media": [
          {
            "url": "https://inaturalist-open-data.s3.amazonaws.com/photos/328793576/original.jpg",
            "references": "https://www.inaturalist.org/photos/328793576",
            "title": null,
            "creator": "nicolasweissheimer",
            "publisher": "iNaturalist",
            "license": "http://creativecommons.org/licenses/by-nc/4.0/",
            "rightsHolder": "nicolasweissheimer"
          },
          {
            "url": "https://inaturalist-open-data.s3.amazonaws.com/photos/328793592/original.jpg",
            "references": "https://www.inaturalist.org/photos/328793592",
            "title": null,
            "creator": "nicolasweissheimer",
            "publisher": "iNaturalist",
            "license": "http://creativecommons.org/licenses/by-nc/4.0/",
            "rightsHolder": "nicolasweissheimer"
          }
        ]
      }
    },
    {
      "type": "Feature",
      "geometry": {
        "type": "Point",
        "coordinates": [
          -58.439834,
          -34.546185
        ]
      },
      "properties": {
        "gbifID": "4976341784",
        "species": "Passiflora elegans",
        "genus": "Passiflora",
        "family": "Passifloraceae",
        "scientificName": "Passiflora elegans Mart.",
        "coordinateUncertaintyInMeters": "13.0",
        "basisOfRecord": "HUMAN_OBSERVATION",
        "eventDate": "2024-10-25T18:23:45",
        "country": null,
        "datasetName": "iNaturalist research-grade observations",
        "publisher": "iNaturalist.org",
        "license": "CC_BY_NC_4_0",
        "issues": [
          "CONTINENT_DERIVED_FROM_COORDINATES",
          "TAXON_ID_NOT_FOUND"
        ],
        "media": [
          {
            "url": "https://inaturalist-open-data.s3.amazonaws.com/photos/445203987/original.jpeg",
            "references": "https://www.inaturalist.org/photos/445203987",
            "title": null,
            "creator": "juancruzaltube",
            "publisher": "iNaturalist",
            "license": "http://creativecommons.org/licenses/by-nc/4.0/",
            "rightsHolder": "juancruzaltube"
          },
          {
            "url": "https://inaturalist-open-data.s3.amazonaws.com/photos/445204056/original.jpeg",
            "references": "https://www.inaturalist.org/photos/445204056",
            "title": null,
            "creator": "juancruzaltube",
            "publisher": "iNaturalist",
            "license": "http://creativecommons.org/licenses/by-nc/4.0/",
            "rightsHolder": "juancruzaltube"
          },
          {
            "url": "https://inaturalist-open-data.s3.amazonaws.com/photos/445204124/original.jpeg",
            "references": "https://www.inaturalist.org/photos/445204124",
            "title": null,
            "creator": "juancruzaltube",
            "publisher": "iNaturalist",
            "license": "http://creativecommons.org/licenses/by-nc/4.0/",
            "rightsHolder": "juancruzaltube"
          }
        ]
      }
    },
    {
      "type": "Feature",
      "geometry": {
        "type": "Point",
        "coordinates": [
          -51.704228,
          -28.731921
        ]
      },
      "properties": {
        "gbifID": "6130501263",
        "species": "Passiflora elegans",
        "genus": "Passiflora",
        "family": "Passifloraceae",
        "scientificName": "Passiflora elegans Mart.",
        "coordinateUncertaintyInMeters": "2509.0",
        "basisOfRecord": "HUMAN_OBSERVATION",
        "eventDate": "2026-01-14T16:33",
        "country": null,
        "datasetName": "iNaturalist research-grade observations",
        "publisher": "iNaturalist.org",
        "license": "CC_BY_NC_4_0",
        "issues": [
          "COORDINATE_ROUNDED",
          "CONTINENT_DERIVED_FROM_COORDINATES",
          "TAXON_ID_NOT_FOUND"
        ],
        "media": [
          {
            "url": "https://inaturalist-open-data.s3.amazonaws.com/photos/610145596/original.jpg",
            "references": "https://www.inaturalist.org/photos/610145596",
            "title": null,
            "creator": "denisetedesco",
            "publisher": "iNaturalist",
            "license": "http://creativecommons.org/licenses/by-nc/4.0/",
            "rightsHolder": "denisetedesco"
          },
          {
            "url": "https://inaturalist-open-data.s3.amazonaws.com/photos/610145600/original.jpg",
            "references": "https://www.inaturalist.org/photos/610145600",
            "title": null,
            "creator": "denisetedesco",
            "publisher": "iNaturalist",
            "license": "http://creativecommons.org/licenses/by-nc/4.0/",
            "rightsHolder": "denisetedesco"
          },
          {
            "url": "https://inaturalist-open-data.s3.amazonaws.com/photos/610145592/original.jpg",
            "references": "https://www.inaturalist.org/photos/610145592",
            "title": null,
            "creator": "denisetedesco",
            "publisher": "iNaturalist",
            "license": "http://creativecommons.org/licenses/by-nc/4.0/",
            "rightsHolder": "denisetedesco"
          },
          {
            "url": "https://inaturalist-open-data.s3.amazonaws.com/photos/610145607/original.jpg",
            "references": "https://www.inaturalist.org/photos/610145607",
            "title": null,
            "creator": "denisetedesco",
            "publisher": "iNaturalist",
            "license": "http://creativecommons.org/licenses/by-nc/4.0/",
            "rightsHolder": "denisetedesco"
          }
        ]
      }
    },
    {
      "type": "Feature",
      "geometry": {
        "type": "Point",
        "coordinates": [
          -51.161352,
          -30.022907
        ]
      },
      "properties": {
        "gbifID": "3415936583",
        "species": "Passiflora elegans",
        "genus": "Passiflora",
        "family": "Passifloraceae",
        "scientificName": "Passiflora elegans Mart.",
        "coordinateUncertaintyInMeters": "2310.0",
        "basisOfRecord": "HUMAN_OBSERVATION",
        "eventDate": "2021-04-30T23:08",
        "country": null,
        "datasetName": "iNaturalist research-grade observations",
        "publisher": "iNaturalist.org",
        "license": "CC_BY_NC_4_0",
        "issues": [
          "COORDINATE_ROUNDED",
          "CONTINENT_DERIVED_FROM_COORDINATES",
          "TAXON_ID_NOT_FOUND"
        ],
        "media": [
          {
            "url": "https://inaturalist-open-data.s3.amazonaws.com/photos/126096308/original.jpg",
            "references": "https://www.inaturalist.org/photos/126096308",
            "title": null,
            "creator": "pmsusi",
            "publisher": "iNaturalist",
            "license": "http://creativecommons.org/licenses/by-nc/4.0/",
            "rightsHolder": "pmsusi"
          }
        ]
      }
    },
    {
      "type": "Feature",
      "geometry": {
        "type": "Point",
        "coordinates": [
          -51.1576,
          -30.023952
        ]
      },
      "properties": {
        "gbifID": "4993969375",
        "species": "Passiflora elegans",
        "genus": "Passiflora",
        "family": "Passifloraceae",
        "scientificName": "Passiflora elegans Mart.",
        "coordinateUncertaintyInMeters": "",
        "basisOfRecord": "HUMAN_OBSERVATION",
        "eventDate": "2024-12-01T14:41",
        "country": null,
        "datasetName": "iNaturalist research-grade observations",
        "publisher": "iNaturalist.org",
        "license": "CC_BY_4_0",
        "issues": [
          "CONTINENT_DERIVED_FROM_COORDINATES",
          "TAXON_ID_NOT_FOUND"
        ],
        "media": [
          {
            "url": "https://inaturalist-open-data.s3.amazonaws.com/photos/454702581/original.jpg",
            "references": "https://www.inaturalist.org/photos/454702581",
            "title": null,
            "creator": "André Nogueira",
            "publisher": "iNaturalist",
            "license": "http://creativecommons.org/licenses/by/4.0/",
            "rightsHolder": "André Nogueira"
          }
        ]
      }
    },
    {
      "type": "Feature",
      "geometry": {
        "type": "Point",
        "coordinates": [
          -55.572252,
          -27.451731
        ]
      },
      "properties": {
        "gbifID": "5069973913",
        "species": "Passiflora elegans",
        "genus": "Passiflora",
        "family": "Passifloraceae",
        "scientificName": "Passiflora elegans Mart.",
        "coordinateUncertaintyInMeters": "61.0",
        "basisOfRecord": "HUMAN_OBSERVATION",
        "eventDate": "2024-10-04T12:38",
        "country": null,
        "datasetName": "iNaturalist research-grade observations",
        "publisher": "iNaturalist.org",
        "license": "CC_BY_4_0",
        "issues": [
          "COORDINATE_ROUNDED",
          "CONTINENT_DERIVED_FROM_COORDINATES",
          "TAXON_ID_NOT_FOUND"
        ],
        "media": [
          {
            "url": "https://inaturalist-open-data.s3.amazonaws.com/photos/470424975/original.jpeg",
            "references": "https://www.inaturalist.org/photos/470424975",
            "title": null,
            "creator": "Cecilia Fer Díaz",
            "publisher": "iNaturalist",
            "license": "http://creativecommons.org/licenses/by/4.0/",
            "rightsHolder": "Cecilia Fer Díaz"
          },
          {
            "url": "https://inaturalist-open-data.s3.amazonaws.com/photos/470424981/original.jpeg",
            "references": "https://www.inaturalist.org/photos/470424981",
            "title": null,
            "creator": "Cecilia Fer Díaz",
            "publisher": "iNaturalist",
            "license": "http://creativecommons.org/licenses/by/4.0/",
            "rightsHolder": "Cecilia Fer Díaz"
          }
        ]
      }
    },
    {
      "type": "Feature",
      "geometry": {
        "type": "Point",
        "coordinates": [
          -51.766087,
          -29.94802
        ]
      },
      "properties": {
        "gbifID": "4976502921",
        "species": "Passiflora elegans",
        "genus": "Passiflora",
        "family": "Passifloraceae",
        "scientificName": "Passiflora elegans Mart.",
        "coordinateUncertaintyInMeters": "2.0",
        "basisOfRecord": "HUMAN_OBSERVATION",
        "eventDate": "2024-10-12T15:46",
        "country": null,
        "datasetName": "iNaturalist research-grade observations",
        "publisher": "iNaturalist.org",
        "license": "CC_BY_NC_4_0",
        "issues": [
          "COORDINATE_ROUNDED",
          "CONTINENT_DERIVED_FROM_COORDINATES",
          "TAXON_ID_NOT_FOUND"
        ],
        "media": [
          {
            "url": "https://inaturalist-open-data.s3.amazonaws.com/photos/444881208/original.jpg",
            "references": "https://www.inaturalist.org/photos/444881208",
            "title": null,
            "creator": "Martin Klippel",
            "publisher": "iNaturalist",
            "license": "http://creativecommons.org/licenses/by-nc/4.0/",
            "rightsHolder": "Martin Klippel"
          },
          {
            "url": "https://inaturalist-open-data.s3.amazonaws.com/photos/444881225/original.jpg",
            "references": "https://www.inaturalist.org/photos/444881225",
            "title": null,
            "creator": "Martin Klippel",
            "publisher": "iNaturalist",
            "license": "http://creativecommons.org/licenses/by-nc/4.0/",
            "rightsHolder": "Martin Klippel"
          }
        ]
      }
    },
    {
      "type": "Feature",
      "geometry": {
        "type": "Point",
        "coordinates": [
          -55.560982,
          -27.456752
        ]
      },
      "properties": {
        "gbifID": "5070087913",
        "species": "Passiflora elegans",
        "genus": "Passiflora",
        "family": "Passifloraceae",
        "scientificName": "Passiflora elegans Mart.",
        "coordinateUncertaintyInMeters": "15.0",
        "basisOfRecord": "HUMAN_OBSERVATION",
        "eventDate": "2024-10-04T12:38",
        "country": null,
        "datasetName": "iNaturalist research-grade observations",
        "publisher": "iNaturalist.org",
        "license": "CC_BY_4_0",
        "issues": [
          "COORDINATE_ROUNDED",
          "CONTINENT_DERIVED_FROM_COORDINATES",
          "TAXON_ID_NOT_FOUND"
        ],
        "media": [
          {
            "url": "https://inaturalist-open-data.s3.amazonaws.com/photos/470431930/original.jpeg",
            "references": "https://www.inaturalist.org/photos/470431930",
            "title": null,
            "creator": "Cecilia Fer Díaz",
            "publisher": "iNaturalist",
            "license": "http://creativecommons.org/licenses/by/4.0/",
            "rightsHolder": "Cecilia Fer Díaz"
          },
          {
            "url": "https://inaturalist-open-data.s3.amazonaws.com/photos/470431928/original.jpeg",
            "references": "https://www.inaturalist.org/photos/470431928",
            "title": null,
            "creator": "Cecilia Fer Díaz",
            "publisher": "iNaturalist",
            "license": "http://creativecommons.org/licenses/by/4.0/",
            "rightsHolder": "Cecilia Fer Díaz"
          }
        ]
      }
    },
    {
      "type": "Feature",
      "geometry": {
        "type": "Point",
        "coordinates": [
          -58.246247,
          -31.878434
        ]
      },
      "properties": {
        "gbifID": "3079556799",
        "species": "Passiflora elegans",
        "genus": "Passiflora",
        "family": "Passifloraceae",
        "scientificName": "Passiflora elegans Mart.",
        "coordinateUncertaintyInMeters": "488.0",
        "basisOfRecord": "HUMAN_OBSERVATION",
        "eventDate": "2012-04-30T12:23",
        "country": null,
        "datasetName": "iNaturalist research-grade observations",
        "publisher": "iNaturalist.org",
        "license": "CC_BY_NC_4_0",
        "issues": [
          "COORDINATE_ROUNDED",
          "CONTINENT_DERIVED_FROM_COORDINATES",
          "TAXON_ID_NOT_FOUND"
        ],
        "media": [
          {
            "url": "https://inaturalist-open-data.s3.amazonaws.com/photos/70086814/original.jpeg",
            "references": "https://www.inaturalist.org/photos/70086814",
            "title": null,
            "creator": "Nicolás Villanucci",
            "publisher": "iNaturalist",
            "license": "http://creativecommons.org/licenses/by-nc/4.0/",
            "rightsHolder": "Nicolás Villanucci"
          }
        ]
      }
    },
    {
      "type": "Feature",
      "geometry": {
        "type": "Point",
        "coordinates": [
          -58.207548,
          -31.868087
        ]
      },
      "properties": {
        "gbifID": "3966467322",
        "species": "Passiflora elegans",
        "genus": "Passiflora",
        "family": "Passifloraceae",
        "scientificName": "Passiflora elegans Mart.",
        "coordinateUncertaintyInMeters": "",
        "basisOfRecord": "HUMAN_OBSERVATION",
        "eventDate": "2022-11-05T15:36",
        "country": null,
        "datasetName": "iNaturalist research-grade observations",
        "publisher": "iNaturalist.org",
        "license": "CC_BY_NC_4_0",
        "issues": [
          "COORDINATE_ROUNDED",
          "CONTINENT_DERIVED_FROM_COORDINATES",
          "TAXON_ID_NOT_FOUND"
        ],
        "media": [
          {
            "url": "https://inaturalist-open-data.s3.amazonaws.com/photos/243398010/original.jpeg",
            "references": "https://www.inaturalist.org/photos/243398010",
            "title": null,
            "creator": "Gonzalo Diaz",
            "publisher": "iNaturalist",
            "license": "http://creativecommons.org/licenses/by-nc/4.0/",
            "rightsHolder": "Gonzalo Diaz"
          }
        ]
      }
    },
    {
      "type": "Feature",
      "geometry": {
        "type": "Point",
        "coordinates": [
          -52.386856,
          -26.87682
        ]
      },
      "properties": {
        "gbifID": "4431070468",
        "species": "Passiflora elegans",
        "genus": "Passiflora",
        "family": "Passifloraceae",
        "scientificName": "Passiflora elegans Mart.",
        "coordinateUncertaintyInMeters": "48.0",
        "basisOfRecord": "HUMAN_OBSERVATION",
        "eventDate": "2023-09-09T19:48",
        "country": null,
        "datasetName": "iNaturalist research-grade observations",
        "publisher": "iNaturalist.org",
        "license": "CC_BY_NC_4_0",
        "issues": [
          "COORDINATE_ROUNDED",
          "CONTINENT_DERIVED_FROM_COORDINATES",
          "TAXON_ID_NOT_FOUND"
        ],
        "media": [
          {
            "url": "https://inaturalist-open-data.s3.amazonaws.com/photos/327533377/original.jpg",
            "references": "https://www.inaturalist.org/photos/327533377",
            "title": null,
            "creator": "Luís A. Funez",
            "publisher": "iNaturalist",
            "license": "http://creativecommons.org/licenses/by-nc/4.0/",
            "rightsHolder": "Luís A. Funez"
          }
        ]
      }
    },
    {
      "type": "Feature",
      "geometry": {
        "type": "Point",
        "coordinates": [
          -53.553867,
          -30.537964
        ]
      },
      "properties": {
        "gbifID": "4994655526",
        "species": "Passiflora elegans",
        "genus": "Passiflora",
        "family": "Passifloraceae",
        "scientificName": "Passiflora elegans Mart.",
        "coordinateUncertaintyInMeters": "",
        "basisOfRecord": "HUMAN_OBSERVATION",
        "eventDate": "2024-12-09T11:26",
        "country": null,
        "datasetName": "iNaturalist research-grade observations",
        "publisher": "iNaturalist.org",
        "license": "CC_BY_NC_4_0",
        "issues": [
          "CONTINENT_DERIVED_FROM_COORDINATES",
          "TAXON_ID_NOT_FOUND"
        ],
        "media": [
          {
            "url": "https://inaturalist-open-data.s3.amazonaws.com/photos/456339920/original.jpeg",
            "references": "https://www.inaturalist.org/photos/456339920",
            "title": null,
            "creator": "seeds_of_change_project",
            "publisher": "iNaturalist",
            "license": "http://creativecommons.org/licenses/by-nc/4.0/",
            "rightsHolder": "seeds_of_change_project"
          },
          {
            "url": "https://inaturalist-open-data.s3.amazonaws.com/photos/456339925/original.jpeg",
            "references": "https://www.inaturalist.org/photos/456339925",
            "title": null,
            "creator": "seeds_of_change_project",
            "publisher": "iNaturalist",
            "license": "http://creativecommons.org/licenses/by-nc/4.0/",
            "rightsHolder": "seeds_of_change_project"
          },
          {
            "url": "https://inaturalist-open-data.s3.amazonaws.com/photos/456339907/original.jpeg",
            "references": "https://www.inaturalist.org/photos/456339907",
            "title": null,
            "creator": "seeds_of_change_project",
            "publisher": "iNaturalist",
            "license": "http://creativecommons.org/licenses/by-nc/4.0/",
            "rightsHolder": "seeds_of_change_project"
          }
        ]
      }
    },
    {
      "type": "Feature",
      "geometry": {
        "type": "Point",
        "coordinates": [
          -55.423579,
          -29.979788
        ]
      },
      "properties": {
        "gbifID": "5140178482",
        "species": "Passiflora elegans",
        "genus": "Passiflora",
        "family": "Passifloraceae",
        "scientificName": "Passiflora elegans Mart.",
        "coordinateUncertaintyInMeters": "6004.0",
        "basisOfRecord": "HUMAN_OBSERVATION",
        "eventDate": "2025-03-03T15:09",
        "country": null,
        "datasetName": "iNaturalist research-grade observations",
        "publisher": "iNaturalist.org",
        "license": "CC_BY_4_0",
        "issues": [
          "COORDINATE_ROUNDED",
          "CONTINENT_DERIVED_FROM_COORDINATES",
          "TAXON_ID_NOT_FOUND"
        ],
        "media": [
          {
            "url": "https://inaturalist-open-data.s3.amazonaws.com/photos/490282192/original.jpg",
            "references": "https://www.inaturalist.org/photos/490282192",
            "title": null,
            "creator": "Tomás Carranza Perales",
            "publisher": "iNaturalist",
            "license": "http://creativecommons.org/licenses/by/4.0/",
            "rightsHolder": "Tomás Carranza Perales"
          }
        ]
      }
    },
    {
      "type": "Feature",
      "geometry": {
        "type": "Point",
        "coordinates": [
          -58.443357,
          -34.601424
        ]
      },
      "properties": {
        "gbifID": "3079549070",
        "species": "Passiflora elegans",
        "genus": "Passiflora",
        "family": "Passifloraceae",
        "scientificName": "Passiflora elegans Mart.",
        "coordinateUncertaintyInMeters": "8440.0",
        "basisOfRecord": "HUMAN_OBSERVATION",
        "eventDate": "2020-11-07T11:44",
        "country": null,
        "datasetName": "iNaturalist research-grade observations",
        "publisher": "iNaturalist.org",
        "license": "CC_BY_4_0",
        "issues": [
          "COORDINATE_ROUNDED",
          "CONTINENT_DERIVED_FROM_COORDINATES",
          "TAXON_ID_NOT_FOUND"
        ],
        "media": [
          {
            "url": "https://inaturalist-open-data.s3.amazonaws.com/photos/103872224/original.jpg",
            "references": "https://www.inaturalist.org/photos/103872224",
            "title": null,
            "creator": "RAP",
            "publisher": "iNaturalist",
            "license": "http://creativecommons.org/licenses/by/4.0/",
            "rightsHolder": "RAP"
          }
        ]
      }
    },
    {
      "type": "Feature",
      "geometry": {
        "type": "Point",
        "coordinates": [
          -53.539618,
          -30.529223
        ]
      },
      "properties": {
        "gbifID": "4994632860",
        "species": "Passiflora elegans",
        "genus": "Passiflora",
        "family": "Passifloraceae",
        "scientificName": "Passiflora elegans Mart.",
        "coordinateUncertaintyInMeters": "977.0",
        "basisOfRecord": "HUMAN_OBSERVATION",
        "eventDate": "2024-12-01T10:39",
        "country": null,
        "datasetName": "iNaturalist research-grade observations",
        "publisher": "iNaturalist.org",
        "license": "CC_BY_NC_4_0",
        "issues": [
          "COORDINATE_ROUNDED",
          "CONTINENT_DERIVED_FROM_COORDINATES",
          "TAXON_ID_NOT_FOUND"
        ],
        "media": [
          {
            "url": "https://inaturalist-open-data.s3.amazonaws.com/photos/454994010/original.jpg",
            "references": "https://www.inaturalist.org/photos/454994010",
            "title": null,
            "creator": "Martin Klippel",
            "publisher": "iNaturalist",
            "license": "http://creativecommons.org/licenses/by-nc/4.0/",
            "rightsHolder": "Martin Klippel"
          }
        ]
      }
    },
    {
      "type": "Feature",
      "geometry": {
        "type": "Point",
        "coordinates": [
          -58.259125,
          -31.864437
        ]
      },
      "properties": {
        "gbifID": "2603310273",
        "species": "Passiflora elegans",
        "genus": "Passiflora",
        "family": "Passifloraceae",
        "scientificName": "Passiflora elegans Mart.",
        "coordinateUncertaintyInMeters": "488.0",
        "basisOfRecord": "HUMAN_OBSERVATION",
        "eventDate": "2018-11-09T18:05",
        "country": null,
        "datasetName": "iNaturalist research-grade observations",
        "publisher": "iNaturalist.org",
        "license": "CC_BY_NC_4_0",
        "issues": [
          "COORDINATE_ROUNDED",
          "CONTINENT_DERIVED_FROM_COORDINATES",
          "TAXON_ID_NOT_FOUND"
        ],
        "media": [
          {
            "url": "https://inaturalist-open-data.s3.amazonaws.com/photos/66591342/original.jpg",
            "references": "https://www.inaturalist.org/photos/66591342",
            "title": null,
            "creator": "san_tiago",
            "publisher": "iNaturalist",
            "license": "http://creativecommons.org/licenses/by-nc/4.0/",
            "rightsHolder": "san_tiago"
          },
          {
            "url": "https://inaturalist-open-data.s3.amazonaws.com/photos/66591510/original.jpg",
            "references": "https://www.inaturalist.org/photos/66591510",
            "title": null,
            "creator": "san_tiago",
            "publisher": "iNaturalist",
            "license": "http://creativecommons.org/licenses/by-nc/4.0/",
            "rightsHolder": "san_tiago"
          }
        ]
      }
    },
    {
      "type": "Feature",
      "geometry": {
        "type": "Point",
        "coordinates": [
          -51.117731,
          -30.071362
        ]
      },
      "properties": {
        "gbifID": "3031824198",
        "species": "Passiflora elegans",
        "genus": "Passiflora",
        "family": "Passifloraceae",
        "scientificName": "Passiflora elegans Mart.",
        "coordinateUncertaintyInMeters": "109.0",
        "basisOfRecord": "HUMAN_OBSERVATION",
        "eventDate": "2006-09-20T08:17:04",
        "country": null,
        "datasetName": "iNaturalist research-grade observations",
        "publisher": "iNaturalist.org",
        "license": "CC_BY_NC_4_0",
        "issues": [
          "COORDINATE_ROUNDED",
          "CONTINENT_DERIVED_FROM_COORDINATES",
          "TAXON_ID_NOT_FOUND"
        ],
        "media": [
          {
            "url": "https://inaturalist-open-data.s3.amazonaws.com/photos/109330133/original.jpg",
            "references": "https://www.inaturalist.org/photos/109330133",
            "title": null,
            "creator": "Adriano Silvério",
            "publisher": "iNaturalist",
            "license": "http://creativecommons.org/licenses/by-nc/4.0/",
            "rightsHolder": "Adriano Silvério"
          }
        ]
      }
    },
    {
      "type": "Feature",
      "geometry": {
        "type": "Point",
        "coordinates": [
          -51.225117,
          -30.146308
        ]
      },
      "properties": {
        "gbifID": "4413386146",
        "species": "Passiflora elegans",
        "genus": "Passiflora",
        "family": "Passifloraceae",
        "scientificName": "Passiflora elegans Mart.",
        "coordinateUncertaintyInMeters": "4.0",
        "basisOfRecord": "HUMAN_OBSERVATION",
        "eventDate": "2023-08-19T14:07:18",
        "country": null,
        "datasetName": "iNaturalist research-grade observations",
        "publisher": "iNaturalist.org",
        "license": "CC_BY_NC_4_0",
        "issues": [
          "COORDINATE_ROUNDED",
          "CONTINENT_DERIVED_FROM_COORDINATES",
          "TAXON_ID_NOT_FOUND"
        ],
        "media": [
          {
            "url": "https://inaturalist-open-data.s3.amazonaws.com/photos/312186229/original.jpg",
            "references": "https://www.inaturalist.org/photos/312186229",
            "title": null,
            "creator": "Adriano Silvério",
            "publisher": "iNaturalist",
            "license": "http://creativecommons.org/licenses/by-nc/4.0/",
            "rightsHolder": "Adriano Silvério"
          },
          {
            "url": "https://inaturalist-open-data.s3.amazonaws.com/photos/312186259/original.jpg",
            "references": "https://www.inaturalist.org/photos/312186259",
            "title": null,
            "creator": "Adriano Silvério",
            "publisher": "iNaturalist",
            "license": "http://creativecommons.org/licenses/by-nc/4.0/",
            "rightsHolder": "Adriano Silvério"
          },
          {
            "url": "https://inaturalist-open-data.s3.amazonaws.com/photos/312186282/original.jpg",
            "references": "https://www.inaturalist.org/photos/312186282",
            "title": null,
            "creator": "Adriano Silvério",
            "publisher": "iNaturalist",
            "license": "http://creativecommons.org/licenses/by-nc/4.0/",
            "rightsHolder": "Adriano Silvério"
          }
        ]
      }
    },
    {
      "type": "Feature",
      "geometry": {
        "type": "Point",
        "coordinates": [
          -58.439142,
          -34.54625
        ]
      },
      "properties": {
        "gbifID": "4994194673",
        "species": "Passiflora elegans",
        "genus": "Passiflora",
        "family": "Passifloraceae",
        "scientificName": "Passiflora elegans Mart.",
        "coordinateUncertaintyInMeters": "13.0",
        "basisOfRecord": "HUMAN_OBSERVATION",
        "eventDate": "2024-10-25T18:50:17",
        "country": null,
        "datasetName": "iNaturalist research-grade observations",
        "publisher": "iNaturalist.org",
        "license": "CC_BY_4_0",
        "issues": [
          "COORDINATE_ROUNDED",
          "CONTINENT_DERIVED_FROM_COORDINATES",
          "TAXON_ID_NOT_FOUND"
        ],
        "media": [
          {
            "url": "https://inaturalist-open-data.s3.amazonaws.com/photos/445456206/original.jpeg",
            "references": "https://www.inaturalist.org/photos/445456206",
            "title": null,
            "creator": "Rodrigo Cesáreo Pampin",
            "publisher": "iNaturalist",
            "license": "http://creativecommons.org/licenses/by/4.0/",
            "rightsHolder": "Rodrigo Cesáreo Pampin"
          },
          {
            "url": "https://inaturalist-open-data.s3.amazonaws.com/photos/445456272/original.jpeg",
            "references": "https://www.inaturalist.org/photos/445456272",
            "title": null,
            "creator": "Rodrigo Cesáreo Pampin",
            "publisher": "iNaturalist",
            "license": "http://creativecommons.org/licenses/by/4.0/",
            "rightsHolder": "Rodrigo Cesáreo Pampin"
          },
          {
            "url": "https://inaturalist-open-data.s3.amazonaws.com/photos/445456350/original.jpeg",
            "references": "https://www.inaturalist.org/photos/445456350",
            "title": null,
            "creator": "Rodrigo Cesáreo Pampin",
            "publisher": "iNaturalist",
            "license": "http://creativecommons.org/licenses/by/4.0/",
            "rightsHolder": "Rodrigo Cesáreo Pampin"
          }
        ]
      }
    },
    {
      "type": "Feature",
      "geometry": {
        "type": "Point",
        "coordinates": [
          -51.15756,
          -30.024042
        ]
      },
      "properties": {
        "gbifID": "4413402321",
        "species": "Passiflora elegans",
        "genus": "Passiflora",
        "family": "Passifloraceae",
        "scientificName": "Passiflora elegans Mart.",
        "coordinateUncertaintyInMeters": "8.0",
        "basisOfRecord": "HUMAN_OBSERVATION",
        "eventDate": "2019-10-22T13:42",
        "country": null,
        "datasetName": "iNaturalist research-grade observations",
        "publisher": "iNaturalist.org",
        "license": "CC_BY_NC_4_0",
        "issues": [
          "COORDINATE_ROUNDED",
          "CONTINENT_DERIVED_FROM_COORDINATES",
          "TAXON_ID_NOT_FOUND"
        ],
        "fallback_media": {
          "url": "https://inaturalist-open-data.s3.amazonaws.com/photos/328793576/original.jpg",
          "references": "https://www.inaturalist.org/photos/328793576",
          "title": null,
          "creator": "nicolasweissheimer",
          "publisher": "iNaturalist",
          "license": "http://creativecommons.org/licenses/by-nc/4.0/",
          "rightsHolder": "nicolasweissheimer"
        }
      }
    },
    {
      "type": "Feature",
      "geometry": {
        "type": "Point",
        "coordinates": [
          -51.087455,
          -29.940879
        ]
      },
      "properties": {
        "gbifID": "5104327938",
        "species": "Passiflora elegans",
        "genus": "Passiflora",
        "family": "Passifloraceae",
        "scientificName": "Passiflora elegans Mart.",
        "coordinateUncertaintyInMeters": "",
        "basisOfRecord": "HUMAN_OBSERVATION",
        "eventDate": "2024-12-04T10:30",
        "country": null,
        "datasetName": "iNaturalist research-grade observations",
        "publisher": "iNaturalist.org",
        "license": "CC_BY_NC_4_0",
        "issues": [
          "COORDINATE_ROUNDED",
          "CONTINENT_DERIVED_FROM_COORDINATES",
          "TAXON_ID_NOT_FOUND"
        ],
        "media": [
          {
            "url": "https://inaturalist-open-data.s3.amazonaws.com/photos/455157385/original.jpg",
            "references": "https://www.inaturalist.org/photos/455157385",
            "title": null,
            "creator": "nicolasweissheimer",
            "publisher": "iNaturalist",
            "license": "http://creativecommons.org/licenses/by-nc/4.0/",
            "rightsHolder": "nicolasweissheimer"
          }
        ]
      }
    },
    {
      "type": "Feature",
      "geometry": {
        "type": "Point",
        "coordinates": [
          -51.157755,
          -30.023989
        ]
      },
      "properties": {
        "gbifID": "4950065242",
        "species": "Passiflora elegans",
        "genus": "Passiflora",
        "family": "Passifloraceae",
        "scientificName": "Passiflora elegans Mart.",
        "coordinateUncertaintyInMeters": "12.0",
        "basisOfRecord": "HUMAN_OBSERVATION",
        "eventDate": "2024-09-22T09:28:04",
        "country": null,
        "datasetName": "iNaturalist research-grade observations",
        "publisher": "iNaturalist.org",
        "license": "CC_BY_NC_4_0",
        "issues": [
          "COORDINATE_ROUNDED",
          "CONTINENT_DERIVED_FROM_COORDINATES",
          "TAXON_ID_NOT_FOUND"
        ],
        "media": [
          {
            "url": "https://inaturalist-open-data.s3.amazonaws.com/photos/434464003/original.jpeg",
            "references": "https://www.inaturalist.org/photos/434464003",
            "title": null,
            "creator": "inesavasconcelos",
            "publisher": "iNaturalist",
            "license": "http://creativecommons.org/licenses/by-nc/4.0/",
            "rightsHolder": "inesavasconcelos"
          },
          {
            "url": "https://inaturalist-open-data.s3.amazonaws.com/photos/434464056/original.jpeg",
            "references": "https://www.inaturalist.org/photos/434464056",
            "title": null,
            "creator": "inesavasconcelos",
            "publisher": "iNaturalist",
            "license": "http://creativecommons.org/licenses/by-nc/4.0/",
            "rightsHolder": "inesavasconcelos"
          }
        ]
      }
    },
    {
      "type": "Feature",
      "geometry": {
        "type": "Point",
        "coordinates": [
          -58.03541,
          -28.005491
        ]
      },
      "properties": {
        "gbifID": "4954572666",
        "species": "Passiflora elegans",
        "genus": "Passiflora",
        "family": "Passifloraceae",
        "scientificName": "Passiflora elegans Mart.",
        "coordinateUncertaintyInMeters": "11.0",
        "basisOfRecord": "HUMAN_OBSERVATION",
        "eventDate": "2024-09-22T12:39",
        "country": null,
        "datasetName": "iNaturalist research-grade observations",
        "publisher": "iNaturalist.org",
        "license": "CC_BY_NC_4_0",
        "issues": [
          "COORDINATE_ROUNDED",
          "CONTINENT_DERIVED_FROM_COORDINATES",
          "TAXON_ID_NOT_FOUND"
        ],
        "media": [
          {
            "url": "https://inaturalist-open-data.s3.amazonaws.com/photos/440393792/original.jpeg",
            "references": "https://www.inaturalist.org/photos/440393792",
            "title": null,
            "creator": "Michelle Delaloye",
            "publisher": "iNaturalist",
            "license": "http://creativecommons.org/licenses/by-nc/4.0/",
            "rightsHolder": "Michelle Delaloye"
          }
        ]
      }
    },
    {
      "type": "Feature",
      "geometry": {
        "type": "Point",
        "coordinates": [
          -58.209923,
          -31.876697
        ]
      },
      "properties": {
        "gbifID": "6253264740",
        "species": "Passiflora elegans",
        "genus": "Passiflora",
        "family": "Passifloraceae",
        "scientificName": "Passiflora elegans Mart.",
        "coordinateUncertaintyInMeters": "",
        "basisOfRecord": "HUMAN_OBSERVATION",
        "eventDate": "2026-03-24T17:10:49",
        "country": null,
        "datasetName": "iNaturalist research-grade observations",
        "publisher": "iNaturalist.org",
        "license": "CC_BY_4_0",
        "issues": [
          "COORDINATE_ROUNDED",
          "CONTINENT_DERIVED_FROM_COORDINATES",
          "TAXON_ID_NOT_FOUND"
        ],
        "media": [
          {
            "url": "https://inaturalist-open-data.s3.amazonaws.com/photos/628792424/original.jpg",
            "references": "https://www.inaturalist.org/photos/628792424",
            "title": null,
            "creator": "Germinando Nativas",
            "publisher": "iNaturalist",
            "license": "http://creativecommons.org/licenses/by/4.0/",
            "rightsHolder": "Germinando Nativas"
          }
        ]
      }
    }
  ]
}
