{
  "type": "FeatureCollection",
  "metadata": {
    "host_taxon": {
      "canonical_name": "Prestonia dusenii",
      "rank": "species",
      "family": "Apocynaceae",
      "genus": "Prestonia",
      "species": "Prestonia dusenii",
      "slug": "species_prestonia_dusenii",
      "resolvable_to_gbif": true,
      "use_for_default_download": true,
      "association_count": 1,
      "butterfly_taxa": [
        "Aeria olena"
      ],
      "confidence_counts": {
        "medium": 1
      },
      "occurrence_file": "occurrences/species_prestonia_dusenii.geojson",
      "gbif_resolution": {
        "query": "Prestonia dusenii",
        "rank": "species",
        "status": "resolved",
        "gbif_taxon_key": 5536604,
        "accepted_usage_key": null,
        "scientific_name": "Prestonia dusenii (Malme) Woodson",
        "canonical_name": "Prestonia dusenii",
        "gbif_rank": "SPECIES",
        "taxonomic_status": "ACCEPTED",
        "match_type": "EXACT",
        "confidence": 100,
        "kingdom": "Plantae",
        "family": "Apocynaceae",
        "genus": "Prestonia",
        "resolved_at": "2026-05-21T03:59:11+00:00"
      },
      "gbif_taxon_key": 5536604,
      "gbif_status": "resolved",
      "occurrence_count": 0,
      "occurrence_mode": "not_generated",
      "occurrence_cap": null
    },
    "gbif_resolution": {
      "query": "Prestonia dusenii",
      "rank": "species",
      "status": "resolved",
      "gbif_taxon_key": 5536604,
      "accepted_usage_key": null,
      "scientific_name": "Prestonia dusenii (Malme) Woodson",
      "canonical_name": "Prestonia dusenii",
      "gbif_rank": "SPECIES",
      "taxonomic_status": "ACCEPTED",
      "match_type": "EXACT",
      "confidence": 100,
      "kingdom": "Plantae",
      "family": "Apocynaceae",
      "genus": "Prestonia",
      "resolved_at": "2026-05-21T03:59:11+00:00"
    },
    "occurrence_query": {
      "method": "gbif_download_api",
      "download_key": "0004690-260519110011954",
      "download_doi": "10.15468/dl.s2gcc3",
      "download_doi_url": "https://doi.org/10.15468/dl.s2gcc3",
      "limit": null,
      "dedupe": "Exact duplicate coordinates removed per taxon after DWCA download.",
      "filters": "GBIF Download API DWCA with TAXON_KEY, HAS_COORDINATE=true, HAS_GEOSPATIAL_ISSUE=false, OCCURRENCE_STATUS=PRESENT; app study extent and coordinate uncertainty <=100km applied locally.",
      "returned_unique_coordinate_records": 26
    },
    "scientific_caveat": "GBIF plant occurrences are sampling-biased context records and do not prove local host use or ecological availability for the butterfly.",
    "generated_at": "2026-05-21T15:57:22+00:00"
  },
  "features": [
    {
      "type": "Feature",
      "geometry": {
        "type": "Point",
        "coordinates": [
          -43.1609,
          -22.7801
        ]
      },
      "properties": {
        "gbifID": "4955345877",
        "species": "Prestonia dusenii",
        "genus": "Prestonia",
        "family": "Apocynaceae",
        "scientificName": "Prestonia dusenii (Malme) Woodson",
        "coordinateUncertaintyInMeters": "",
        "basisOfRecord": "PRESERVED_SPECIMEN",
        "eventDate": "2017",
        "country": null,
        "datasetName": "",
        "publisher": "Escola Superior de Agricultura Luiz de Queiroz",
        "license": "CC_BY_4_0",
        "issues": [
          "CONTINENT_DERIVED_FROM_COORDINATES",
          "INSTITUTION_MATCH_NONE"
        ],
        "fallback_media": {
          "url": "http://jbrj-public-img.s3-sa-east-1.amazonaws.com/JPG/rb/1/21/54/51/01215451.jpg",
          "references": null,
          "title": null,
          "creator": null,
          "publisher": null,
          "license": null,
          "rightsHolder": null
        }
      }
    },
    {
      "type": "Feature",
      "geometry": {
        "type": "Point",
        "coordinates": [
          -39.739722,
          -19.480556
        ]
      },
      "properties": {
        "gbifID": "4953861195",
        "species": "Prestonia dusenii",
        "genus": "Prestonia",
        "family": "Apocynaceae",
        "scientificName": "Prestonia dusenii (Malme) Woodson",
        "coordinateUncertaintyInMeters": "",
        "basisOfRecord": "PRESERVED_SPECIMEN",
        "eventDate": "2021-12-13",
        "country": null,
        "datasetName": "",
        "publisher": "Universidade Federal do Espírito Santo",
        "license": "CC_BY_4_0",
        "issues": [
          "COORDINATE_ROUNDED",
          "CONTINENT_DERIVED_FROM_COORDINATES",
          "INSTITUTION_MATCH_NONE"
        ],
        "fallback_media": {
          "url": "http://jbrj-public-img.s3-sa-east-1.amazonaws.com/JPG/rb/1/21/54/51/01215451.jpg",
          "references": null,
          "title": null,
          "creator": null,
          "publisher": null,
          "license": null,
          "rightsHolder": null
        }
      }
    },
    {
      "type": "Feature",
      "geometry": {
        "type": "Point",
        "coordinates": [
          -39.739167,
          -19.481389
        ]
      },
      "properties": {
        "gbifID": "4953861815",
        "species": "Prestonia dusenii",
        "genus": "Prestonia",
        "family": "Apocynaceae",
        "scientificName": "Prestonia dusenii (Malme) Woodson",
        "coordinateUncertaintyInMeters": "",
        "basisOfRecord": "PRESERVED_SPECIMEN",
        "eventDate": "2021-12-13",
        "country": null,
        "datasetName": "",
        "publisher": "Universidade Federal do Espírito Santo",
        "license": "CC_BY_4_0",
        "issues": [
          "COORDINATE_ROUNDED",
          "CONTINENT_DERIVED_FROM_COORDINATES",
          "INSTITUTION_MATCH_NONE"
        ],
        "fallback_media": {
          "url": "http://jbrj-public-img.s3-sa-east-1.amazonaws.com/JPG/rb/1/21/54/51/01215451.jpg",
          "references": null,
          "title": null,
          "creator": null,
          "publisher": null,
          "license": null,
          "rightsHolder": null
        }
      }
    },
    {
      "type": "Feature",
      "geometry": {
        "type": "Point",
        "coordinates": [
          -39.748889,
          -18.679444
        ]
      },
      "properties": {
        "gbifID": "4953866198",
        "species": "Prestonia dusenii",
        "genus": "Prestonia",
        "family": "Apocynaceae",
        "scientificName": "Prestonia dusenii (Malme) Woodson",
        "coordinateUncertaintyInMeters": "",
        "basisOfRecord": "PRESERVED_SPECIMEN",
        "eventDate": "2022-01-23",
        "country": null,
        "datasetName": "",
        "publisher": "Universidade Federal do Espírito Santo",
        "license": "CC_BY_4_0",
        "issues": [
          "COORDINATE_ROUNDED",
          "CONTINENT_DERIVED_FROM_COORDINATES",
          "INSTITUTION_MATCH_NONE"
        ],
        "fallback_media": {
          "url": "http://jbrj-public-img.s3-sa-east-1.amazonaws.com/JPG/rb/1/21/54/51/01215451.jpg",
          "references": null,
          "title": null,
          "creator": null,
          "publisher": null,
          "license": null,
          "rightsHolder": null
        }
      }
    },
    {
      "type": "Feature",
      "geometry": {
        "type": "Point",
        "coordinates": [
          -40.808611,
          -19.851944
        ]
      },
      "properties": {
        "gbifID": "2996367686",
        "species": "Prestonia dusenii",
        "genus": "Prestonia",
        "family": "Apocynaceae",
        "scientificName": "Prestonia dusenii (Malme) Woodson",
        "coordinateUncertaintyInMeters": "",
        "basisOfRecord": "PRESERVED_SPECIMEN",
        "eventDate": "1999-12-27",
        "country": null,
        "datasetName": "",
        "publisher": "Instituto de Pesquisas Jardim Botanico do Rio de Janeiro",
        "license": "CC_BY_4_0",
        "issues": [
          "IDENTIFIED_DATE_INVALID",
          "COORDINATE_ROUNDED",
          "GEODETIC_DATUM_ASSUMED_WGS84",
          "CONTINENT_DERIVED_FROM_COORDINATES",
          "INSTITUTION_MATCH_FUZZY",
          "COLLECTION_MATCH_FUZZY"
        ],
        "fallback_media": {
          "url": "http://jbrj-public-img.s3-sa-east-1.amazonaws.com/JPG/rb/1/21/54/51/01215451.jpg",
          "references": null,
          "title": null,
          "creator": null,
          "publisher": null,
          "license": null,
          "rightsHolder": null
        }
      }
    },
    {
      "type": "Feature",
      "geometry": {
        "type": "Point",
        "coordinates": [
          -48.834167,
          -25.476944
        ]
      },
      "properties": {
        "gbifID": "2997436685",
        "species": "Prestonia dusenii",
        "genus": "Prestonia",
        "family": "Apocynaceae",
        "scientificName": "Prestonia dusenii (Malme) Woodson",
        "coordinateUncertaintyInMeters": "",
        "basisOfRecord": "PRESERVED_SPECIMEN",
        "eventDate": "",
        "country": null,
        "datasetName": "",
        "publisher": "Instituto de Pesquisas Jardim Botanico do Rio de Janeiro",
        "license": "CC_BY_4_0",
        "issues": [
          "IDENTIFIED_DATE_INVALID",
          "COORDINATE_ROUNDED",
          "GEODETIC_DATUM_ASSUMED_WGS84",
          "CONTINENT_DERIVED_FROM_COORDINATES",
          "INSTITUTION_MATCH_FUZZY",
          "COLLECTION_MATCH_FUZZY"
        ],
        "fallback_media": {
          "url": "http://jbrj-public-img.s3-sa-east-1.amazonaws.com/JPG/rb/1/21/54/51/01215451.jpg",
          "references": null,
          "title": null,
          "creator": null,
          "publisher": null,
          "license": null,
          "rightsHolder": null
        }
      }
    },
    {
      "type": "Feature",
      "geometry": {
        "type": "Point",
        "coordinates": [
          -48.32,
          -25.27
        ]
      },
      "properties": {
        "gbifID": "2997998621",
        "species": "Prestonia dusenii",
        "genus": "Prestonia",
        "family": "Apocynaceae",
        "scientificName": "Prestonia dusenii (Malme) Woodson",
        "coordinateUncertaintyInMeters": "",
        "basisOfRecord": "PRESERVED_SPECIMEN",
        "eventDate": "1994-02-09",
        "country": null,
        "datasetName": "",
        "publisher": "Instituto de Pesquisas Jardim Botanico do Rio de Janeiro",
        "license": "CC_BY_4_0",
        "issues": [
          "RECORDED_DATE_INVALID",
          "IDENTIFIED_DATE_INVALID",
          "GEODETIC_DATUM_ASSUMED_WGS84",
          "CONTINENT_DERIVED_FROM_COORDINATES",
          "INSTITUTION_MATCH_FUZZY",
          "COLLECTION_MATCH_FUZZY"
        ],
        "fallback_media": {
          "url": "http://jbrj-public-img.s3-sa-east-1.amazonaws.com/JPG/rb/1/21/54/51/01215451.jpg",
          "references": null,
          "title": null,
          "creator": null,
          "publisher": null,
          "license": null,
          "rightsHolder": null
        }
      }
    },
    {
      "type": "Feature",
      "geometry": {
        "type": "Point",
        "coordinates": [
          -42.8575,
          -22.891389
        ]
      },
      "properties": {
        "gbifID": "1426803443",
        "species": "Prestonia dusenii",
        "genus": "Prestonia",
        "family": "Apocynaceae",
        "scientificName": "Prestonia dusenii (Malme) Woodson",
        "coordinateUncertaintyInMeters": "",
        "basisOfRecord": "PRESERVED_SPECIMEN",
        "eventDate": "2016-04-17",
        "country": null,
        "datasetName": "RB - Rio de Janeiro Botanical Garden Herbarium Collection",
        "publisher": "Instituto de Pesquisas Jardim Botanico do Rio de Janeiro",
        "license": "CC_BY_4_0",
        "issues": [
          "COORDINATE_ROUNDED",
          "GEODETIC_DATUM_ASSUMED_WGS84",
          "CONTINENT_DERIVED_FROM_COORDINATES",
          "INSTITUTION_MATCH_FUZZY",
          "COLLECTION_MATCH_FUZZY"
        ],
        "media": [
          {
            "url": "http://jbrj-public-img.s3-sa-east-1.amazonaws.com/JPG/rb/1/21/54/51/01215451.jpg",
            "references": null,
            "title": null,
            "creator": null,
            "publisher": null,
            "license": null,
            "rightsHolder": null
          }
        ]
      }
    },
    {
      "type": "Feature",
      "geometry": {
        "type": "Point",
        "coordinates": [
          -48.299722,
          -25.168333
        ]
      },
      "properties": {
        "gbifID": "4427248390",
        "species": "Prestonia dusenii",
        "genus": "Prestonia",
        "family": "Apocynaceae",
        "scientificName": "Prestonia dusenii (Malme) Woodson",
        "coordinateUncertaintyInMeters": "",
        "basisOfRecord": "PRESERVED_SPECIMEN",
        "eventDate": "2017-02-05",
        "country": null,
        "datasetName": "",
        "publisher": "Instituto de Pesquisas Jardim Botanico do Rio de Janeiro",
        "license": "CC_BY_4_0",
        "issues": [
          "RECORDED_DATE_INVALID",
          "COORDINATE_ROUNDED",
          "GEODETIC_DATUM_ASSUMED_WGS84",
          "CONTINENT_DERIVED_FROM_COORDINATES",
          "INSTITUTION_MATCH_FUZZY",
          "COLLECTION_MATCH_FUZZY"
        ],
        "fallback_media": {
          "url": "http://jbrj-public-img.s3-sa-east-1.amazonaws.com/JPG/rb/1/21/54/51/01215451.jpg",
          "references": null,
          "title": null,
          "creator": null,
          "publisher": null,
          "license": null,
          "rightsHolder": null
        }
      }
    },
    {
      "type": "Feature",
      "geometry": {
        "type": "Point",
        "coordinates": [
          -43.160833,
          -22.78
        ]
      },
      "properties": {
        "gbifID": "4900512161",
        "species": "Prestonia dusenii",
        "genus": "Prestonia",
        "family": "Apocynaceae",
        "scientificName": "Prestonia dusenii (Malme) Woodson",
        "coordinateUncertaintyInMeters": "",
        "basisOfRecord": "PRESERVED_SPECIMEN",
        "eventDate": "2017-04-25",
        "country": null,
        "datasetName": "",
        "publisher": "Instituto de Pesquisas Jardim Botanico do Rio de Janeiro",
        "license": "CC_BY_4_0",
        "issues": [
          "RECORDED_DATE_INVALID",
          "COORDINATE_ROUNDED",
          "GEODETIC_DATUM_ASSUMED_WGS84",
          "CONTINENT_DERIVED_FROM_COORDINATES",
          "INSTITUTION_MATCH_FUZZY",
          "COLLECTION_MATCH_FUZZY"
        ],
        "fallback_media": {
          "url": "http://jbrj-public-img.s3-sa-east-1.amazonaws.com/JPG/rb/1/21/54/51/01215451.jpg",
          "references": null,
          "title": null,
          "creator": null,
          "publisher": null,
          "license": null,
          "rightsHolder": null
        }
      }
    },
    {
      "type": "Feature",
      "geometry": {
        "type": "Point",
        "coordinates": [
          -46.718056,
          -20.849167
        ]
      },
      "properties": {
        "gbifID": "2998163544",
        "species": "Prestonia dusenii",
        "genus": "Prestonia",
        "family": "Apocynaceae",
        "scientificName": "Prestonia dusenii (Malme) Woodson",
        "coordinateUncertaintyInMeters": "",
        "basisOfRecord": "PRESERVED_SPECIMEN",
        "eventDate": "2009-04-02",
        "country": null,
        "datasetName": "",
        "publisher": "Instituto de Pesquisas Jardim Botanico do Rio de Janeiro",
        "license": "CC_BY_4_0",
        "issues": [
          "RECORDED_DATE_INVALID",
          "IDENTIFIED_DATE_INVALID",
          "COORDINATE_ROUNDED",
          "GEODETIC_DATUM_ASSUMED_WGS84",
          "CONTINENT_DERIVED_FROM_COORDINATES",
          "INSTITUTION_MATCH_FUZZY",
          "COLLECTION_MATCH_FUZZY"
        ],
        "fallback_media": {
          "url": "http://jbrj-public-img.s3-sa-east-1.amazonaws.com/JPG/rb/1/21/54/51/01215451.jpg",
          "references": null,
          "title": null,
          "creator": null,
          "publisher": null,
          "license": null,
          "rightsHolder": null
        }
      }
    },
    {
      "type": "Feature",
      "geometry": {
        "type": "Point",
        "coordinates": [
          -50.05,
          -21.05
        ]
      },
      "properties": {
        "gbifID": "2998163635",
        "species": "Prestonia dusenii",
        "genus": "Prestonia",
        "family": "Apocynaceae",
        "scientificName": "Prestonia dusenii (Malme) Woodson",
        "coordinateUncertaintyInMeters": "",
        "basisOfRecord": "PRESERVED_SPECIMEN",
        "eventDate": "1999-10-08",
        "country": null,
        "datasetName": "",
        "publisher": "Instituto de Pesquisas Jardim Botanico do Rio de Janeiro",
        "license": "CC_BY_4_0",
        "issues": [
          "RECORDED_DATE_INVALID",
          "IDENTIFIED_DATE_INVALID",
          "GEODETIC_DATUM_ASSUMED_WGS84",
          "CONTINENT_DERIVED_FROM_COORDINATES",
          "INSTITUTION_MATCH_FUZZY",
          "COLLECTION_MATCH_FUZZY"
        ],
        "fallback_media": {
          "url": "http://jbrj-public-img.s3-sa-east-1.amazonaws.com/JPG/rb/1/21/54/51/01215451.jpg",
          "references": null,
          "title": null,
          "creator": null,
          "publisher": null,
          "license": null,
          "rightsHolder": null
        }
      }
    },
    {
      "type": "Feature",
      "geometry": {
        "type": "Point",
        "coordinates": [
          -48.834767,
          -25.480785
        ]
      },
      "properties": {
        "gbifID": "1929609589",
        "species": "Prestonia dusenii",
        "genus": "Prestonia",
        "family": "Apocynaceae",
        "scientificName": "Prestonia dusenii (Malme) Woodson",
        "coordinateUncertaintyInMeters": "",
        "basisOfRecord": "PRESERVED_SPECIMEN",
        "eventDate": "1966-01-05",
        "country": null,
        "datasetName": "Vascular plants",
        "publisher": "The New York Botanical Garden",
        "license": "CC0_1_0",
        "issues": [
          "MODIFIED_DATE_INVALID",
          "COORDINATE_REPROJECTED"
        ],
        "media": [
          {
            "url": "http://sweetgum.nybg.org/images3/1609/402/00823358.jpg",
            "references": null,
            "title": null,
            "creator": "The New York Botanical Garden",
            "publisher": null,
            "license": "http://creativecommons.org/licenses/by/4.0/",
            "rightsHolder": "The New York Botanical Garden"
          }
        ]
      }
    },
    {
      "type": "Feature",
      "geometry": {
        "type": "Point",
        "coordinates": [
          -44.681389,
          -23.328889
        ]
      },
      "properties": {
        "gbifID": "2452875251",
        "species": "Prestonia dusenii",
        "genus": "Prestonia",
        "family": "Apocynaceae",
        "scientificName": "Prestonia dusenii (Malme) Woodson",
        "coordinateUncertaintyInMeters": "",
        "basisOfRecord": "PRESERVED_SPECIMEN",
        "eventDate": "1996-01-31",
        "country": null,
        "datasetName": "",
        "publisher": "Instituto de Botânica, São Paulo",
        "license": "CC_BY_4_0",
        "issues": [
          "CONTINENT_DERIVED_FROM_COORDINATES",
          "INSTITUTION_MATCH_NONE"
        ],
        "fallback_media": {
          "url": "http://jbrj-public-img.s3-sa-east-1.amazonaws.com/JPG/rb/1/21/54/51/01215451.jpg",
          "references": null,
          "title": null,
          "creator": null,
          "publisher": null,
          "license": null,
          "rightsHolder": null
        }
      }
    },
    {
      "type": "Feature",
      "geometry": {
        "type": "Point",
        "coordinates": [
          -45.120556,
          -23.389444
        ]
      },
      "properties": {
        "gbifID": "2452875680",
        "species": "Prestonia dusenii",
        "genus": "Prestonia",
        "family": "Apocynaceae",
        "scientificName": "Prestonia dusenii (Malme) Woodson",
        "coordinateUncertaintyInMeters": "",
        "basisOfRecord": "PRESERVED_SPECIMEN",
        "eventDate": "1996-02-03",
        "country": null,
        "datasetName": "",
        "publisher": "Instituto de Botânica, São Paulo",
        "license": "CC_BY_4_0",
        "issues": [
          "CONTINENT_DERIVED_FROM_COORDINATES",
          "INSTITUTION_MATCH_NONE"
        ],
        "fallback_media": {
          "url": "http://jbrj-public-img.s3-sa-east-1.amazonaws.com/JPG/rb/1/21/54/51/01215451.jpg",
          "references": null,
          "title": null,
          "creator": null,
          "publisher": null,
          "license": null,
          "rightsHolder": null
        }
      }
    },
    {
      "type": "Feature",
      "geometry": {
        "type": "Point",
        "coordinates": [
          -49.380556,
          -20.81
        ]
      },
      "properties": {
        "gbifID": "1989876224",
        "species": "Prestonia dusenii",
        "genus": "Prestonia",
        "family": "Apocynaceae",
        "scientificName": "Prestonia dusenii (Malme) Woodson",
        "coordinateUncertaintyInMeters": "",
        "basisOfRecord": "PRESERVED_SPECIMEN",
        "eventDate": "1996-02-23",
        "country": null,
        "datasetName": "",
        "publisher": "Universidade Estadual Paulista",
        "license": "CC_BY_4_0",
        "issues": [
          "INSTITUTION_MATCH_NONE"
        ],
        "fallback_media": {
          "url": "http://jbrj-public-img.s3-sa-east-1.amazonaws.com/JPG/rb/1/21/54/51/01215451.jpg",
          "references": null,
          "title": null,
          "creator": null,
          "publisher": null,
          "license": null,
          "rightsHolder": null
        }
      }
    },
    {
      "type": "Feature",
      "geometry": {
        "type": "Point",
        "coordinates": [
          -49.4,
          -20.883333
        ]
      },
      "properties": {
        "gbifID": "1989883033",
        "species": "Prestonia dusenii",
        "genus": "Prestonia",
        "family": "Apocynaceae",
        "scientificName": "Prestonia dusenii (Malme) Woodson",
        "coordinateUncertaintyInMeters": "",
        "basisOfRecord": "PRESERVED_SPECIMEN",
        "eventDate": "1999-12-07",
        "country": null,
        "datasetName": "",
        "publisher": "Universidade Estadual Paulista",
        "license": "CC_BY_4_0",
        "issues": [
          "INSTITUTION_MATCH_NONE"
        ],
        "fallback_media": {
          "url": "http://jbrj-public-img.s3-sa-east-1.amazonaws.com/JPG/rb/1/21/54/51/01215451.jpg",
          "references": null,
          "title": null,
          "creator": null,
          "publisher": null,
          "license": null,
          "rightsHolder": null
        }
      }
    },
    {
      "type": "Feature",
      "geometry": {
        "type": "Point",
        "coordinates": [
          -48.649722,
          -25.580278
        ]
      },
      "properties": {
        "gbifID": "1096630642",
        "species": "Prestonia dusenii",
        "genus": "Prestonia",
        "family": "Apocynaceae",
        "scientificName": "Prestonia dusenii (Malme) Woodson",
        "coordinateUncertaintyInMeters": "",
        "basisOfRecord": "PRESERVED_SPECIMEN",
        "eventDate": "1911-03-05",
        "country": null,
        "datasetName": "",
        "publisher": "Swedish Museum of Natural History",
        "license": "CC_BY_4_0",
        "issues": [
          "GEODETIC_DATUM_ASSUMED_WGS84",
          "CONTINENT_DERIVED_FROM_COORDINATES",
          "AMBIGUOUS_COLLECTION"
        ],
        "media": [
          {
            "url": "https://media-service.nrm.se/images?dataset=fbo&id=large/S06-004001/S06-4290.jpg",
            "references": null,
            "title": null,
            "creator": "Gunilla Dahlerus Lehman (S)",
            "publisher": null,
            "license": "http://creativecommons.org/licenses/by/4.0/",
            "rightsHolder": null
          },
          {
            "url": "https://media-service.nrm.se/images?dataset=fbo&id=large/S06-004001/S06-4290_a.jpg",
            "references": null,
            "title": null,
            "creator": "Gunilla Dahlerus Lehman (S)",
            "publisher": null,
            "license": "http://creativecommons.org/licenses/by/4.0/",
            "rightsHolder": null
          },
          {
            "url": "https://media-service.nrm.se/images?dataset=fbo&id=large/S06-004001/S06-4290_b.jpg",
            "references": null,
            "title": null,
            "creator": "Gunilla Dahlerus Lehman (S)",
            "publisher": null,
            "license": "http://creativecommons.org/licenses/by/4.0/",
            "rightsHolder": null
          }
        ]
      }
    },
    {
      "type": "Feature",
      "geometry": {
        "type": "Point",
        "coordinates": [
          -50.275556,
          -2.9825
        ]
      },
      "properties": {
        "gbifID": "1090576840",
        "species": "Prestonia dusenii",
        "genus": "Prestonia",
        "family": "Apocynaceae",
        "scientificName": "Prestonia dusenii (Malme) Woodson",
        "coordinateUncertaintyInMeters": "",
        "basisOfRecord": "PRESERVED_SPECIMEN",
        "eventDate": "2008-06-25",
        "country": null,
        "datasetName": "",
        "publisher": "Instituto Agronômico (IAC)",
        "license": "CC_BY_4_0",
        "issues": [
          "CONTINENT_DERIVED_FROM_COORDINATES",
          "INSTITUTION_MATCH_FUZZY",
          "COLLECTION_MATCH_FUZZY"
        ],
        "fallback_media": {
          "url": "http://jbrj-public-img.s3-sa-east-1.amazonaws.com/JPG/rb/1/21/54/51/01215451.jpg",
          "references": null,
          "title": null,
          "creator": null,
          "publisher": null,
          "license": null,
          "rightsHolder": null
        }
      }
    },
    {
      "type": "Feature",
      "geometry": {
        "type": "Point",
        "coordinates": [
          -47.8825,
          -24.608333
        ]
      },
      "properties": {
        "gbifID": "1090557619",
        "species": "Prestonia dusenii",
        "genus": "Prestonia",
        "family": "Apocynaceae",
        "scientificName": "Prestonia dusenii (Malme) Woodson",
        "coordinateUncertaintyInMeters": "",
        "basisOfRecord": "PRESERVED_SPECIMEN",
        "eventDate": "1995-01-10",
        "country": null,
        "datasetName": "",
        "publisher": "Instituto Agronômico (IAC)",
        "license": "CC_BY_4_0",
        "issues": [
          "CONTINENT_DERIVED_FROM_COORDINATES",
          "INSTITUTION_MATCH_FUZZY",
          "COLLECTION_MATCH_FUZZY"
        ],
        "fallback_media": {
          "url": "http://jbrj-public-img.s3-sa-east-1.amazonaws.com/JPG/rb/1/21/54/51/01215451.jpg",
          "references": null,
          "title": null,
          "creator": null,
          "publisher": null,
          "license": null,
          "rightsHolder": null
        }
      }
    },
    {
      "type": "Feature",
      "geometry": {
        "type": "Point",
        "coordinates": [
          -52.8731,
          -10.8339
        ]
      },
      "properties": {
        "gbifID": "1701751611",
        "species": "Prestonia dusenii",
        "genus": "Prestonia",
        "family": "Apocynaceae",
        "scientificName": "Prestonia dusenii (Malme) Woodson",
        "coordinateUncertaintyInMeters": "",
        "basisOfRecord": "PRESERVED_SPECIMEN",
        "eventDate": "1966-01-05",
        "country": null,
        "datasetName": "seeds-22-sep-2023",
        "publisher": "Field Museum",
        "license": "CC0_1_0",
        "issues": [
          "GEODETIC_DATUM_ASSUMED_WGS84",
          "INSTITUTION_MATCH_FUZZY",
          "AMBIGUOUS_COLLECTION"
        ],
        "fallback_media": {
          "url": "http://jbrj-public-img.s3-sa-east-1.amazonaws.com/JPG/rb/1/21/54/51/01215451.jpg",
          "references": null,
          "title": null,
          "creator": null,
          "publisher": null,
          "license": null,
          "rightsHolder": null
        }
      }
    },
    {
      "type": "Feature",
      "geometry": {
        "type": "Point",
        "coordinates": [
          -44.81,
          -23.339783
        ]
      },
      "properties": {
        "gbifID": "1042697387",
        "species": "Prestonia dusenii",
        "genus": "Prestonia",
        "family": "Apocynaceae",
        "scientificName": "Prestonia dusenii (Malme) Woodson",
        "coordinateUncertaintyInMeters": "",
        "basisOfRecord": "PRESERVED_SPECIMEN",
        "eventDate": "",
        "country": null,
        "datasetName": "Coleção Botânica, Instituto Nacional de Pesquisas da Amazônia (INPA)",
        "publisher": "Instituto Nacional de Pesquisas da Amazônia - INPA",
        "license": "CC_BY_NC_4_0",
        "issues": [
          "RECORDED_DATE_INVALID",
          "MODIFIED_DATE_INVALID",
          "GEODETIC_DATUM_ASSUMED_WGS84",
          "GEODETIC_DATUM_INVALID",
          "INSTITUTION_MATCH_NONE"
        ],
        "fallback_media": {
          "url": "http://jbrj-public-img.s3-sa-east-1.amazonaws.com/JPG/rb/1/21/54/51/01215451.jpg",
          "references": null,
          "title": null,
          "creator": null,
          "publisher": null,
          "license": null,
          "rightsHolder": null
        }
      }
    },
    {
      "type": "Feature",
      "geometry": {
        "type": "Point",
        "coordinates": [
          -45.120694,
          -23.389667
        ]
      },
      "properties": {
        "gbifID": "1089037658",
        "species": "Prestonia dusenii",
        "genus": "Prestonia",
        "family": "Apocynaceae",
        "scientificName": "Prestonia dusenii (Malme) Woodson",
        "coordinateUncertaintyInMeters": "",
        "basisOfRecord": "PRESERVED_SPECIMEN",
        "eventDate": "1996-02-03",
        "country": null,
        "datasetName": "",
        "publisher": "Universidade Estadual de Campinas",
        "license": "CC_BY_4_0",
        "issues": [
          "CONTINENT_DERIVED_FROM_COORDINATES",
          "INSTITUTION_MATCH_NONE"
        ],
        "fallback_media": {
          "url": "http://jbrj-public-img.s3-sa-east-1.amazonaws.com/JPG/rb/1/21/54/51/01215451.jpg",
          "references": null,
          "title": null,
          "creator": null,
          "publisher": null,
          "license": null,
          "rightsHolder": null
        }
      }
    },
    {
      "type": "Feature",
      "geometry": {
        "type": "Point",
        "coordinates": [
          -45.033333,
          -22.483889
        ]
      },
      "properties": {
        "gbifID": "2575872569",
        "species": "Prestonia dusenii",
        "genus": "Prestonia",
        "family": "Apocynaceae",
        "scientificName": "Prestonia dusenii (Malme) Woodson",
        "coordinateUncertaintyInMeters": "",
        "basisOfRecord": "PRESERVED_SPECIMEN",
        "eventDate": "1995-04-05",
        "country": null,
        "datasetName": "",
        "publisher": "Universidade Estadual de Campinas",
        "license": "CC_BY_4_0",
        "issues": [
          "CONTINENT_DERIVED_FROM_COORDINATES",
          "INSTITUTION_MATCH_NONE"
        ],
        "fallback_media": {
          "url": "http://jbrj-public-img.s3-sa-east-1.amazonaws.com/JPG/rb/1/21/54/51/01215451.jpg",
          "references": null,
          "title": null,
          "creator": null,
          "publisher": null,
          "license": null,
          "rightsHolder": null
        }
      }
    },
    {
      "type": "Feature",
      "geometry": {
        "type": "Point",
        "coordinates": [
          -48.560542,
          -25.023908
        ]
      },
      "properties": {
        "gbifID": "1089077211",
        "species": "Prestonia dusenii",
        "genus": "Prestonia",
        "family": "Apocynaceae",
        "scientificName": "Prestonia dusenii (Malme) Woodson",
        "coordinateUncertaintyInMeters": "",
        "basisOfRecord": "PRESERVED_SPECIMEN",
        "eventDate": "2004-02-11",
        "country": null,
        "datasetName": "",
        "publisher": "Universidade Estadual de Campinas",
        "license": "CC_BY_4_0",
        "issues": [
          "CONTINENT_DERIVED_FROM_COORDINATES",
          "INSTITUTION_MATCH_NONE"
        ],
        "fallback_media": {
          "url": "http://jbrj-public-img.s3-sa-east-1.amazonaws.com/JPG/rb/1/21/54/51/01215451.jpg",
          "references": null,
          "title": null,
          "creator": null,
          "publisher": null,
          "license": null,
          "rightsHolder": null
        }
      }
    },
    {
      "type": "Feature",
      "geometry": {
        "type": "Point",
        "coordinates": [
          -46.25,
          -19.333333
        ]
      },
      "properties": {
        "gbifID": "2512676981",
        "species": "Prestonia dusenii",
        "genus": "Prestonia",
        "family": "Apocynaceae",
        "scientificName": "Prestonia dusenii (Malme) Woodson",
        "coordinateUncertaintyInMeters": "",
        "basisOfRecord": "PRESERVED_SPECIMEN",
        "eventDate": "1987-12-29",
        "country": null,
        "datasetName": "",
        "publisher": "Universidade Estadual de Campinas",
        "license": "CC_BY_4_0",
        "issues": [
          "CONTINENT_DERIVED_FROM_COORDINATES",
          "INSTITUTION_MATCH_NONE"
        ],
        "fallback_media": {
          "url": "http://jbrj-public-img.s3-sa-east-1.amazonaws.com/JPG/rb/1/21/54/51/01215451.jpg",
          "references": null,
          "title": null,
          "creator": null,
          "publisher": null,
          "license": null,
          "rightsHolder": null
        }
      }
    }
  ]
}
