{
  "type": "FeatureCollection",
  "metadata": {
    "host_taxon": {
      "canonical_name": "Passiflora cobanensis",
      "rank": "species",
      "family": "Passifloraceae",
      "genus": "Passiflora",
      "species": "Passiflora cobanensis",
      "slug": "species_passiflora_cobanensis",
      "resolvable_to_gbif": true,
      "use_for_default_download": true,
      "association_count": 1,
      "butterfly_taxa": [
        "Dryas iulia"
      ],
      "confidence_counts": {
        "medium": 1
      },
      "occurrence_file": "occurrences/species_passiflora_cobanensis.geojson",
      "gbif_resolution": {
        "query": "Passiflora cobanensis",
        "rank": "species",
        "status": "resolved",
        "gbif_taxon_key": 3587617,
        "accepted_usage_key": null,
        "scientific_name": "Passiflora cobanensis Killip",
        "canonical_name": "Passiflora cobanensis",
        "gbif_rank": "SPECIES",
        "taxonomic_status": "ACCEPTED",
        "match_type": "EXACT",
        "confidence": 100,
        "kingdom": "Plantae",
        "family": "Passifloraceae",
        "genus": "Passiflora",
        "resolved_at": "2026-05-21T03:58:10+00:00"
      },
      "gbif_taxon_key": 3587617,
      "gbif_status": "resolved",
      "occurrence_count": 0,
      "occurrence_mode": "not_generated",
      "occurrence_cap": null
    },
    "gbif_resolution": {
      "query": "Passiflora cobanensis",
      "rank": "species",
      "status": "resolved",
      "gbif_taxon_key": 3587617,
      "accepted_usage_key": null,
      "scientific_name": "Passiflora cobanensis Killip",
      "canonical_name": "Passiflora cobanensis",
      "gbif_rank": "SPECIES",
      "taxonomic_status": "ACCEPTED",
      "match_type": "EXACT",
      "confidence": 100,
      "kingdom": "Plantae",
      "family": "Passifloraceae",
      "genus": "Passiflora",
      "resolved_at": "2026-05-21T03:58:10+00:00"
    },
    "occurrence_query": {
      "method": "gbif_download_api",
      "download_key": "0004690-260519110011954",
      "download_doi": "10.15468/dl.s2gcc3",
      "download_doi_url": "https://doi.org/10.15468/dl.s2gcc3",
      "limit": null,
      "dedupe": "Exact duplicate coordinates removed per taxon after DWCA download.",
      "filters": "GBIF Download API DWCA with TAXON_KEY, HAS_COORDINATE=true, HAS_GEOSPATIAL_ISSUE=false, OCCURRENCE_STATUS=PRESENT; app study extent and coordinate uncertainty <=100km applied locally.",
      "returned_unique_coordinate_records": 14
    },
    "scientific_caveat": "GBIF plant occurrences are sampling-biased context records and do not prove local host use or ecological availability for the butterfly.",
    "generated_at": "2026-05-21T15:57:20+00:00"
  },
  "features": [
    {
      "type": "Feature",
      "geometry": {
        "type": "Point",
        "coordinates": [
          -92.110833,
          16.971945
        ]
      },
      "properties": {
        "gbifID": "1257522073",
        "species": "Passiflora cobanensis",
        "genus": "Passiflora",
        "family": "Passifloraceae",
        "scientificName": "Passiflora cobanensis Killip",
        "coordinateUncertaintyInMeters": "",
        "basisOfRecord": "PRESERVED_SPECIMEN",
        "eventDate": "2008-07-01",
        "country": null,
        "datasetName": "Tropicos",
        "publisher": "Missouri Botanical Garden",
        "license": "CC_BY_4_0",
        "issues": [
          "OCCURRENCE_STATUS_INFERRED_FROM_INDIVIDUAL_COUNT",
          "COORDINATE_ROUNDED",
          "GEODETIC_DATUM_ASSUMED_WGS84",
          "INSTITUTION_MATCH_FUZZY",
          "COLLECTION_MATCH_NONE",
          "TAXON_ID_NOT_FOUND"
        ],
        "fallback_media": {
          "url": "https://inaturalist-open-data.s3.amazonaws.com/photos/587218884/original.jpg",
          "references": "https://www.inaturalist.org/photos/587218884",
          "title": null,
          "creator": "Seleni Oliva",
          "publisher": "iNaturalist",
          "license": "http://creativecommons.org/licenses/by-nc/4.0/",
          "rightsHolder": "Seleni Oliva"
        }
      }
    },
    {
      "type": "Feature",
      "geometry": {
        "type": "Point",
        "coordinates": [
          -92.116111,
          17.256111
        ]
      },
      "properties": {
        "gbifID": "1257522084",
        "species": "Passiflora cobanensis",
        "genus": "Passiflora",
        "family": "Passifloraceae",
        "scientificName": "Passiflora cobanensis Killip",
        "coordinateUncertaintyInMeters": "",
        "basisOfRecord": "PRESERVED_SPECIMEN",
        "eventDate": "2008-07-01",
        "country": null,
        "datasetName": "Tropicos",
        "publisher": "Missouri Botanical Garden",
        "license": "CC_BY_4_0",
        "issues": [
          "OCCURRENCE_STATUS_INFERRED_FROM_INDIVIDUAL_COUNT",
          "COORDINATE_ROUNDED",
          "GEODETIC_DATUM_ASSUMED_WGS84",
          "INSTITUTION_MATCH_FUZZY",
          "COLLECTION_MATCH_NONE",
          "TAXON_ID_NOT_FOUND"
        ],
        "fallback_media": {
          "url": "https://inaturalist-open-data.s3.amazonaws.com/photos/587218884/original.jpg",
          "references": "https://www.inaturalist.org/photos/587218884",
          "title": null,
          "creator": "Seleni Oliva",
          "publisher": "iNaturalist",
          "license": "http://creativecommons.org/licenses/by-nc/4.0/",
          "rightsHolder": "Seleni Oliva"
        }
      }
    },
    {
      "type": "Feature",
      "geometry": {
        "type": "Point",
        "coordinates": [
          -89.03,
          17.08
        ]
      },
      "properties": {
        "gbifID": "1928444100",
        "species": "Passiflora cobanensis",
        "genus": "Passiflora",
        "family": "Passifloraceae",
        "scientificName": "Passiflora cobanensis Killip",
        "coordinateUncertaintyInMeters": "",
        "basisOfRecord": "PRESERVED_SPECIMEN",
        "eventDate": "1988-11-09",
        "country": null,
        "datasetName": "Vascular plants",
        "publisher": "The New York Botanical Garden",
        "license": "CC0_1_0",
        "issues": [
          "MODIFIED_DATE_INVALID",
          "GEODETIC_DATUM_ASSUMED_WGS84"
        ],
        "fallback_media": {
          "url": "https://inaturalist-open-data.s3.amazonaws.com/photos/587218884/original.jpg",
          "references": "https://www.inaturalist.org/photos/587218884",
          "title": null,
          "creator": "Seleni Oliva",
          "publisher": "iNaturalist",
          "license": "http://creativecommons.org/licenses/by-nc/4.0/",
          "rightsHolder": "Seleni Oliva"
        }
      }
    },
    {
      "type": "Feature",
      "geometry": {
        "type": "Point",
        "coordinates": [
          -90.402204,
          15.764092
        ]
      },
      "properties": {
        "gbifID": "5074119504",
        "species": "Passiflora cobanensis",
        "genus": "Passiflora",
        "family": "Passifloraceae",
        "scientificName": "Passiflora cobanensis Killip",
        "coordinateUncertaintyInMeters": "1000.0",
        "basisOfRecord": "PRESERVED_SPECIMEN",
        "eventDate": "2014-09-22",
        "country": null,
        "datasetName": "",
        "publisher": "Centro de Estudios Conservacionistas (CECON), Universidad de San Carlos de Guatemala (USAC)",
        "license": "CC_BY_NC_4_0",
        "issues": [
          "CONTINENT_DERIVED_FROM_COORDINATES",
          "INSTITUTION_MATCH_FUZZY",
          "COLLECTION_MATCH_FUZZY",
          "TAXON_ID_NOT_FOUND"
        ],
        "fallback_media": {
          "url": "https://inaturalist-open-data.s3.amazonaws.com/photos/587218884/original.jpg",
          "references": "https://www.inaturalist.org/photos/587218884",
          "title": null,
          "creator": "Seleni Oliva",
          "publisher": "iNaturalist",
          "license": "http://creativecommons.org/licenses/by-nc/4.0/",
          "rightsHolder": "Seleni Oliva"
        }
      }
    },
    {
      "type": "Feature",
      "geometry": {
        "type": "Point",
        "coordinates": [
          -89.15167,
          17.90389
        ]
      },
      "properties": {
        "gbifID": "3307977158",
        "species": "Passiflora cobanensis",
        "genus": "Passiflora",
        "family": "Passifloraceae",
        "scientificName": "Passiflora cobanensis Killip",
        "coordinateUncertaintyInMeters": "90.0",
        "basisOfRecord": "PRESERVED_SPECIMEN",
        "eventDate": "2002-02-17",
        "country": null,
        "datasetName": "Digitalización y Sistematización de las Colecciones Biológicas Nacionales del Instituto de Biología, UNAM",
        "publisher": "Comisión nacional para el conocimiento y uso de la biodiversidad",
        "license": "CC_BY_4_0",
        "issues": [
          "OCCURRENCE_STATUS_INFERRED_FROM_INDIVIDUAL_COUNT",
          "TAXON_ID_NOT_FOUND",
          "SCIENTIFIC_NAME_ID_NOT_FOUND"
        ],
        "fallback_media": {
          "url": "https://inaturalist-open-data.s3.amazonaws.com/photos/587218884/original.jpg",
          "references": "https://www.inaturalist.org/photos/587218884",
          "title": null,
          "creator": "Seleni Oliva",
          "publisher": "iNaturalist",
          "license": "http://creativecommons.org/licenses/by-nc/4.0/",
          "rightsHolder": "Seleni Oliva"
        }
      }
    },
    {
      "type": "Feature",
      "geometry": {
        "type": "Point",
        "coordinates": [
          -90.3817,
          15.59494
        ]
      },
      "properties": {
        "gbifID": "3308147206",
        "species": "Passiflora cobanensis",
        "genus": "Passiflora",
        "family": "Passifloraceae",
        "scientificName": "Passiflora cobanensis Killip",
        "coordinateUncertaintyInMeters": "",
        "basisOfRecord": "PRESERVED_SPECIMEN",
        "eventDate": "2008-03-12",
        "country": null,
        "datasetName": "Digitalización y Sistematización de las Colecciones Biológicas Nacionales del Instituto de Biología, UNAM",
        "publisher": "Comisión nacional para el conocimiento y uso de la biodiversidad",
        "license": "CC_BY_4_0",
        "issues": [
          "OCCURRENCE_STATUS_INFERRED_FROM_INDIVIDUAL_COUNT",
          "RECORDED_DATE_INVALID",
          "SCIENTIFIC_NAME_ID_NOT_FOUND",
          "TAXON_ID_NOT_FOUND"
        ],
        "fallback_media": {
          "url": "https://inaturalist-open-data.s3.amazonaws.com/photos/587218884/original.jpg",
          "references": "https://www.inaturalist.org/photos/587218884",
          "title": null,
          "creator": "Seleni Oliva",
          "publisher": "iNaturalist",
          "license": "http://creativecommons.org/licenses/by-nc/4.0/",
          "rightsHolder": "Seleni Oliva"
        }
      }
    },
    {
      "type": "Feature",
      "geometry": {
        "type": "Point",
        "coordinates": [
          -91.6,
          16.983
        ]
      },
      "properties": {
        "gbifID": "3308466168",
        "species": "Passiflora cobanensis",
        "genus": "Passiflora",
        "family": "Passifloraceae",
        "scientificName": "Passiflora cobanensis Killip",
        "coordinateUncertaintyInMeters": "90.0",
        "basisOfRecord": "PRESERVED_SPECIMEN",
        "eventDate": "1994-04-29",
        "country": null,
        "datasetName": "Digitalización y Sistematización de las Colecciones Biológicas Nacionales del Instituto de Biología, UNAM",
        "publisher": "Comisión nacional para el conocimiento y uso de la biodiversidad",
        "license": "CC_BY_4_0",
        "issues": [
          "OCCURRENCE_STATUS_INFERRED_FROM_INDIVIDUAL_COUNT",
          "SCIENTIFIC_NAME_ID_NOT_FOUND",
          "TAXON_ID_NOT_FOUND"
        ],
        "fallback_media": {
          "url": "https://inaturalist-open-data.s3.amazonaws.com/photos/587218884/original.jpg",
          "references": "https://www.inaturalist.org/photos/587218884",
          "title": null,
          "creator": "Seleni Oliva",
          "publisher": "iNaturalist",
          "license": "http://creativecommons.org/licenses/by-nc/4.0/",
          "rightsHolder": "Seleni Oliva"
        }
      }
    },
    {
      "type": "Feature",
      "geometry": {
        "type": "Point",
        "coordinates": [
          -92.110833,
          16.971944
        ]
      },
      "properties": {
        "gbifID": "2630149924",
        "species": "Passiflora cobanensis",
        "genus": "Passiflora",
        "family": "Passifloraceae",
        "scientificName": "Passiflora cobanensis Killip",
        "coordinateUncertaintyInMeters": "",
        "basisOfRecord": "PRESERVED_SPECIMEN",
        "eventDate": "2008-07-01",
        "country": null,
        "datasetName": "Flora y vegetación de la región terrestre prioritaria Tacaná-Boquerón, Chiapas, México",
        "publisher": "Comisión nacional para el conocimiento y uso de la biodiversidad",
        "license": "CC_BY_4_0",
        "issues": [
          "OCCURRENCE_STATUS_INFERRED_FROM_INDIVIDUAL_COUNT",
          "RECORDED_DATE_INVALID",
          "COORDINATE_ROUNDED",
          "TAXON_ID_NOT_FOUND",
          "SCIENTIFIC_NAME_ID_NOT_FOUND"
        ],
        "fallback_media": {
          "url": "https://inaturalist-open-data.s3.amazonaws.com/photos/587218884/original.jpg",
          "references": "https://www.inaturalist.org/photos/587218884",
          "title": null,
          "creator": "Seleni Oliva",
          "publisher": "iNaturalist",
          "license": "http://creativecommons.org/licenses/by-nc/4.0/",
          "rightsHolder": "Seleni Oliva"
        }
      }
    },
    {
      "type": "Feature",
      "geometry": {
        "type": "Point",
        "coordinates": [
          -93.472667,
          16.924306
        ]
      },
      "properties": {
        "gbifID": "2630170886",
        "species": "Passiflora cobanensis",
        "genus": "Passiflora",
        "family": "Passifloraceae",
        "scientificName": "Passiflora cobanensis Killip",
        "coordinateUncertaintyInMeters": "90.0",
        "basisOfRecord": "PRESERVED_SPECIMEN",
        "eventDate": "2006-03-16",
        "country": null,
        "datasetName": "Flora y vegetación de la región terrestre prioritaria Tacaná-Boquerón, Chiapas, México",
        "publisher": "Comisión nacional para el conocimiento y uso de la biodiversidad",
        "license": "CC_BY_4_0",
        "issues": [
          "OCCURRENCE_STATUS_INFERRED_FROM_INDIVIDUAL_COUNT",
          "COORDINATE_ROUNDED",
          "TAXON_ID_NOT_FOUND",
          "SCIENTIFIC_NAME_ID_NOT_FOUND"
        ],
        "fallback_media": {
          "url": "https://inaturalist-open-data.s3.amazonaws.com/photos/587218884/original.jpg",
          "references": "https://www.inaturalist.org/photos/587218884",
          "title": null,
          "creator": "Seleni Oliva",
          "publisher": "iNaturalist",
          "license": "http://creativecommons.org/licenses/by-nc/4.0/",
          "rightsHolder": "Seleni Oliva"
        }
      }
    },
    {
      "type": "Feature",
      "geometry": {
        "type": "Point",
        "coordinates": [
          -91.575146,
          16.993564
        ]
      },
      "properties": {
        "gbifID": "6250352379",
        "species": "Passiflora cobanensis",
        "genus": "Passiflora",
        "family": "Passifloraceae",
        "scientificName": "Passiflora cobanensis Killip",
        "coordinateUncertaintyInMeters": "",
        "basisOfRecord": "PRESERVED_SPECIMEN",
        "eventDate": "1996-04-29",
        "country": null,
        "datasetName": "Contribución al conocimiento de la flora útil de la selva Lacandona",
        "publisher": "Comisión nacional para el conocimiento y uso de la biodiversidad",
        "license": "CC_BY_4_0",
        "issues": [
          "OCCURRENCE_STATUS_INFERRED_FROM_INDIVIDUAL_COUNT",
          "COORDINATE_ROUNDED",
          "SCIENTIFIC_NAME_ID_NOT_FOUND",
          "TAXON_ID_NOT_FOUND"
        ],
        "fallback_media": {
          "url": "https://inaturalist-open-data.s3.amazonaws.com/photos/587218884/original.jpg",
          "references": "https://www.inaturalist.org/photos/587218884",
          "title": null,
          "creator": "Seleni Oliva",
          "publisher": "iNaturalist",
          "license": "http://creativecommons.org/licenses/by-nc/4.0/",
          "rightsHolder": "Seleni Oliva"
        }
      }
    },
    {
      "type": "Feature",
      "geometry": {
        "type": "Point",
        "coordinates": [
          -91.963889,
          17.446667
        ]
      },
      "properties": {
        "gbifID": "1258312811",
        "species": "Passiflora cobanensis",
        "genus": "Passiflora",
        "family": "Passifloraceae",
        "scientificName": "Passiflora cobanensis Killip",
        "coordinateUncertaintyInMeters": "",
        "basisOfRecord": "PRESERVED_SPECIMEN",
        "eventDate": "1986-11-19",
        "country": null,
        "datasetName": "Tropicos",
        "publisher": "Missouri Botanical Garden",
        "license": "CC_BY_4_0",
        "issues": [
          "OCCURRENCE_STATUS_INFERRED_FROM_INDIVIDUAL_COUNT",
          "COORDINATE_ROUNDED",
          "GEODETIC_DATUM_ASSUMED_WGS84",
          "INSTITUTION_MATCH_NONE",
          "TAXON_ID_NOT_FOUND"
        ],
        "fallback_media": {
          "url": "https://inaturalist-open-data.s3.amazonaws.com/photos/587218884/original.jpg",
          "references": "https://www.inaturalist.org/photos/587218884",
          "title": null,
          "creator": "Seleni Oliva",
          "publisher": "iNaturalist",
          "license": "http://creativecommons.org/licenses/by-nc/4.0/",
          "rightsHolder": "Seleni Oliva"
        }
      }
    },
    {
      "type": "Feature",
      "geometry": {
        "type": "Point",
        "coordinates": [
          -89.08333,
          17.14166
        ]
      },
      "properties": {
        "gbifID": "4061618713",
        "species": "Passiflora cobanensis",
        "genus": "Passiflora",
        "family": "Passifloraceae",
        "scientificName": "Passiflora cobanensis Killip",
        "coordinateUncertaintyInMeters": "",
        "basisOfRecord": "PRESERVED_SPECIMEN",
        "eventDate": "1988-11-09",
        "country": null,
        "datasetName": "Tropicos",
        "publisher": "Missouri Botanical Garden",
        "license": "CC_BY_4_0",
        "issues": [
          "GEODETIC_DATUM_ASSUMED_WGS84",
          "INSTITUTION_MATCH_NONE",
          "TAXON_ID_NOT_FOUND"
        ],
        "fallback_media": {
          "url": "https://inaturalist-open-data.s3.amazonaws.com/photos/587218884/original.jpg",
          "references": "https://www.inaturalist.org/photos/587218884",
          "title": null,
          "creator": "Seleni Oliva",
          "publisher": "iNaturalist",
          "license": "http://creativecommons.org/licenses/by-nc/4.0/",
          "rightsHolder": "Seleni Oliva"
        }
      }
    },
    {
      "type": "Feature",
      "geometry": {
        "type": "Point",
        "coordinates": [
          -88.92,
          16.15
        ]
      },
      "properties": {
        "gbifID": "1055362954",
        "species": "Passiflora cobanensis",
        "genus": "Passiflora",
        "family": "Passifloraceae",
        "scientificName": "Passiflora cobanensis Killip",
        "coordinateUncertaintyInMeters": "",
        "basisOfRecord": "PRESERVED_SPECIMEN",
        "eventDate": "1934-03-11",
        "country": null,
        "datasetName": "",
        "publisher": "Natural History Museum",
        "license": "CC0_1_0",
        "issues": [
          "GEODETIC_DATUM_ASSUMED_WGS84",
          "INSTITUTION_MATCH_FUZZY",
          "COLLECTION_MATCH_FUZZY"
        ],
        "media": [
          {
            "url": "https://data.nhm.ac.uk/media/3049fa45-c944-4a6a-bc95-64b645dc8ea8",
            "references": null,
            "title": "BM000543058",
            "creator": null,
            "publisher": null,
            "license": "http://creativecommons.org/licenses/by/4.0/",
            "rightsHolder": "The Trustees of the Natural History Museum, London"
          }
        ]
      }
    },
    {
      "type": "Feature",
      "geometry": {
        "type": "Point",
        "coordinates": [
          -89.07245,
          17.111447
        ]
      },
      "properties": {
        "gbifID": "5889941829",
        "species": "Passiflora cobanensis",
        "genus": "Passiflora",
        "family": "Passifloraceae",
        "scientificName": "Passiflora cobanensis Killip",
        "coordinateUncertaintyInMeters": "4.0",
        "basisOfRecord": "HUMAN_OBSERVATION",
        "eventDate": "2025-11-01T11:51",
        "country": null,
        "datasetName": "iNaturalist research-grade observations",
        "publisher": "iNaturalist.org",
        "license": "CC_BY_NC_4_0",
        "issues": [
          "COORDINATE_ROUNDED",
          "CONTINENT_DERIVED_FROM_COORDINATES",
          "TAXON_ID_NOT_FOUND"
        ],
        "media": [
          {
            "url": "https://inaturalist-open-data.s3.amazonaws.com/photos/587218884/original.jpg",
            "references": "https://www.inaturalist.org/photos/587218884",
            "title": null,
            "creator": "Seleni Oliva",
            "publisher": "iNaturalist",
            "license": "http://creativecommons.org/licenses/by-nc/4.0/",
            "rightsHolder": "Seleni Oliva"
          },
          {
            "url": "https://inaturalist-open-data.s3.amazonaws.com/photos/587218914/original.jpg",
            "references": "https://www.inaturalist.org/photos/587218914",
            "title": null,
            "creator": "Seleni Oliva",
            "publisher": "iNaturalist",
            "license": "http://creativecommons.org/licenses/by-nc/4.0/",
            "rightsHolder": "Seleni Oliva"
          },
          {
            "url": "https://inaturalist-open-data.s3.amazonaws.com/photos/587218943/original.jpg",
            "references": "https://www.inaturalist.org/photos/587218943",
            "title": null,
            "creator": "Seleni Oliva",
            "publisher": "iNaturalist",
            "license": "http://creativecommons.org/licenses/by-nc/4.0/",
            "rightsHolder": "Seleni Oliva"
          },
          {
            "url": "https://inaturalist-open-data.s3.amazonaws.com/photos/587218980/original.jpg",
            "references": "https://www.inaturalist.org/photos/587218980",
            "title": null,
            "creator": "Seleni Oliva",
            "publisher": "iNaturalist",
            "license": "http://creativecommons.org/licenses/by-nc/4.0/",
            "rightsHolder": "Seleni Oliva"
          }
        ]
      }
    }
  ]
}
