{
  "type": "FeatureCollection",
  "metadata": {
    "host_taxon": {
      "canonical_name": "Passiflora leptopoda",
      "rank": "species",
      "family": "Passifloraceae",
      "genus": "Passiflora",
      "species": "Passiflora leptopoda",
      "slug": "species_passiflora_leptopoda",
      "resolvable_to_gbif": true,
      "use_for_default_download": true,
      "association_count": 2,
      "butterfly_taxa": [
        "Heliconius erato",
        "Heliconius numata"
      ],
      "confidence_counts": {
        "medium": 2
      },
      "occurrence_file": "occurrences/species_passiflora_leptopoda.geojson",
      "gbif_resolution": {
        "query": "Passiflora leptopoda",
        "rank": "species",
        "status": "resolved",
        "gbif_taxon_key": 3586677,
        "accepted_usage_key": null,
        "scientific_name": "Passiflora leptopoda Harms",
        "canonical_name": "Passiflora leptopoda",
        "gbif_rank": "SPECIES",
        "taxonomic_status": "ACCEPTED",
        "match_type": "EXACT",
        "confidence": 100,
        "kingdom": "Plantae",
        "family": "Passifloraceae",
        "genus": "Passiflora",
        "resolved_at": "2026-05-21T03:58:28+00:00"
      },
      "gbif_taxon_key": 3586677,
      "gbif_status": "resolved",
      "occurrence_count": 0,
      "occurrence_mode": "not_generated",
      "occurrence_cap": null
    },
    "gbif_resolution": {
      "query": "Passiflora leptopoda",
      "rank": "species",
      "status": "resolved",
      "gbif_taxon_key": 3586677,
      "accepted_usage_key": null,
      "scientific_name": "Passiflora leptopoda Harms",
      "canonical_name": "Passiflora leptopoda",
      "gbif_rank": "SPECIES",
      "taxonomic_status": "ACCEPTED",
      "match_type": "EXACT",
      "confidence": 100,
      "kingdom": "Plantae",
      "family": "Passifloraceae",
      "genus": "Passiflora",
      "resolved_at": "2026-05-21T03:58:28+00:00"
    },
    "occurrence_query": {
      "method": "gbif_download_api",
      "download_key": "0004690-260519110011954",
      "download_doi": "10.15468/dl.s2gcc3",
      "download_doi_url": "https://doi.org/10.15468/dl.s2gcc3",
      "limit": null,
      "dedupe": "Exact duplicate coordinates removed per taxon after DWCA download.",
      "filters": "GBIF Download API DWCA with TAXON_KEY, HAS_COORDINATE=true, HAS_GEOSPATIAL_ISSUE=false, OCCURRENCE_STATUS=PRESENT; app study extent and coordinate uncertainty <=100km applied locally.",
      "returned_unique_coordinate_records": 13
    },
    "scientific_caveat": "GBIF plant occurrences are sampling-biased context records and do not prove local host use or ecological availability for the butterfly.",
    "generated_at": "2026-05-21T15:57:20+00:00"
  },
  "features": [
    {
      "type": "Feature",
      "geometry": {
        "type": "Point",
        "coordinates": [
          -59.35,
          4.0
        ]
      },
      "properties": {
        "gbifID": "1259632648",
        "species": "Passiflora leptopoda",
        "genus": "Passiflora",
        "family": "Passifloraceae",
        "scientificName": "Passiflora leptopoda Harms",
        "coordinateUncertaintyInMeters": "",
        "basisOfRecord": "PRESERVED_SPECIMEN",
        "eventDate": "1982-01-07",
        "country": null,
        "datasetName": "Tropicos",
        "publisher": "Missouri Botanical Garden",
        "license": "CC_BY_4_0",
        "issues": [
          "OCCURRENCE_STATUS_INFERRED_FROM_INDIVIDUAL_COUNT",
          "GEODETIC_DATUM_ASSUMED_WGS84",
          "INSTITUTION_MATCH_FUZZY",
          "COLLECTION_MATCH_NONE",
          "TAXON_ID_NOT_FOUND"
        ],
        "media": [
          {
            "url": "https://images.mobot.org/tropicosimages3/detailimages/TropicosImageVol3/100608000/E076D046-FC74-443F-A472-7734CF3CDDB4.jpg",
            "references": "https://www.tropicos.org/ImageFullView.aspx?imageid=100608346",
            "title": "Knapp - 2888 - Guyana",
            "creator": "MBG",
            "publisher": null,
            "license": "http://creativecommons.org/licenses/by-nc-sa/3.0/",
            "rightsHolder": "MBG"
          }
        ]
      }
    },
    {
      "type": "Feature",
      "geometry": {
        "type": "Point",
        "coordinates": [
          -57.23333,
          4.4
        ]
      },
      "properties": {
        "gbifID": "2515562093",
        "species": "Passiflora leptopoda",
        "genus": "Passiflora",
        "family": "Passifloraceae",
        "scientificName": "Passiflora leptopoda Harms",
        "coordinateUncertaintyInMeters": "",
        "basisOfRecord": "PRESERVED_SPECIMEN",
        "eventDate": "1976-11-20",
        "country": null,
        "datasetName": "",
        "publisher": "Naturalis Biodiversity Center",
        "license": "CC0_1_0",
        "issues": [],
        "media": [
          {
            "url": "https://medialib.naturalis.nl/file/id/U.1602789/format/large",
            "references": null,
            "title": null,
            "creator": null,
            "publisher": null,
            "license": "http://creativecommons.org/publicdomain/zero/1.0/",
            "rightsHolder": "Naturalis Biodiversity Center"
          }
        ]
      }
    },
    {
      "type": "Feature",
      "geometry": {
        "type": "Point",
        "coordinates": [
          -59.5217,
          2.99611
        ]
      },
      "properties": {
        "gbifID": "1456245054",
        "species": "Passiflora leptopoda",
        "genus": "Passiflora",
        "family": "Passifloraceae",
        "scientificName": "Passiflora leptopoda Harms",
        "coordinateUncertaintyInMeters": "",
        "basisOfRecord": "PRESERVED_SPECIMEN",
        "eventDate": "1996-05-27",
        "country": null,
        "datasetName": "NMNH Extant Biology",
        "publisher": "National Museum of Natural History, Smithsonian Institution",
        "license": "CC0_1_0",
        "issues": [
          "OCCURRENCE_STATUS_INFERRED_FROM_INDIVIDUAL_COUNT",
          "GEODETIC_DATUM_ASSUMED_WGS84"
        ],
        "fallback_media": {
          "url": "https://images.mobot.org/tropicosimages3/detailimages/TropicosImageVol3/100608000/E076D046-FC74-443F-A472-7734CF3CDDB4.jpg",
          "references": "https://www.tropicos.org/ImageFullView.aspx?imageid=100608346",
          "title": "Knapp - 2888 - Guyana",
          "creator": "MBG",
          "publisher": null,
          "license": "http://creativecommons.org/licenses/by-nc-sa/3.0/",
          "rightsHolder": "MBG"
        }
      }
    },
    {
      "type": "Feature",
      "geometry": {
        "type": "Point",
        "coordinates": [
          -59.2667,
          3.11667
        ]
      },
      "properties": {
        "gbifID": "1456220151",
        "species": "Passiflora leptopoda",
        "genus": "Passiflora",
        "family": "Passifloraceae",
        "scientificName": "Passiflora leptopoda Harms",
        "coordinateUncertaintyInMeters": "",
        "basisOfRecord": "PRESERVED_SPECIMEN",
        "eventDate": "1991-10-24",
        "country": null,
        "datasetName": "NMNH Extant Biology",
        "publisher": "National Museum of Natural History, Smithsonian Institution",
        "license": "CC0_1_0",
        "issues": [
          "OCCURRENCE_STATUS_INFERRED_FROM_INDIVIDUAL_COUNT",
          "GEODETIC_DATUM_ASSUMED_WGS84"
        ],
        "fallback_media": {
          "url": "https://images.mobot.org/tropicosimages3/detailimages/TropicosImageVol3/100608000/E076D046-FC74-443F-A472-7734CF3CDDB4.jpg",
          "references": "https://www.tropicos.org/ImageFullView.aspx?imageid=100608346",
          "title": "Knapp - 2888 - Guyana",
          "creator": "MBG",
          "publisher": null,
          "license": "http://creativecommons.org/licenses/by-nc-sa/3.0/",
          "rightsHolder": "MBG"
        }
      }
    },
    {
      "type": "Feature",
      "geometry": {
        "type": "Point",
        "coordinates": [
          -58.5922,
          2.985
        ]
      },
      "properties": {
        "gbifID": "1456064978",
        "species": "Passiflora leptopoda",
        "genus": "Passiflora",
        "family": "Passifloraceae",
        "scientificName": "Passiflora leptopoda Harms",
        "coordinateUncertaintyInMeters": "",
        "basisOfRecord": "PRESERVED_SPECIMEN",
        "eventDate": "1997-02-21",
        "country": null,
        "datasetName": "NMNH Extant Biology",
        "publisher": "National Museum of Natural History, Smithsonian Institution",
        "license": "CC0_1_0",
        "issues": [
          "OCCURRENCE_STATUS_INFERRED_FROM_INDIVIDUAL_COUNT",
          "GEODETIC_DATUM_ASSUMED_WGS84"
        ],
        "fallback_media": {
          "url": "https://images.mobot.org/tropicosimages3/detailimages/TropicosImageVol3/100608000/E076D046-FC74-443F-A472-7734CF3CDDB4.jpg",
          "references": "https://www.tropicos.org/ImageFullView.aspx?imageid=100608346",
          "title": "Knapp - 2888 - Guyana",
          "creator": "MBG",
          "publisher": null,
          "license": "http://creativecommons.org/licenses/by-nc-sa/3.0/",
          "rightsHolder": "MBG"
        }
      }
    },
    {
      "type": "Feature",
      "geometry": {
        "type": "Point",
        "coordinates": [
          -59.8,
          4.68333
        ]
      },
      "properties": {
        "gbifID": "1456330082",
        "species": "Passiflora leptopoda",
        "genus": "Passiflora",
        "family": "Passifloraceae",
        "scientificName": "Passiflora leptopoda Harms",
        "coordinateUncertaintyInMeters": "",
        "basisOfRecord": "PRESERVED_SPECIMEN",
        "eventDate": "1989-03-17",
        "country": null,
        "datasetName": "NMNH Extant Biology",
        "publisher": "National Museum of Natural History, Smithsonian Institution",
        "license": "CC0_1_0",
        "issues": [
          "OCCURRENCE_STATUS_INFERRED_FROM_INDIVIDUAL_COUNT",
          "GEODETIC_DATUM_ASSUMED_WGS84"
        ],
        "fallback_media": {
          "url": "https://images.mobot.org/tropicosimages3/detailimages/TropicosImageVol3/100608000/E076D046-FC74-443F-A472-7734CF3CDDB4.jpg",
          "references": "https://www.tropicos.org/ImageFullView.aspx?imageid=100608346",
          "title": "Knapp - 2888 - Guyana",
          "creator": "MBG",
          "publisher": null,
          "license": "http://creativecommons.org/licenses/by-nc-sa/3.0/",
          "rightsHolder": "MBG"
        }
      }
    },
    {
      "type": "Feature",
      "geometry": {
        "type": "Point",
        "coordinates": [
          -58.1833,
          3.36667
        ]
      },
      "properties": {
        "gbifID": "1456061025",
        "species": "Passiflora leptopoda",
        "genus": "Passiflora",
        "family": "Passifloraceae",
        "scientificName": "Passiflora leptopoda Harms",
        "coordinateUncertaintyInMeters": "",
        "basisOfRecord": "PRESERVED_SPECIMEN",
        "eventDate": "2008-09-14",
        "country": null,
        "datasetName": "NMNH Extant Biology",
        "publisher": "National Museum of Natural History, Smithsonian Institution",
        "license": "CC0_1_0",
        "issues": [
          "OCCURRENCE_STATUS_INFERRED_FROM_INDIVIDUAL_COUNT",
          "GEODETIC_DATUM_ASSUMED_WGS84"
        ],
        "fallback_media": {
          "url": "https://images.mobot.org/tropicosimages3/detailimages/TropicosImageVol3/100608000/E076D046-FC74-443F-A472-7734CF3CDDB4.jpg",
          "references": "https://www.tropicos.org/ImageFullView.aspx?imageid=100608346",
          "title": "Knapp - 2888 - Guyana",
          "creator": "MBG",
          "publisher": null,
          "license": "http://creativecommons.org/licenses/by-nc-sa/3.0/",
          "rightsHolder": "MBG"
        }
      }
    },
    {
      "type": "Feature",
      "geometry": {
        "type": "Point",
        "coordinates": [
          -59.83,
          3.16
        ]
      },
      "properties": {
        "gbifID": "1456171969",
        "species": "Passiflora leptopoda",
        "genus": "Passiflora",
        "family": "Passifloraceae",
        "scientificName": "Passiflora leptopoda Harms",
        "coordinateUncertaintyInMeters": "",
        "basisOfRecord": "PRESERVED_SPECIMEN",
        "eventDate": "1938-03-04/1938-03-22",
        "country": null,
        "datasetName": "NMNH Extant Biology",
        "publisher": "National Museum of Natural History, Smithsonian Institution",
        "license": "CC0_1_0",
        "issues": [
          "OCCURRENCE_STATUS_INFERRED_FROM_INDIVIDUAL_COUNT",
          "GEODETIC_DATUM_ASSUMED_WGS84"
        ],
        "media": [
          {
            "url": "https://collections.nmnh.si.edu/media/?i=15471276&h=2000",
            "references": null,
            "title": "00758722.tif",
            "creator": "Conveyor Belt",
            "publisher": "Smithsonian Institution, NMNH, Botany",
            "license": "http://creativecommons.org/publicdomain/zero/1.0/",
            "rightsHolder": null
          }
        ]
      }
    },
    {
      "type": "Feature",
      "geometry": {
        "type": "Point",
        "coordinates": [
          -59.38,
          3.13
        ]
      },
      "properties": {
        "gbifID": "1456085476",
        "species": "Passiflora leptopoda",
        "genus": "Passiflora",
        "family": "Passifloraceae",
        "scientificName": "Passiflora leptopoda Harms",
        "coordinateUncertaintyInMeters": "",
        "basisOfRecord": "PRESERVED_SPECIMEN",
        "eventDate": "1985-02-24",
        "country": null,
        "datasetName": "NMNH Extant Biology",
        "publisher": "National Museum of Natural History, Smithsonian Institution",
        "license": "CC0_1_0",
        "issues": [
          "OCCURRENCE_STATUS_INFERRED_FROM_INDIVIDUAL_COUNT",
          "GEODETIC_DATUM_ASSUMED_WGS84"
        ],
        "media": [
          {
            "url": "https://collections.nmnh.si.edu/media/?i=15450432&h=2000",
            "references": null,
            "title": "00758724.tif",
            "creator": "Conveyor Belt",
            "publisher": "Smithsonian Institution, NMNH, Botany",
            "license": "http://creativecommons.org/publicdomain/zero/1.0/",
            "rightsHolder": null
          }
        ]
      }
    },
    {
      "type": "Feature",
      "geometry": {
        "type": "Point",
        "coordinates": [
          -60.666667,
          2.583333
        ]
      },
      "properties": {
        "gbifID": "4061562284",
        "species": "Passiflora leptopoda",
        "genus": "Passiflora",
        "family": "Passifloraceae",
        "scientificName": "Passiflora leptopoda Harms",
        "coordinateUncertaintyInMeters": "",
        "basisOfRecord": "PRESERVED_SPECIMEN",
        "eventDate": "1908-11",
        "country": null,
        "datasetName": "Tropicos",
        "publisher": "Missouri Botanical Garden",
        "license": "CC_BY_4_0",
        "issues": [
          "OCCURRENCE_STATUS_INFERRED_FROM_INDIVIDUAL_COUNT",
          "COORDINATE_ROUNDED",
          "GEODETIC_DATUM_ASSUMED_WGS84",
          "AMBIGUOUS_INSTITUTION",
          "TAXON_ID_NOT_FOUND"
        ],
        "fallback_media": {
          "url": "https://images.mobot.org/tropicosimages3/detailimages/TropicosImageVol3/100608000/E076D046-FC74-443F-A472-7734CF3CDDB4.jpg",
          "references": "https://www.tropicos.org/ImageFullView.aspx?imageid=100608346",
          "title": "Knapp - 2888 - Guyana",
          "creator": "MBG",
          "publisher": null,
          "license": "http://creativecommons.org/licenses/by-nc-sa/3.0/",
          "rightsHolder": "MBG"
        }
      }
    },
    {
      "type": "Feature",
      "geometry": {
        "type": "Point",
        "coordinates": [
          -58.233333,
          4.816667
        ]
      },
      "properties": {
        "gbifID": "1257608824",
        "species": "Passiflora leptopoda",
        "genus": "Passiflora",
        "family": "Passifloraceae",
        "scientificName": "Passiflora leptopoda Harms",
        "coordinateUncertaintyInMeters": "",
        "basisOfRecord": "PRESERVED_SPECIMEN",
        "eventDate": "1835",
        "country": null,
        "datasetName": "Tropicos",
        "publisher": "Missouri Botanical Garden",
        "license": "CC_BY_4_0",
        "issues": [
          "OCCURRENCE_STATUS_INFERRED_FROM_INDIVIDUAL_COUNT",
          "COORDINATE_ROUNDED",
          "GEODETIC_DATUM_ASSUMED_WGS84",
          "INSTITUTION_MATCH_FUZZY",
          "COLLECTION_MATCH_NONE",
          "TAXON_ID_NOT_FOUND"
        ],
        "fallback_media": {
          "url": "https://images.mobot.org/tropicosimages3/detailimages/TropicosImageVol3/100608000/E076D046-FC74-443F-A472-7734CF3CDDB4.jpg",
          "references": "https://www.tropicos.org/ImageFullView.aspx?imageid=100608346",
          "title": "Knapp - 2888 - Guyana",
          "creator": "MBG",
          "publisher": null,
          "license": "http://creativecommons.org/licenses/by-nc-sa/3.0/",
          "rightsHolder": "MBG"
        }
      }
    },
    {
      "type": "Feature",
      "geometry": {
        "type": "Point",
        "coordinates": [
          -59.666667,
          3.616667
        ]
      },
      "properties": {
        "gbifID": "1257573713",
        "species": "Passiflora leptopoda",
        "genus": "Passiflora",
        "family": "Passifloraceae",
        "scientificName": "Passiflora leptopoda Harms",
        "coordinateUncertaintyInMeters": "",
        "basisOfRecord": "PRESERVED_SPECIMEN",
        "eventDate": "1841",
        "country": null,
        "datasetName": "Tropicos",
        "publisher": "Missouri Botanical Garden",
        "license": "CC_BY_4_0",
        "issues": [
          "OCCURRENCE_STATUS_INFERRED_FROM_INDIVIDUAL_COUNT",
          "COORDINATE_ROUNDED",
          "GEODETIC_DATUM_ASSUMED_WGS84",
          "INSTITUTION_MATCH_FUZZY",
          "COLLECTION_MATCH_NONE",
          "TAXON_ID_NOT_FOUND"
        ],
        "fallback_media": {
          "url": "https://images.mobot.org/tropicosimages3/detailimages/TropicosImageVol3/100608000/E076D046-FC74-443F-A472-7734CF3CDDB4.jpg",
          "references": "https://www.tropicos.org/ImageFullView.aspx?imageid=100608346",
          "title": "Knapp - 2888 - Guyana",
          "creator": "MBG",
          "publisher": null,
          "license": "http://creativecommons.org/licenses/by-nc-sa/3.0/",
          "rightsHolder": "MBG"
        }
      }
    },
    {
      "type": "Feature",
      "geometry": {
        "type": "Point",
        "coordinates": [
          -57.966667,
          4.366667
        ]
      },
      "properties": {
        "gbifID": "1257608831",
        "species": "Passiflora leptopoda",
        "genus": "Passiflora",
        "family": "Passifloraceae",
        "scientificName": "Passiflora leptopoda Harms",
        "coordinateUncertaintyInMeters": "",
        "basisOfRecord": "PRESERVED_SPECIMEN",
        "eventDate": "",
        "country": null,
        "datasetName": "Tropicos",
        "publisher": "Missouri Botanical Garden",
        "license": "CC_BY_4_0",
        "issues": [
          "OCCURRENCE_STATUS_INFERRED_FROM_INDIVIDUAL_COUNT",
          "COORDINATE_ROUNDED",
          "GEODETIC_DATUM_ASSUMED_WGS84",
          "INSTITUTION_MATCH_FUZZY",
          "COLLECTION_MATCH_NONE",
          "TAXON_ID_NOT_FOUND"
        ],
        "fallback_media": {
          "url": "https://images.mobot.org/tropicosimages3/detailimages/TropicosImageVol3/100608000/E076D046-FC74-443F-A472-7734CF3CDDB4.jpg",
          "references": "https://www.tropicos.org/ImageFullView.aspx?imageid=100608346",
          "title": "Knapp - 2888 - Guyana",
          "creator": "MBG",
          "publisher": null,
          "license": "http://creativecommons.org/licenses/by-nc-sa/3.0/",
          "rightsHolder": "MBG"
        }
      }
    }
  ]
}
