{
  "type": "FeatureCollection",
  "metadata": {
    "host_taxon": {
      "canonical_name": "Markea neurantha",
      "rank": "species",
      "family": "Solanaceae",
      "genus": "Markea",
      "species": "Markea neurantha",
      "slug": "species_markea_neurantha",
      "resolvable_to_gbif": true,
      "use_for_default_download": true,
      "association_count": 1,
      "butterfly_taxa": [
        "Melinaea lilis"
      ],
      "confidence_counts": {
        "medium": 1
      },
      "occurrence_file": "occurrences/species_markea_neurantha.geojson",
      "gbif_resolution": {
        "query": "Markea neurantha",
        "rank": "species",
        "status": "resolved",
        "gbif_taxon_key": 3801338,
        "accepted_usage_key": 3800920,
        "scientific_name": "Markea neurantha Hemsl.",
        "canonical_name": "Markea neurantha",
        "gbif_rank": "SPECIES",
        "taxonomic_status": "SYNONYM",
        "match_type": "EXACT",
        "confidence": 100,
        "kingdom": "Plantae",
        "family": "Solanaceae",
        "genus": "Merinthopodium",
        "resolved_at": "2026-05-21T03:57:54+00:00"
      },
      "gbif_taxon_key": 3801338,
      "gbif_status": "resolved",
      "occurrence_count": 0,
      "occurrence_mode": "not_generated",
      "occurrence_cap": null
    },
    "gbif_resolution": {
      "query": "Markea neurantha",
      "rank": "species",
      "status": "resolved",
      "gbif_taxon_key": 3801338,
      "accepted_usage_key": 3800920,
      "scientific_name": "Markea neurantha Hemsl.",
      "canonical_name": "Markea neurantha",
      "gbif_rank": "SPECIES",
      "taxonomic_status": "SYNONYM",
      "match_type": "EXACT",
      "confidence": 100,
      "kingdom": "Plantae",
      "family": "Solanaceae",
      "genus": "Merinthopodium",
      "resolved_at": "2026-05-21T03:57:54+00:00"
    },
    "occurrence_query": {
      "method": "gbif_download_api",
      "download_key": "0004690-260519110011954",
      "download_doi": "10.15468/dl.s2gcc3",
      "download_doi_url": "https://doi.org/10.15468/dl.s2gcc3",
      "limit": null,
      "dedupe": "Exact duplicate coordinates removed per taxon after DWCA download.",
      "filters": "GBIF Download API DWCA with TAXON_KEY, HAS_COORDINATE=true, HAS_GEOSPATIAL_ISSUE=false, OCCURRENCE_STATUS=PRESENT; app study extent and coordinate uncertainty <=100km applied locally.",
      "returned_unique_coordinate_records": 31
    },
    "scientific_caveat": "GBIF plant occurrences are sampling-biased context records and do not prove local host use or ecological availability for the butterfly.",
    "generated_at": "2026-05-21T15:57:19+00:00"
  },
  "features": [
    {
      "type": "Feature",
      "geometry": {
        "type": "Point",
        "coordinates": [
          -78.929167,
          9.272778
        ]
      },
      "properties": {
        "gbifID": "4101537371",
        "species": "Merinthopodium neuranthum",
        "genus": "Merinthopodium",
        "family": "Solanaceae",
        "scientificName": "Markea neurantha Hemsl.",
        "coordinateUncertaintyInMeters": "",
        "basisOfRecord": "PRESERVED_SPECIMEN",
        "eventDate": "1974-10-30",
        "country": null,
        "datasetName": "Tropicos",
        "publisher": "Missouri Botanical Garden",
        "license": "CC_BY_4_0",
        "issues": [
          "OCCURRENCE_STATUS_INFERRED_FROM_INDIVIDUAL_COUNT",
          "COORDINATE_ROUNDED",
          "GEODETIC_DATUM_ASSUMED_WGS84",
          "INSTITUTION_MATCH_FUZZY",
          "COLLECTION_MATCH_NONE",
          "TAXON_ID_NOT_FOUND"
        ],
        "fallback_media": {
          "url": "https://cdn.plantatlas.org/img/specimens/USF/110617.jpg",
          "references": null,
          "title": "Markea neurantha Hemsl. - Panama, Chiriquí Prov. (BARCODE: 110617) - USF Herbarium",
          "creator": null,
          "publisher": null,
          "license": "http://creativecommons.org/licenses/by-nc-sa/4.0/",
          "rightsHolder": "University of South Florida Herbarium (USF)"
        }
      }
    },
    {
      "type": "Feature",
      "geometry": {
        "type": "Point",
        "coordinates": [
          -84.316667,
          10.2
        ]
      },
      "properties": {
        "gbifID": "2268854975",
        "species": "Merinthopodium neuranthum",
        "genus": "Merinthopodium",
        "family": "Solanaceae",
        "scientificName": "Markea neurantha Hemsl.",
        "coordinateUncertaintyInMeters": "",
        "basisOfRecord": "PRESERVED_SPECIMEN",
        "eventDate": "1972-10-07",
        "country": null,
        "datasetName": "Tropicos",
        "publisher": "Missouri Botanical Garden",
        "license": "CC_BY_4_0",
        "issues": [
          "OCCURRENCE_STATUS_INFERRED_FROM_INDIVIDUAL_COUNT",
          "COORDINATE_ROUNDED",
          "GEODETIC_DATUM_ASSUMED_WGS84",
          "INSTITUTION_MATCH_FUZZY",
          "COLLECTION_MATCH_NONE",
          "TAXON_ID_NOT_FOUND"
        ],
        "fallback_media": {
          "url": "https://cdn.plantatlas.org/img/specimens/USF/110617.jpg",
          "references": null,
          "title": "Markea neurantha Hemsl. - Panama, Chiriquí Prov. (BARCODE: 110617) - USF Herbarium",
          "creator": null,
          "publisher": null,
          "license": "http://creativecommons.org/licenses/by-nc-sa/4.0/",
          "rightsHolder": "University of South Florida Herbarium (USF)"
        }
      }
    },
    {
      "type": "Feature",
      "geometry": {
        "type": "Point",
        "coordinates": [
          -83.783333,
          10.5
        ]
      },
      "properties": {
        "gbifID": "2268856801",
        "species": "Merinthopodium neuranthum",
        "genus": "Merinthopodium",
        "family": "Solanaceae",
        "scientificName": "Markea neurantha Hemsl.",
        "coordinateUncertaintyInMeters": "",
        "basisOfRecord": "PRESERVED_SPECIMEN",
        "eventDate": "1978-03-09",
        "country": null,
        "datasetName": "Tropicos",
        "publisher": "Missouri Botanical Garden",
        "license": "CC_BY_4_0",
        "issues": [
          "OCCURRENCE_STATUS_INFERRED_FROM_INDIVIDUAL_COUNT",
          "COORDINATE_ROUNDED",
          "GEODETIC_DATUM_ASSUMED_WGS84",
          "INSTITUTION_MATCH_FUZZY",
          "COLLECTION_MATCH_NONE",
          "TAXON_ID_NOT_FOUND"
        ],
        "fallback_media": {
          "url": "https://cdn.plantatlas.org/img/specimens/USF/110617.jpg",
          "references": null,
          "title": "Markea neurantha Hemsl. - Panama, Chiriquí Prov. (BARCODE: 110617) - USF Herbarium",
          "creator": null,
          "publisher": null,
          "license": "http://creativecommons.org/licenses/by-nc-sa/4.0/",
          "rightsHolder": "University of South Florida Herbarium (USF)"
        }
      }
    },
    {
      "type": "Feature",
      "geometry": {
        "type": "Point",
        "coordinates": [
          -84.003611,
          10.431389
        ]
      },
      "properties": {
        "gbifID": "4031557061",
        "species": "Merinthopodium neuranthum",
        "genus": "Merinthopodium",
        "family": "Solanaceae",
        "scientificName": "Markea neurantha Hemsl.",
        "coordinateUncertaintyInMeters": "",
        "basisOfRecord": "PRESERVED_SPECIMEN",
        "eventDate": "1984-06-26",
        "country": null,
        "datasetName": "Tropicos",
        "publisher": "Missouri Botanical Garden",
        "license": "CC_BY_4_0",
        "issues": [
          "OCCURRENCE_STATUS_INFERRED_FROM_INDIVIDUAL_COUNT",
          "COORDINATE_ROUNDED",
          "GEODETIC_DATUM_ASSUMED_WGS84",
          "INSTITUTION_MATCH_FUZZY",
          "COLLECTION_MATCH_NONE",
          "TAXON_ID_NOT_FOUND"
        ],
        "fallback_media": {
          "url": "https://cdn.plantatlas.org/img/specimens/USF/110617.jpg",
          "references": null,
          "title": "Markea neurantha Hemsl. - Panama, Chiriquí Prov. (BARCODE: 110617) - USF Herbarium",
          "creator": null,
          "publisher": null,
          "license": "http://creativecommons.org/licenses/by-nc-sa/4.0/",
          "rightsHolder": "University of South Florida Herbarium (USF)"
        }
      }
    },
    {
      "type": "Feature",
      "geometry": {
        "type": "Point",
        "coordinates": [
          -84.116667,
          10.4
        ]
      },
      "properties": {
        "gbifID": "2268857803",
        "species": "Merinthopodium neuranthum",
        "genus": "Merinthopodium",
        "family": "Solanaceae",
        "scientificName": "Markea neurantha Hemsl.",
        "coordinateUncertaintyInMeters": "",
        "basisOfRecord": "PRESERVED_SPECIMEN",
        "eventDate": "1971-08-12",
        "country": null,
        "datasetName": "Tropicos",
        "publisher": "Missouri Botanical Garden",
        "license": "CC_BY_4_0",
        "issues": [
          "OCCURRENCE_STATUS_INFERRED_FROM_INDIVIDUAL_COUNT",
          "COORDINATE_ROUNDED",
          "GEODETIC_DATUM_ASSUMED_WGS84",
          "INSTITUTION_MATCH_FUZZY",
          "COLLECTION_MATCH_NONE",
          "TAXON_ID_NOT_FOUND"
        ],
        "fallback_media": {
          "url": "https://cdn.plantatlas.org/img/specimens/USF/110617.jpg",
          "references": null,
          "title": "Markea neurantha Hemsl. - Panama, Chiriquí Prov. (BARCODE: 110617) - USF Herbarium",
          "creator": null,
          "publisher": null,
          "license": "http://creativecommons.org/licenses/by-nc-sa/4.0/",
          "rightsHolder": "University of South Florida Herbarium (USF)"
        }
      }
    },
    {
      "type": "Feature",
      "geometry": {
        "type": "Point",
        "coordinates": [
          -84.58,
          10.15
        ]
      },
      "properties": {
        "gbifID": "1262254483",
        "species": "Merinthopodium neuranthum",
        "genus": "Merinthopodium",
        "family": "Solanaceae",
        "scientificName": "Markea neurantha Hemsl.",
        "coordinateUncertaintyInMeters": "",
        "basisOfRecord": "PRESERVED_SPECIMEN",
        "eventDate": "1983-05-14",
        "country": null,
        "datasetName": "Tropicos",
        "publisher": "Missouri Botanical Garden",
        "license": "CC_BY_4_0",
        "issues": [
          "OCCURRENCE_STATUS_INFERRED_FROM_INDIVIDUAL_COUNT",
          "GEODETIC_DATUM_ASSUMED_WGS84",
          "INSTITUTION_MATCH_FUZZY",
          "COLLECTION_MATCH_NONE",
          "TAXON_ID_NOT_FOUND"
        ],
        "fallback_media": {
          "url": "https://cdn.plantatlas.org/img/specimens/USF/110617.jpg",
          "references": null,
          "title": "Markea neurantha Hemsl. - Panama, Chiriquí Prov. (BARCODE: 110617) - USF Herbarium",
          "creator": null,
          "publisher": null,
          "license": "http://creativecommons.org/licenses/by-nc-sa/4.0/",
          "rightsHolder": "University of South Florida Herbarium (USF)"
        }
      }
    },
    {
      "type": "Feature",
      "geometry": {
        "type": "Point",
        "coordinates": [
          -84.766667,
          10.3
        ]
      },
      "properties": {
        "gbifID": "4510707415",
        "species": "Merinthopodium neuranthum",
        "genus": "Merinthopodium",
        "family": "Solanaceae",
        "scientificName": "Markea neurantha Hemsl.",
        "coordinateUncertaintyInMeters": "",
        "basisOfRecord": "PRESERVED_SPECIMEN",
        "eventDate": "1973-03-17",
        "country": null,
        "datasetName": "Tropicos",
        "publisher": "Missouri Botanical Garden",
        "license": "CC_BY_4_0",
        "issues": [
          "OCCURRENCE_STATUS_INFERRED_FROM_INDIVIDUAL_COUNT",
          "COORDINATE_ROUNDED",
          "GEODETIC_DATUM_ASSUMED_WGS84",
          "INSTITUTION_MATCH_FUZZY",
          "COLLECTION_MATCH_NONE",
          "TAXON_ID_NOT_FOUND"
        ],
        "fallback_media": {
          "url": "https://cdn.plantatlas.org/img/specimens/USF/110617.jpg",
          "references": null,
          "title": "Markea neurantha Hemsl. - Panama, Chiriquí Prov. (BARCODE: 110617) - USF Herbarium",
          "creator": null,
          "publisher": null,
          "license": "http://creativecommons.org/licenses/by-nc-sa/4.0/",
          "rightsHolder": "University of South Florida Herbarium (USF)"
        }
      }
    },
    {
      "type": "Feature",
      "geometry": {
        "type": "Point",
        "coordinates": [
          -88.931944,
          15.765556
        ]
      },
      "properties": {
        "gbifID": "1257688812",
        "species": "Merinthopodium neuranthum",
        "genus": "Merinthopodium",
        "family": "Solanaceae",
        "scientificName": "Markea neurantha Hemsl.",
        "coordinateUncertaintyInMeters": "",
        "basisOfRecord": "PRESERVED_SPECIMEN",
        "eventDate": "2001-01-01",
        "country": null,
        "datasetName": "Tropicos",
        "publisher": "Missouri Botanical Garden",
        "license": "CC_BY_4_0",
        "issues": [
          "OCCURRENCE_STATUS_INFERRED_FROM_INDIVIDUAL_COUNT",
          "COORDINATE_ROUNDED",
          "GEODETIC_DATUM_ASSUMED_WGS84",
          "INSTITUTION_MATCH_FUZZY",
          "COLLECTION_MATCH_NONE",
          "TAXON_ID_NOT_FOUND"
        ],
        "fallback_media": {
          "url": "https://cdn.plantatlas.org/img/specimens/USF/110617.jpg",
          "references": null,
          "title": "Markea neurantha Hemsl. - Panama, Chiriquí Prov. (BARCODE: 110617) - USF Herbarium",
          "creator": null,
          "publisher": null,
          "license": "http://creativecommons.org/licenses/by-nc-sa/4.0/",
          "rightsHolder": "University of South Florida Herbarium (USF)"
        }
      }
    },
    {
      "type": "Feature",
      "geometry": {
        "type": "Point",
        "coordinates": [
          -84.8,
          10.3
        ]
      },
      "properties": {
        "gbifID": "2268857968",
        "species": "Merinthopodium neuranthum",
        "genus": "Merinthopodium",
        "family": "Solanaceae",
        "scientificName": "Markea neurantha Hemsl.",
        "coordinateUncertaintyInMeters": "",
        "basisOfRecord": "PRESERVED_SPECIMEN",
        "eventDate": "1973-03-18",
        "country": null,
        "datasetName": "Tropicos",
        "publisher": "Missouri Botanical Garden",
        "license": "CC_BY_4_0",
        "issues": [
          "OCCURRENCE_STATUS_INFERRED_FROM_INDIVIDUAL_COUNT",
          "GEODETIC_DATUM_ASSUMED_WGS84",
          "INSTITUTION_MATCH_FUZZY",
          "COLLECTION_MATCH_NONE",
          "TAXON_ID_NOT_FOUND"
        ],
        "fallback_media": {
          "url": "https://cdn.plantatlas.org/img/specimens/USF/110617.jpg",
          "references": null,
          "title": "Markea neurantha Hemsl. - Panama, Chiriquí Prov. (BARCODE: 110617) - USF Herbarium",
          "creator": null,
          "publisher": null,
          "license": "http://creativecommons.org/licenses/by-nc-sa/4.0/",
          "rightsHolder": "University of South Florida Herbarium (USF)"
        }
      }
    },
    {
      "type": "Feature",
      "geometry": {
        "type": "Point",
        "coordinates": [
          -83.808333,
          10.391667
        ]
      },
      "properties": {
        "gbifID": "1262238493",
        "species": "Merinthopodium neuranthum",
        "genus": "Merinthopodium",
        "family": "Solanaceae",
        "scientificName": "Markea neurantha Hemsl.",
        "coordinateUncertaintyInMeters": "",
        "basisOfRecord": "PRESERVED_SPECIMEN",
        "eventDate": "1987-10-02",
        "country": null,
        "datasetName": "Tropicos",
        "publisher": "Missouri Botanical Garden",
        "license": "CC_BY_4_0",
        "issues": [
          "OCCURRENCE_STATUS_INFERRED_FROM_INDIVIDUAL_COUNT",
          "COORDINATE_ROUNDED",
          "GEODETIC_DATUM_ASSUMED_WGS84",
          "INSTITUTION_MATCH_FUZZY",
          "COLLECTION_MATCH_NONE",
          "TAXON_ID_NOT_FOUND"
        ],
        "fallback_media": {
          "url": "https://cdn.plantatlas.org/img/specimens/USF/110617.jpg",
          "references": null,
          "title": "Markea neurantha Hemsl. - Panama, Chiriquí Prov. (BARCODE: 110617) - USF Herbarium",
          "creator": null,
          "publisher": null,
          "license": "http://creativecommons.org/licenses/by-nc-sa/4.0/",
          "rightsHolder": "University of South Florida Herbarium (USF)"
        }
      }
    },
    {
      "type": "Feature",
      "geometry": {
        "type": "Point",
        "coordinates": [
          -83.666667,
          10.666667
        ]
      },
      "properties": {
        "gbifID": "1262246094",
        "species": "Merinthopodium neuranthum",
        "genus": "Merinthopodium",
        "family": "Solanaceae",
        "scientificName": "Markea neurantha Hemsl.",
        "coordinateUncertaintyInMeters": "",
        "basisOfRecord": "PRESERVED_SPECIMEN",
        "eventDate": "1986-09-13",
        "country": null,
        "datasetName": "Tropicos",
        "publisher": "Missouri Botanical Garden",
        "license": "CC_BY_4_0",
        "issues": [
          "OCCURRENCE_STATUS_INFERRED_FROM_INDIVIDUAL_COUNT",
          "COORDINATE_ROUNDED",
          "GEODETIC_DATUM_ASSUMED_WGS84",
          "INSTITUTION_MATCH_FUZZY",
          "COLLECTION_MATCH_NONE",
          "TAXON_ID_NOT_FOUND"
        ],
        "fallback_media": {
          "url": "https://cdn.plantatlas.org/img/specimens/USF/110617.jpg",
          "references": null,
          "title": "Markea neurantha Hemsl. - Panama, Chiriquí Prov. (BARCODE: 110617) - USF Herbarium",
          "creator": null,
          "publisher": null,
          "license": "http://creativecommons.org/licenses/by-nc-sa/4.0/",
          "rightsHolder": "University of South Florida Herbarium (USF)"
        }
      }
    },
    {
      "type": "Feature",
      "geometry": {
        "type": "Point",
        "coordinates": [
          -83.46,
          10.1
        ]
      },
      "properties": {
        "gbifID": "1262243028",
        "species": "Merinthopodium neuranthum",
        "genus": "Merinthopodium",
        "family": "Solanaceae",
        "scientificName": "Markea neurantha Hemsl.",
        "coordinateUncertaintyInMeters": "",
        "basisOfRecord": "PRESERVED_SPECIMEN",
        "eventDate": "1991-02-16",
        "country": null,
        "datasetName": "Tropicos",
        "publisher": "Missouri Botanical Garden",
        "license": "CC_BY_4_0",
        "issues": [
          "OCCURRENCE_STATUS_INFERRED_FROM_INDIVIDUAL_COUNT",
          "GEODETIC_DATUM_ASSUMED_WGS84",
          "INSTITUTION_MATCH_FUZZY",
          "COLLECTION_MATCH_NONE",
          "TAXON_ID_NOT_FOUND"
        ],
        "fallback_media": {
          "url": "https://cdn.plantatlas.org/img/specimens/USF/110617.jpg",
          "references": null,
          "title": "Markea neurantha Hemsl. - Panama, Chiriquí Prov. (BARCODE: 110617) - USF Herbarium",
          "creator": null,
          "publisher": null,
          "license": "http://creativecommons.org/licenses/by-nc-sa/4.0/",
          "rightsHolder": "University of South Florida Herbarium (USF)"
        }
      }
    },
    {
      "type": "Feature",
      "geometry": {
        "type": "Point",
        "coordinates": [
          -84.0,
          10.433333
        ]
      },
      "properties": {
        "gbifID": "2268857466",
        "species": "Merinthopodium neuranthum",
        "genus": "Merinthopodium",
        "family": "Solanaceae",
        "scientificName": "Markea neurantha Hemsl.",
        "coordinateUncertaintyInMeters": "",
        "basisOfRecord": "PRESERVED_SPECIMEN",
        "eventDate": "1973-04-26",
        "country": null,
        "datasetName": "Tropicos",
        "publisher": "Missouri Botanical Garden",
        "license": "CC_BY_4_0",
        "issues": [
          "OCCURRENCE_STATUS_INFERRED_FROM_INDIVIDUAL_COUNT",
          "COORDINATE_ROUNDED",
          "GEODETIC_DATUM_ASSUMED_WGS84",
          "INSTITUTION_MATCH_FUZZY",
          "COLLECTION_MATCH_NONE",
          "TAXON_ID_NOT_FOUND"
        ],
        "fallback_media": {
          "url": "https://cdn.plantatlas.org/img/specimens/USF/110617.jpg",
          "references": null,
          "title": "Markea neurantha Hemsl. - Panama, Chiriquí Prov. (BARCODE: 110617) - USF Herbarium",
          "creator": null,
          "publisher": null,
          "license": "http://creativecommons.org/licenses/by-nc-sa/4.0/",
          "rightsHolder": "University of South Florida Herbarium (USF)"
        }
      }
    },
    {
      "type": "Feature",
      "geometry": {
        "type": "Point",
        "coordinates": [
          -81.14583,
          8.53166
        ]
      },
      "properties": {
        "gbifID": "1259205434",
        "species": "Merinthopodium neuranthum",
        "genus": "Merinthopodium",
        "family": "Solanaceae",
        "scientificName": "Markea neurantha Hemsl.",
        "coordinateUncertaintyInMeters": "",
        "basisOfRecord": "PRESERVED_SPECIMEN",
        "eventDate": "1979-10-07",
        "country": null,
        "datasetName": "Tropicos",
        "publisher": "Missouri Botanical Garden",
        "license": "CC_BY_4_0",
        "issues": [
          "OCCURRENCE_STATUS_INFERRED_FROM_INDIVIDUAL_COUNT",
          "GEODETIC_DATUM_ASSUMED_WGS84",
          "INSTITUTION_MATCH_FUZZY",
          "COLLECTION_MATCH_NONE",
          "TAXON_ID_NOT_FOUND"
        ],
        "fallback_media": {
          "url": "https://cdn.plantatlas.org/img/specimens/USF/110617.jpg",
          "references": null,
          "title": "Markea neurantha Hemsl. - Panama, Chiriquí Prov. (BARCODE: 110617) - USF Herbarium",
          "creator": null,
          "publisher": null,
          "license": "http://creativecommons.org/licenses/by-nc-sa/4.0/",
          "rightsHolder": "University of South Florida Herbarium (USF)"
        }
      }
    },
    {
      "type": "Feature",
      "geometry": {
        "type": "Point",
        "coordinates": [
          -83.216667,
          8.683333
        ]
      },
      "properties": {
        "gbifID": "3884239454",
        "species": "Merinthopodium neuranthum",
        "genus": "Merinthopodium",
        "family": "Solanaceae",
        "scientificName": "Markea neurantha Hemsl.",
        "coordinateUncertaintyInMeters": "500.0",
        "basisOfRecord": "PRESERVED_SPECIMEN",
        "eventDate": "2001-08-29",
        "country": null,
        "datasetName": "",
        "publisher": "Biologiezentrum Linz Oberoesterreich",
        "license": "CC0_1_0",
        "issues": [
          "COORDINATE_ROUNDED",
          "CONTINENT_DERIVED_FROM_COORDINATES",
          "INSTITUTION_MATCH_FUZZY",
          "COLLECTION_MATCH_NONE"
        ],
        "media": [
          {
            "url": "https://www.zobodat.at/bilder/belege/00033507.jpg",
            "references": null,
            "title": null,
            "creator": null,
            "publisher": null,
            "license": null,
            "rightsHolder": null
          }
        ]
      }
    },
    {
      "type": "Feature",
      "geometry": {
        "type": "Point",
        "coordinates": [
          -84.7,
          10.383333
        ]
      },
      "properties": {
        "gbifID": "3885563153",
        "species": "Merinthopodium neuranthum",
        "genus": "Merinthopodium",
        "family": "Solanaceae",
        "scientificName": "Markea neurantha Hemsl.",
        "coordinateUncertaintyInMeters": "500.0",
        "basisOfRecord": "PRESERVED_SPECIMEN",
        "eventDate": "1994-04-11",
        "country": null,
        "datasetName": "",
        "publisher": "Biologiezentrum Linz Oberoesterreich",
        "license": "CC0_1_0",
        "issues": [
          "COORDINATE_ROUNDED",
          "CONTINENT_DERIVED_FROM_COORDINATES",
          "INSTITUTION_MATCH_FUZZY",
          "COLLECTION_MATCH_NONE"
        ],
        "media": [
          {
            "url": "https://www.zobodat.at/bilder/belege/00006228.jpg",
            "references": null,
            "title": null,
            "creator": null,
            "publisher": null,
            "license": null,
            "rightsHolder": null
          }
        ]
      }
    },
    {
      "type": "Feature",
      "geometry": {
        "type": "Point",
        "coordinates": [
          -84.71667,
          10.48333
        ]
      },
      "properties": {
        "gbifID": "2515689850",
        "species": "Merinthopodium neuranthum",
        "genus": "Merinthopodium",
        "family": "Solanaceae",
        "scientificName": "Markea neurantha Hemsl.",
        "coordinateUncertaintyInMeters": "",
        "basisOfRecord": "PRESERVED_SPECIMEN",
        "eventDate": "1983-04-29",
        "country": null,
        "datasetName": "",
        "publisher": "Naturalis Biodiversity Center",
        "license": "CC0_1_0",
        "issues": [],
        "media": [
          {
            "url": "https://medialib.naturalis.nl/file/id/U.1745620/format/large",
            "references": null,
            "title": null,
            "creator": null,
            "publisher": null,
            "license": "http://creativecommons.org/publicdomain/zero/1.0/",
            "rightsHolder": "Naturalis Biodiversity Center"
          }
        ]
      }
    },
    {
      "type": "Feature",
      "geometry": {
        "type": "Point",
        "coordinates": [
          -84.31667,
          10.2
        ]
      },
      "properties": {
        "gbifID": "2517140084",
        "species": "Merinthopodium neuranthum",
        "genus": "Merinthopodium",
        "family": "Solanaceae",
        "scientificName": "Markea neurantha Hemsl.",
        "coordinateUncertaintyInMeters": "",
        "basisOfRecord": "PRESERVED_SPECIMEN",
        "eventDate": "1972-10-07",
        "country": null,
        "datasetName": "",
        "publisher": "Naturalis Biodiversity Center",
        "license": "CC0_1_0",
        "issues": [],
        "media": [
          {
            "url": "https://medialib.naturalis.nl/file/id/U.1745625/format/large",
            "references": null,
            "title": null,
            "creator": null,
            "publisher": null,
            "license": "http://creativecommons.org/publicdomain/zero/1.0/",
            "rightsHolder": "Naturalis Biodiversity Center"
          }
        ]
      }
    },
    {
      "type": "Feature",
      "geometry": {
        "type": "Point",
        "coordinates": [
          -84.48333,
          10.18333
        ]
      },
      "properties": {
        "gbifID": "2517287729",
        "species": "Merinthopodium neuranthum",
        "genus": "Merinthopodium",
        "family": "Solanaceae",
        "scientificName": "Markea neurantha Hemsl.",
        "coordinateUncertaintyInMeters": "",
        "basisOfRecord": "PRESERVED_SPECIMEN",
        "eventDate": "1977-02-13",
        "country": null,
        "datasetName": "",
        "publisher": "Naturalis Biodiversity Center",
        "license": "CC0_1_0",
        "issues": [],
        "media": [
          {
            "url": "https://medialib.naturalis.nl/file/id/U.1745623/format/large",
            "references": null,
            "title": null,
            "creator": null,
            "publisher": null,
            "license": "http://creativecommons.org/publicdomain/zero/1.0/",
            "rightsHolder": "Naturalis Biodiversity Center"
          }
        ]
      }
    },
    {
      "type": "Feature",
      "geometry": {
        "type": "Point",
        "coordinates": [
          -83.78,
          10.5
        ]
      },
      "properties": {
        "gbifID": "1852086355",
        "species": "Merinthopodium neuranthum",
        "genus": "Merinthopodium",
        "family": "Solanaceae",
        "scientificName": "Markea neurantha Hemsl.",
        "coordinateUncertaintyInMeters": "",
        "basisOfRecord": "PRESERVED_SPECIMEN",
        "eventDate": "1978-03-09",
        "country": null,
        "datasetName": "NMNH Extant Biology",
        "publisher": "National Museum of Natural History, Smithsonian Institution",
        "license": "CC0_1_0",
        "issues": [
          "OCCURRENCE_STATUS_INFERRED_FROM_INDIVIDUAL_COUNT",
          "GEODETIC_DATUM_ASSUMED_WGS84"
        ],
        "media": [
          {
            "url": "https://collections.nmnh.si.edu/media/?i=12643999&h=2000",
            "references": null,
            "title": "02842821.tif",
            "creator": "Conveyor Belt",
            "publisher": "Smithsonian Institution, NMNH, Botany",
            "license": "http://creativecommons.org/publicdomain/zero/1.0/",
            "rightsHolder": null
          }
        ]
      }
    },
    {
      "type": "Feature",
      "geometry": {
        "type": "Point",
        "coordinates": [
          -83.46667,
          10.1
        ]
      },
      "properties": {
        "gbifID": "2517278692",
        "species": "Merinthopodium neuranthum",
        "genus": "Merinthopodium",
        "family": "Solanaceae",
        "scientificName": "Markea neurantha Hemsl.",
        "coordinateUncertaintyInMeters": "",
        "basisOfRecord": "PRESERVED_SPECIMEN",
        "eventDate": "1991-02-16",
        "country": null,
        "datasetName": "",
        "publisher": "Naturalis Biodiversity Center",
        "license": "CC0_1_0",
        "issues": [],
        "media": [
          {
            "url": "https://medialib.naturalis.nl/file/id/U.1745619/format/large",
            "references": null,
            "title": null,
            "creator": null,
            "publisher": null,
            "license": "http://creativecommons.org/publicdomain/zero/1.0/",
            "rightsHolder": "Naturalis Biodiversity Center"
          }
        ]
      }
    },
    {
      "type": "Feature",
      "geometry": {
        "type": "Point",
        "coordinates": [
          -85.15,
          14.38333
        ]
      },
      "properties": {
        "gbifID": "607742863",
        "species": "Merinthopodium neuranthum",
        "genus": "Merinthopodium",
        "family": "Solanaceae",
        "scientificName": "Markea neurantha Hemsl.",
        "coordinateUncertaintyInMeters": "",
        "basisOfRecord": "PRESERVED_SPECIMEN",
        "eventDate": "2005-11-16",
        "country": null,
        "datasetName": "",
        "publisher": "MNHN - Museum national d'Histoire naturelle",
        "license": "CC_BY_4_0",
        "issues": [
          "GEODETIC_DATUM_ASSUMED_WGS84",
          "CONTINENT_DERIVED_FROM_COORDINATES"
        ],
        "media": [
          {
            "url": "http://mediaphoto.mnhn.fr/media/1441376097079wh5dsTTYmeWyEgHe",
            "references": null,
            "title": null,
            "creator": null,
            "publisher": null,
            "license": "http://creativecommons.org/licenses/by/4.0/",
            "rightsHolder": null
          }
        ]
      }
    },
    {
      "type": "Feature",
      "geometry": {
        "type": "Point",
        "coordinates": [
          -82.4167,
          8.5
        ]
      },
      "properties": {
        "gbifID": "1802484405",
        "species": "Merinthopodium neuranthum",
        "genus": "Merinthopodium",
        "family": "Solanaceae",
        "scientificName": "Markea neurantha Hemsl.",
        "coordinateUncertaintyInMeters": "",
        "basisOfRecord": "PRESERVED_SPECIMEN",
        "eventDate": "1973-02-27",
        "country": null,
        "datasetName": "",
        "publisher": "USF Water Institute",
        "license": "CC_BY_4_0",
        "issues": [
          "GEODETIC_DATUM_ASSUMED_WGS84",
          "CONTINENT_DERIVED_FROM_COORDINATES",
          "INSTITUTION_COLLECTION_MISMATCH"
        ],
        "media": [
          {
            "url": "https://cdn.plantatlas.org/img/specimens/USF/110617.jpg",
            "references": null,
            "title": "Markea neurantha Hemsl. - Panama, Chiriquí Prov. (BARCODE: 110617) - USF Herbarium",
            "creator": null,
            "publisher": null,
            "license": "http://creativecommons.org/licenses/by-nc-sa/4.0/",
            "rightsHolder": "University of South Florida Herbarium (USF)"
          }
        ]
      }
    },
    {
      "type": "Feature",
      "geometry": {
        "type": "Point",
        "coordinates": [
          -83.0833,
          9.075
        ]
      },
      "properties": {
        "gbifID": "1802484681",
        "species": "Merinthopodium neuranthum",
        "genus": "Merinthopodium",
        "family": "Solanaceae",
        "scientificName": "Markea neurantha Hemsl.",
        "coordinateUncertaintyInMeters": "",
        "basisOfRecord": "PRESERVED_SPECIMEN",
        "eventDate": "1984-03-29",
        "country": null,
        "datasetName": "",
        "publisher": "USF Water Institute",
        "license": "CC_BY_4_0",
        "issues": [
          "GEODETIC_DATUM_ASSUMED_WGS84",
          "CONTINENT_DERIVED_FROM_COORDINATES",
          "INSTITUTION_COLLECTION_MISMATCH"
        ],
        "media": [
          {
            "url": "https://cdn.plantatlas.org/img/specimens/USF/189160.jpg",
            "references": null,
            "title": "Markea neurantha Hemsl. - Costa Rica, Puntarenas Prov. (BARCODE: 189160) - USF Herbarium",
            "creator": null,
            "publisher": null,
            "license": "http://creativecommons.org/licenses/by-nc-sa/4.0/",
            "rightsHolder": "University of South Florida Herbarium (USF)"
          }
        ]
      }
    },
    {
      "type": "Feature",
      "geometry": {
        "type": "Point",
        "coordinates": [
          -87.45444,
          15.49444
        ]
      },
      "properties": {
        "gbifID": "3308640010",
        "species": "Merinthopodium neuranthum",
        "genus": "Merinthopodium",
        "family": "Solanaceae",
        "scientificName": "Markea neurantha Hemsl.",
        "coordinateUncertaintyInMeters": "",
        "basisOfRecord": "PRESERVED_SPECIMEN",
        "eventDate": "1995-04-15",
        "country": null,
        "datasetName": "Digitalización y Sistematización de las Colecciones Biológicas Nacionales del Instituto de Biología, UNAM",
        "publisher": "Comisión nacional para el conocimiento y uso de la biodiversidad",
        "license": "CC_BY_4_0",
        "issues": [
          "OCCURRENCE_STATUS_INFERRED_FROM_INDIVIDUAL_COUNT",
          "TAXON_ID_NOT_FOUND",
          "SCIENTIFIC_NAME_ID_NOT_FOUND"
        ],
        "fallback_media": {
          "url": "https://cdn.plantatlas.org/img/specimens/USF/110617.jpg",
          "references": null,
          "title": "Markea neurantha Hemsl. - Panama, Chiriquí Prov. (BARCODE: 110617) - USF Herbarium",
          "creator": null,
          "publisher": null,
          "license": "http://creativecommons.org/licenses/by-nc-sa/4.0/",
          "rightsHolder": "University of South Florida Herbarium (USF)"
        }
      }
    },
    {
      "type": "Feature",
      "geometry": {
        "type": "Point",
        "coordinates": [
          -88.9319,
          15.76556
        ]
      },
      "properties": {
        "gbifID": "3308164842",
        "species": "Merinthopodium neuranthum",
        "genus": "Merinthopodium",
        "family": "Solanaceae",
        "scientificName": "Markea neurantha Hemsl.",
        "coordinateUncertaintyInMeters": "",
        "basisOfRecord": "PRESERVED_SPECIMEN",
        "eventDate": "2000-12-31",
        "country": null,
        "datasetName": "Digitalización y Sistematización de las Colecciones Biológicas Nacionales del Instituto de Biología, UNAM",
        "publisher": "Comisión nacional para el conocimiento y uso de la biodiversidad",
        "license": "CC_BY_4_0",
        "issues": [
          "OCCURRENCE_STATUS_INFERRED_FROM_INDIVIDUAL_COUNT",
          "SCIENTIFIC_NAME_ID_NOT_FOUND",
          "TAXON_ID_NOT_FOUND"
        ],
        "fallback_media": {
          "url": "https://cdn.plantatlas.org/img/specimens/USF/110617.jpg",
          "references": null,
          "title": "Markea neurantha Hemsl. - Panama, Chiriquí Prov. (BARCODE: 110617) - USF Herbarium",
          "creator": null,
          "publisher": null,
          "license": "http://creativecommons.org/licenses/by-nc-sa/4.0/",
          "rightsHolder": "University of South Florida Herbarium (USF)"
        }
      }
    },
    {
      "type": "Feature",
      "geometry": {
        "type": "Point",
        "coordinates": [
          -88.8,
          15.783
        ]
      },
      "properties": {
        "gbifID": "3307997452",
        "species": "Merinthopodium neuranthum",
        "genus": "Merinthopodium",
        "family": "Solanaceae",
        "scientificName": "Markea neurantha Hemsl.",
        "coordinateUncertaintyInMeters": "",
        "basisOfRecord": "PRESERVED_SPECIMEN",
        "eventDate": "1997-09-20",
        "country": null,
        "datasetName": "Digitalización y Sistematización de las Colecciones Biológicas Nacionales del Instituto de Biología, UNAM",
        "publisher": "Comisión nacional para el conocimiento y uso de la biodiversidad",
        "license": "CC_BY_4_0",
        "issues": [
          "OCCURRENCE_STATUS_INFERRED_FROM_INDIVIDUAL_COUNT",
          "TAXON_ID_NOT_FOUND",
          "SCIENTIFIC_NAME_ID_NOT_FOUND"
        ],
        "fallback_media": {
          "url": "https://cdn.plantatlas.org/img/specimens/USF/110617.jpg",
          "references": null,
          "title": "Markea neurantha Hemsl. - Panama, Chiriquí Prov. (BARCODE: 110617) - USF Herbarium",
          "creator": null,
          "publisher": null,
          "license": "http://creativecommons.org/licenses/by-nc-sa/4.0/",
          "rightsHolder": "University of South Florida Herbarium (USF)"
        }
      }
    },
    {
      "type": "Feature",
      "geometry": {
        "type": "Point",
        "coordinates": [
          -88.0,
          14.867
        ]
      },
      "properties": {
        "gbifID": "3307949075",
        "species": "Merinthopodium neuranthum",
        "genus": "Merinthopodium",
        "family": "Solanaceae",
        "scientificName": "Markea neurantha Hemsl.",
        "coordinateUncertaintyInMeters": "",
        "basisOfRecord": "PRESERVED_SPECIMEN",
        "eventDate": "1988-11-02",
        "country": null,
        "datasetName": "Digitalización y Sistematización de las Colecciones Biológicas Nacionales del Instituto de Biología, UNAM",
        "publisher": "Comisión nacional para el conocimiento y uso de la biodiversidad",
        "license": "CC_BY_4_0",
        "issues": [
          "OCCURRENCE_STATUS_INFERRED_FROM_INDIVIDUAL_COUNT",
          "RECORDED_DATE_INVALID",
          "SCIENTIFIC_NAME_ID_NOT_FOUND",
          "TAXON_ID_NOT_FOUND"
        ],
        "fallback_media": {
          "url": "https://cdn.plantatlas.org/img/specimens/USF/110617.jpg",
          "references": null,
          "title": "Markea neurantha Hemsl. - Panama, Chiriquí Prov. (BARCODE: 110617) - USF Herbarium",
          "creator": null,
          "publisher": null,
          "license": "http://creativecommons.org/licenses/by-nc-sa/4.0/",
          "rightsHolder": "University of South Florida Herbarium (USF)"
        }
      }
    },
    {
      "type": "Feature",
      "geometry": {
        "type": "Point",
        "coordinates": [
          -82.417,
          8.833
        ]
      },
      "properties": {
        "gbifID": "3307908935",
        "species": "Merinthopodium neuranthum",
        "genus": "Merinthopodium",
        "family": "Solanaceae",
        "scientificName": "Markea neurantha Hemsl.",
        "coordinateUncertaintyInMeters": "",
        "basisOfRecord": "PRESERVED_SPECIMEN",
        "eventDate": "1983-01-06",
        "country": null,
        "datasetName": "Digitalización y Sistematización de las Colecciones Biológicas Nacionales del Instituto de Biología, UNAM",
        "publisher": "Comisión nacional para el conocimiento y uso de la biodiversidad",
        "license": "CC_BY_4_0",
        "issues": [
          "OCCURRENCE_STATUS_INFERRED_FROM_INDIVIDUAL_COUNT",
          "RECORDED_DATE_INVALID",
          "CONTINENT_DERIVED_FROM_COORDINATES",
          "SCIENTIFIC_NAME_ID_NOT_FOUND",
          "TAXON_ID_NOT_FOUND"
        ],
        "fallback_media": {
          "url": "https://cdn.plantatlas.org/img/specimens/USF/110617.jpg",
          "references": null,
          "title": "Markea neurantha Hemsl. - Panama, Chiriquí Prov. (BARCODE: 110617) - USF Herbarium",
          "creator": null,
          "publisher": null,
          "license": "http://creativecommons.org/licenses/by-nc-sa/4.0/",
          "rightsHolder": "University of South Florida Herbarium (USF)"
        }
      }
    },
    {
      "type": "Feature",
      "geometry": {
        "type": "Point",
        "coordinates": [
          -83.594444,
          8.7
        ]
      },
      "properties": {
        "gbifID": "1261705894",
        "species": "Merinthopodium neuranthum",
        "genus": "Merinthopodium",
        "family": "Solanaceae",
        "scientificName": "Markea neurantha Hemsl.",
        "coordinateUncertaintyInMeters": "",
        "basisOfRecord": "PRESERVED_SPECIMEN",
        "eventDate": "1991-10-08",
        "country": null,
        "datasetName": "Tropicos",
        "publisher": "Missouri Botanical Garden",
        "license": "CC_BY_4_0",
        "issues": [
          "OCCURRENCE_STATUS_INFERRED_FROM_INDIVIDUAL_COUNT",
          "COORDINATE_ROUNDED",
          "GEODETIC_DATUM_ASSUMED_WGS84",
          "INSTITUTION_MATCH_FUZZY",
          "COLLECTION_MATCH_NONE",
          "TAXON_ID_NOT_FOUND"
        ],
        "fallback_media": {
          "url": "https://cdn.plantatlas.org/img/specimens/USF/110617.jpg",
          "references": null,
          "title": "Markea neurantha Hemsl. - Panama, Chiriquí Prov. (BARCODE: 110617) - USF Herbarium",
          "creator": null,
          "publisher": null,
          "license": "http://creativecommons.org/licenses/by-nc-sa/4.0/",
          "rightsHolder": "University of South Florida Herbarium (USF)"
        }
      }
    },
    {
      "type": "Feature",
      "geometry": {
        "type": "Point",
        "coordinates": [
          -83.21667,
          8.68333
        ]
      },
      "properties": {
        "gbifID": "1584383241",
        "species": "Merinthopodium neuranthum",
        "genus": "Merinthopodium",
        "family": "Solanaceae",
        "scientificName": "Markea neurantha Hemsl.",
        "coordinateUncertaintyInMeters": "500.0",
        "basisOfRecord": "PRESERVED_SPECIMEN",
        "eventDate": "2001-08-29",
        "country": null,
        "datasetName": "",
        "publisher": "University of Vienna - Herbarium WU",
        "license": "CC_BY_4_0",
        "issues": [
          "CONTINENT_DERIVED_FROM_COORDINATES",
          "INSTITUTION_MATCH_FUZZY",
          "COLLECTION_MATCH_FUZZY"
        ],
        "fallback_media": {
          "url": "https://cdn.plantatlas.org/img/specimens/USF/110617.jpg",
          "references": null,
          "title": "Markea neurantha Hemsl. - Panama, Chiriquí Prov. (BARCODE: 110617) - USF Herbarium",
          "creator": null,
          "publisher": null,
          "license": "http://creativecommons.org/licenses/by-nc-sa/4.0/",
          "rightsHolder": "University of South Florida Herbarium (USF)"
        }
      }
    }
  ]
}
