{
  "type": "FeatureCollection",
  "metadata": {
    "host_taxon": {
      "canonical_name": "Witheringia morii",
      "rank": "species",
      "family": "Solanaceae",
      "genus": "Witheringia",
      "species": "Witheringia morii",
      "slug": "species_witheringia_morii",
      "resolvable_to_gbif": true,
      "use_for_default_download": true,
      "association_count": 1,
      "butterfly_taxa": [
        "Ithomia iphianassa"
      ],
      "confidence_counts": {
        "medium": 1
      },
      "occurrence_file": "occurrences/species_witheringia_morii.geojson",
      "gbif_resolution": {
        "query": "Witheringia morii",
        "rank": "species",
        "status": "resolved",
        "gbif_taxon_key": 7691957,
        "accepted_usage_key": 9009510,
        "scientific_name": "Witheringia morii D' Arcy",
        "canonical_name": "Witheringia morii",
        "gbif_rank": "SPECIES",
        "taxonomic_status": "SYNONYM",
        "match_type": "EXACT",
        "confidence": 100,
        "kingdom": "Plantae",
        "family": "Solanaceae",
        "genus": "Cuatresia",
        "resolved_at": "2026-05-21T04:01:07+00:00"
      },
      "gbif_taxon_key": 7691957,
      "gbif_status": "resolved",
      "occurrence_count": 0,
      "occurrence_mode": "not_generated",
      "occurrence_cap": null
    },
    "gbif_resolution": {
      "query": "Witheringia morii",
      "rank": "species",
      "status": "resolved",
      "gbif_taxon_key": 7691957,
      "accepted_usage_key": 9009510,
      "scientific_name": "Witheringia morii D' Arcy",
      "canonical_name": "Witheringia morii",
      "gbif_rank": "SPECIES",
      "taxonomic_status": "SYNONYM",
      "match_type": "EXACT",
      "confidence": 100,
      "kingdom": "Plantae",
      "family": "Solanaceae",
      "genus": "Cuatresia",
      "resolved_at": "2026-05-21T04:01:07+00:00"
    },
    "occurrence_query": {
      "method": "gbif_download_api",
      "download_key": "0004690-260519110011954",
      "download_doi": "10.15468/dl.s2gcc3",
      "download_doi_url": "https://doi.org/10.15468/dl.s2gcc3",
      "limit": null,
      "dedupe": "Exact duplicate coordinates removed per taxon after DWCA download.",
      "filters": "GBIF Download API DWCA with TAXON_KEY, HAS_COORDINATE=true, HAS_GEOSPATIAL_ISSUE=false, OCCURRENCE_STATUS=PRESENT; app study extent and coordinate uncertainty <=100km applied locally.",
      "returned_unique_coordinate_records": 1
    },
    "scientific_caveat": "GBIF plant occurrences are sampling-biased context records and do not prove local host use or ecological availability for the butterfly.",
    "generated_at": "2026-05-21T15:57:25+00:00"
  },
  "features": [
    {
      "type": "Feature",
      "geometry": {
        "type": "Point",
        "coordinates": [
          -83.189714,
          8.817222
        ]
      },
      "properties": {
        "gbifID": "1055698013",
        "species": "Cuatresia morii",
        "genus": "Cuatresia",
        "family": "Solanaceae",
        "scientificName": "Witheringia morii D' Arcy",
        "coordinateUncertaintyInMeters": "",
        "basisOfRecord": "PRESERVED_SPECIMEN",
        "eventDate": "1993-12-09",
        "country": null,
        "datasetName": "",
        "publisher": "Natural History Museum",
        "license": "CC0_1_0",
        "issues": [
          "GEODETIC_DATUM_ASSUMED_WGS84",
          "INSTITUTION_MATCH_FUZZY",
          "COLLECTION_MATCH_FUZZY"
        ],
        "media": [
          {
            "url": "https://data.nhm.ac.uk/media/f7deae0b-1ed7-439a-9c71-1082515d64c7",
            "references": null,
            "title": "000602760",
            "creator": null,
            "publisher": null,
            "license": "http://creativecommons.org/licenses/by/4.0/",
            "rightsHolder": "The Trustees of the Natural History Museum, London"
          }
        ]
      }
    }
  ]
}
