{
  "type": "FeatureCollection",
  "metadata": {
    "host_taxon": {
      "canonical_name": "Cyphomandra diploconos",
      "rank": "species",
      "family": "Solanaceae",
      "genus": "Cyphomandra",
      "species": "Cyphomandra diploconos",
      "slug": "species_cyphomandra_diploconos",
      "resolvable_to_gbif": true,
      "use_for_default_download": true,
      "association_count": 3,
      "butterfly_taxa": [
        "Mechanitis lysimnia",
        "Mechanitis polymnia",
        "Thyridia psidii"
      ],
      "confidence_counts": {
        "medium": 3
      },
      "occurrence_file": "occurrences/species_cyphomandra_diploconos.geojson",
      "gbif_resolution": {
        "query": "Cyphomandra diploconos",
        "rank": "species",
        "status": "resolved",
        "gbif_taxon_key": 2930894,
        "accepted_usage_key": 2930890,
        "scientific_name": "Cyphomandra diploconos (Mart.) Sendtn.",
        "canonical_name": "Cyphomandra diploconos",
        "gbif_rank": "SPECIES",
        "taxonomic_status": "SYNONYM",
        "match_type": "EXACT",
        "confidence": 100,
        "kingdom": "Plantae",
        "family": "Solanaceae",
        "genus": "Solanum",
        "resolved_at": "2026-05-21T03:57:29+00:00"
      },
      "gbif_taxon_key": 2930894,
      "gbif_status": "resolved",
      "occurrence_count": 0,
      "occurrence_mode": "not_generated",
      "occurrence_cap": null
    },
    "gbif_resolution": {
      "query": "Cyphomandra diploconos",
      "rank": "species",
      "status": "resolved",
      "gbif_taxon_key": 2930894,
      "accepted_usage_key": 2930890,
      "scientific_name": "Cyphomandra diploconos (Mart.) Sendtn.",
      "canonical_name": "Cyphomandra diploconos",
      "gbif_rank": "SPECIES",
      "taxonomic_status": "SYNONYM",
      "match_type": "EXACT",
      "confidence": 100,
      "kingdom": "Plantae",
      "family": "Solanaceae",
      "genus": "Solanum",
      "resolved_at": "2026-05-21T03:57:29+00:00"
    },
    "occurrence_query": {
      "method": "gbif_download_api",
      "download_key": "0004690-260519110011954",
      "download_doi": "10.15468/dl.s2gcc3",
      "download_doi_url": "https://doi.org/10.15468/dl.s2gcc3",
      "limit": null,
      "dedupe": "Exact duplicate coordinates removed per taxon after DWCA download.",
      "filters": "GBIF Download API DWCA with TAXON_KEY, HAS_COORDINATE=true, HAS_GEOSPATIAL_ISSUE=false, OCCURRENCE_STATUS=PRESENT; app study extent and coordinate uncertainty <=100km applied locally.",
      "returned_unique_coordinate_records": 7
    },
    "scientific_caveat": "GBIF plant occurrences are sampling-biased context records and do not prove local host use or ecological availability for the butterfly.",
    "generated_at": "2026-05-21T15:57:19+00:00"
  },
  "features": [
    {
      "type": "Feature",
      "geometry": {
        "type": "Point",
        "coordinates": [
          -46.298444,
          -23.780181
        ]
      },
      "properties": {
        "gbifID": "2452932559",
        "species": "Solanum diploconos",
        "genus": "Solanum",
        "family": "Solanaceae",
        "scientificName": "Cyphomandra diploconos (Mart.) Sendtn.",
        "coordinateUncertaintyInMeters": "",
        "basisOfRecord": "PRESERVED_SPECIMEN",
        "eventDate": "2008-03-13",
        "country": null,
        "datasetName": "",
        "publisher": "Instituto de Botânica, São Paulo",
        "license": "CC_BY_4_0",
        "issues": [
          "CONTINENT_DERIVED_FROM_COORDINATES",
          "INSTITUTION_MATCH_NONE"
        ],
        "fallback_media": {
          "url": "https://media01.symbiota.org/media/h_seinet/seinet/ASU/ASU0049/ASU0049130_lg.jpg",
          "references": null,
          "title": null,
          "creator": null,
          "publisher": null,
          "license": null,
          "rightsHolder": "Arizona State University Vascular Plant Herbarium"
        }
      }
    },
    {
      "type": "Feature",
      "geometry": {
        "type": "Point",
        "coordinates": [
          -49.273056,
          -25.427778
        ]
      },
      "properties": {
        "gbifID": "1213627790",
        "species": "Solanum diploconos",
        "genus": "Solanum",
        "family": "Solanaceae",
        "scientificName": "Cyphomandra diploconos (Mart.) Sendtn.",
        "coordinateUncertaintyInMeters": "",
        "basisOfRecord": "PRESERVED_SPECIMEN",
        "eventDate": "1993-12-08",
        "country": null,
        "datasetName": "",
        "publisher": "Universidade de Brasília",
        "license": "CC_BY_4_0",
        "issues": [
          "COORDINATE_ROUNDED",
          "CONTINENT_DERIVED_FROM_COORDINATES",
          "INSTITUTION_MATCH_FUZZY",
          "INSTITUTION_COLLECTION_MISMATCH"
        ],
        "fallback_media": {
          "url": "https://media01.symbiota.org/media/h_seinet/seinet/ASU/ASU0049/ASU0049130_lg.jpg",
          "references": null,
          "title": null,
          "creator": null,
          "publisher": null,
          "license": null,
          "rightsHolder": "Arizona State University Vascular Plant Herbarium"
        }
      }
    },
    {
      "type": "Feature",
      "geometry": {
        "type": "Point",
        "coordinates": [
          -46.298333,
          -23.780278
        ]
      },
      "properties": {
        "gbifID": "2382967857",
        "species": "Solanum diploconos",
        "genus": "Solanum",
        "family": "Solanaceae",
        "scientificName": "Cyphomandra diploconos (Mart.) Sendtn.",
        "coordinateUncertaintyInMeters": "",
        "basisOfRecord": "PRESERVED_SPECIMEN",
        "eventDate": "2008-03-13",
        "country": null,
        "datasetName": "",
        "publisher": "Universidade Federal de Minas Gerais",
        "license": "CC_BY_4_0",
        "issues": [
          "CONTINENT_DERIVED_FROM_COORDINATES",
          "INSTITUTION_MATCH_NONE"
        ],
        "fallback_media": {
          "url": "https://media01.symbiota.org/media/h_seinet/seinet/ASU/ASU0049/ASU0049130_lg.jpg",
          "references": null,
          "title": null,
          "creator": null,
          "publisher": null,
          "license": null,
          "rightsHolder": "Arizona State University Vascular Plant Herbarium"
        }
      }
    },
    {
      "type": "Feature",
      "geometry": {
        "type": "Point",
        "coordinates": [
          -49.157778,
          -27.233333
        ]
      },
      "properties": {
        "gbifID": "2252397467",
        "species": "Solanum diploconos",
        "genus": "Solanum",
        "family": "Solanaceae",
        "scientificName": "Cyphomandra diploconos (Mart.) Sendtn.",
        "coordinateUncertaintyInMeters": "",
        "basisOfRecord": "PRESERVED_SPECIMEN",
        "eventDate": "1985-04-27",
        "country": null,
        "datasetName": "",
        "publisher": "Instituto Multidisciplinario de Biología Vegetal - IMBIV",
        "license": "CC_BY_4_0",
        "issues": [
          "IDENTIFIED_DATE_INVALID",
          "COORDINATE_ROUNDED",
          "INSTITUTION_MATCH_FUZZY",
          "COLLECTION_MATCH_NONE"
        ],
        "fallback_media": {
          "url": "https://media01.symbiota.org/media/h_seinet/seinet/ASU/ASU0049/ASU0049130_lg.jpg",
          "references": null,
          "title": null,
          "creator": null,
          "publisher": null,
          "license": null,
          "rightsHolder": "Arizona State University Vascular Plant Herbarium"
        }
      }
    },
    {
      "type": "Feature",
      "geometry": {
        "type": "Point",
        "coordinates": [
          -54.58333,
          -24.36667
        ]
      },
      "properties": {
        "gbifID": "2270553276",
        "species": "Solanum diploconos",
        "genus": "Solanum",
        "family": "Solanaceae",
        "scientificName": "Cyphomandra diploconos (Mart.) Sendtn.",
        "coordinateUncertaintyInMeters": "",
        "basisOfRecord": "PRESERVED_SPECIMEN",
        "eventDate": "1990-10-13",
        "country": null,
        "datasetName": "",
        "publisher": "Arizona State University Biocollections",
        "license": "CC_BY_4_0",
        "issues": [
          "GEODETIC_DATUM_ASSUMED_WGS84",
          "CONTINENT_DERIVED_FROM_COORDINATES",
          "INSTITUTION_MATCH_FUZZY",
          "COLLECTION_MATCH_FUZZY",
          "TAXON_ID_NOT_FOUND"
        ],
        "media": [
          {
            "url": "https://media01.symbiota.org/media/h_seinet/seinet/ASU/ASU0049/ASU0049130_lg.jpg",
            "references": null,
            "title": null,
            "creator": null,
            "publisher": null,
            "license": null,
            "rightsHolder": "Arizona State University Vascular Plant Herbarium"
          },
          {
            "url": "https://media01.symbiota.org/media/h_seinet/seinet/ASU/ASU0049/ASU0049130a_lg.jpg",
            "references": null,
            "title": null,
            "creator": null,
            "publisher": null,
            "license": null,
            "rightsHolder": "Arizona State University Vascular Plant Herbarium"
          }
        ]
      }
    },
    {
      "type": "Feature",
      "geometry": {
        "type": "Point",
        "coordinates": [
          -49.0,
          -27.233333
        ]
      },
      "properties": {
        "gbifID": "1259801663",
        "species": "Solanum diploconos",
        "genus": "Solanum",
        "family": "Solanaceae",
        "scientificName": "Cyphomandra diploconos (Mart.) Sendtn.",
        "coordinateUncertaintyInMeters": "",
        "basisOfRecord": "PRESERVED_SPECIMEN",
        "eventDate": "1985-04-27",
        "country": null,
        "datasetName": "Tropicos",
        "publisher": "Missouri Botanical Garden",
        "license": "CC_BY_4_0",
        "issues": [
          "OCCURRENCE_STATUS_INFERRED_FROM_INDIVIDUAL_COUNT",
          "COORDINATE_ROUNDED",
          "GEODETIC_DATUM_ASSUMED_WGS84",
          "INSTITUTION_MATCH_FUZZY",
          "COLLECTION_MATCH_NONE",
          "TAXON_ID_NOT_FOUND"
        ],
        "fallback_media": {
          "url": "https://media01.symbiota.org/media/h_seinet/seinet/ASU/ASU0049/ASU0049130_lg.jpg",
          "references": null,
          "title": null,
          "creator": null,
          "publisher": null,
          "license": null,
          "rightsHolder": "Arizona State University Vascular Plant Herbarium"
        }
      }
    },
    {
      "type": "Feature",
      "geometry": {
        "type": "Point",
        "coordinates": [
          -54.41,
          -25.88
        ]
      },
      "properties": {
        "gbifID": "416897045",
        "species": "Solanum diploconos",
        "genus": "Solanum",
        "family": "Solanaceae",
        "scientificName": "Cyphomandra diploconos (Mart.) Sendtn.",
        "coordinateUncertaintyInMeters": "",
        "basisOfRecord": "PRESERVED_SPECIMEN",
        "eventDate": "",
        "country": null,
        "datasetName": "",
        "publisher": "Instituto de Botánica Darwinion - CONICET",
        "license": "CC_BY_4_0",
        "issues": [
          "GEODETIC_DATUM_ASSUMED_WGS84",
          "CONTINENT_DERIVED_FROM_COORDINATES",
          "INSTITUTION_MATCH_FUZZY",
          "INSTITUTION_COLLECTION_MISMATCH"
        ],
        "fallback_media": {
          "url": "https://media01.symbiota.org/media/h_seinet/seinet/ASU/ASU0049/ASU0049130_lg.jpg",
          "references": null,
          "title": null,
          "creator": null,
          "publisher": null,
          "license": null,
          "rightsHolder": "Arizona State University Vascular Plant Herbarium"
        }
      }
    }
  ]
}
