{
  "type": "FeatureCollection",
  "metadata": {
    "host_taxon": {
      "canonical_name": "Lycianthes howardiana",
      "rank": "species",
      "family": "Solanaceae",
      "genus": "Lycianthes",
      "species": "Lycianthes howardiana",
      "slug": "species_lycianthes_howardiana",
      "resolvable_to_gbif": true,
      "use_for_default_download": true,
      "association_count": 1,
      "butterfly_taxa": [
        "Napeogenes inachia"
      ],
      "confidence_counts": {
        "medium": 1
      },
      "occurrence_file": "occurrences/species_lycianthes_howardiana.geojson",
      "gbif_resolution": {
        "query": "Lycianthes howardiana",
        "rank": "species",
        "status": "resolved",
        "gbif_taxon_key": 3799651,
        "accepted_usage_key": null,
        "scientific_name": "Lycianthes howardiana D' Arcy",
        "canonical_name": "Lycianthes howardiana",
        "gbif_rank": "SPECIES",
        "taxonomic_status": "ACCEPTED",
        "match_type": "EXACT",
        "confidence": 100,
        "kingdom": "Plantae",
        "family": "Solanaceae",
        "genus": "Lycianthes",
        "resolved_at": "2026-05-21T03:57:44+00:00"
      },
      "gbif_taxon_key": 3799651,
      "gbif_status": "resolved",
      "occurrence_count": 0,
      "occurrence_mode": "not_generated",
      "occurrence_cap": null
    },
    "gbif_resolution": {
      "query": "Lycianthes howardiana",
      "rank": "species",
      "status": "resolved",
      "gbif_taxon_key": 3799651,
      "accepted_usage_key": null,
      "scientific_name": "Lycianthes howardiana D' Arcy",
      "canonical_name": "Lycianthes howardiana",
      "gbif_rank": "SPECIES",
      "taxonomic_status": "ACCEPTED",
      "match_type": "EXACT",
      "confidence": 100,
      "kingdom": "Plantae",
      "family": "Solanaceae",
      "genus": "Lycianthes",
      "resolved_at": "2026-05-21T03:57:44+00:00"
    },
    "occurrence_query": {
      "method": "gbif_download_api",
      "download_key": "0004690-260519110011954",
      "download_doi": "10.15468/dl.s2gcc3",
      "download_doi_url": "https://doi.org/10.15468/dl.s2gcc3",
      "limit": null,
      "dedupe": "Exact duplicate coordinates removed per taxon after DWCA download.",
      "filters": "GBIF Download API DWCA with TAXON_KEY, HAS_COORDINATE=true, HAS_GEOSPATIAL_ISSUE=false, OCCURRENCE_STATUS=PRESENT; app study extent and coordinate uncertainty <=100km applied locally.",
      "returned_unique_coordinate_records": 14
    },
    "scientific_caveat": "GBIF plant occurrences are sampling-biased context records and do not prove local host use or ecological availability for the butterfly.",
    "generated_at": "2026-05-21T15:57:19+00:00"
  },
  "features": [
    {
      "type": "Feature",
      "geometry": {
        "type": "Point",
        "coordinates": [
          -82.244444,
          8.749722
        ]
      },
      "properties": {
        "gbifID": "1262255137",
        "species": "Lycianthes howardiana",
        "genus": "Lycianthes",
        "family": "Solanaceae",
        "scientificName": "Lycianthes howardiana D' Arcy",
        "coordinateUncertaintyInMeters": "",
        "basisOfRecord": "PRESERVED_SPECIMEN",
        "eventDate": "1985-02-06",
        "country": null,
        "datasetName": "Tropicos",
        "publisher": "Missouri Botanical Garden",
        "license": "CC_BY_4_0",
        "issues": [
          "OCCURRENCE_STATUS_INFERRED_FROM_INDIVIDUAL_COUNT",
          "COORDINATE_ROUNDED",
          "GEODETIC_DATUM_ASSUMED_WGS84",
          "INSTITUTION_MATCH_FUZZY",
          "COLLECTION_MATCH_NONE",
          "TAXON_ID_NOT_FOUND"
        ],
        "fallback_media": {
          "url": "https://images.mobot.org/tropicosimages5/detailimages/TropicosImagesVol5/101650000/363E5ED9-72F0-484F-AC53-013B20EBD4E3.jpg",
          "references": "https://www.tropicos.org/ImageFullView.aspx?imageid=101650653",
          "title": "Porter - 4899 - Panama",
          "creator": "MBG",
          "publisher": null,
          "license": "http://creativecommons.org/licenses/by-nc-sa/3.0/",
          "rightsHolder": "MBG"
        }
      }
    },
    {
      "type": "Feature",
      "geometry": {
        "type": "Point",
        "coordinates": [
          -79.9175,
          8.687222
        ]
      },
      "properties": {
        "gbifID": "4071209330",
        "species": "Lycianthes howardiana",
        "genus": "Lycianthes",
        "family": "Solanaceae",
        "scientificName": "Lycianthes howardiana D' Arcy",
        "coordinateUncertaintyInMeters": "",
        "basisOfRecord": "PRESERVED_SPECIMEN",
        "eventDate": "1981-02-14",
        "country": null,
        "datasetName": "Tropicos",
        "publisher": "Missouri Botanical Garden",
        "license": "CC_BY_4_0",
        "issues": [
          "OCCURRENCE_STATUS_INFERRED_FROM_INDIVIDUAL_COUNT",
          "COORDINATE_ROUNDED",
          "GEODETIC_DATUM_ASSUMED_WGS84",
          "INSTITUTION_MATCH_FUZZY",
          "COLLECTION_MATCH_NONE",
          "TAXON_ID_NOT_FOUND"
        ],
        "fallback_media": {
          "url": "https://images.mobot.org/tropicosimages5/detailimages/TropicosImagesVol5/101650000/363E5ED9-72F0-484F-AC53-013B20EBD4E3.jpg",
          "references": "https://www.tropicos.org/ImageFullView.aspx?imageid=101650653",
          "title": "Porter - 4899 - Panama",
          "creator": "MBG",
          "publisher": null,
          "license": "http://creativecommons.org/licenses/by-nc-sa/3.0/",
          "rightsHolder": "MBG"
        }
      }
    },
    {
      "type": "Feature",
      "geometry": {
        "type": "Point",
        "coordinates": [
          -82.25,
          8.75
        ]
      },
      "properties": {
        "gbifID": "4071190331",
        "species": "Lycianthes howardiana",
        "genus": "Lycianthes",
        "family": "Solanaceae",
        "scientificName": "Lycianthes howardiana D' Arcy",
        "coordinateUncertaintyInMeters": "",
        "basisOfRecord": "PRESERVED_SPECIMEN",
        "eventDate": "1976-02-16",
        "country": null,
        "datasetName": "Tropicos",
        "publisher": "Missouri Botanical Garden",
        "license": "CC_BY_4_0",
        "issues": [
          "OCCURRENCE_STATUS_INFERRED_FROM_INDIVIDUAL_COUNT",
          "GEODETIC_DATUM_ASSUMED_WGS84",
          "INSTITUTION_MATCH_FUZZY",
          "COLLECTION_MATCH_NONE",
          "TAXON_ID_NOT_FOUND"
        ],
        "fallback_media": {
          "url": "https://images.mobot.org/tropicosimages5/detailimages/TropicosImagesVol5/101650000/363E5ED9-72F0-484F-AC53-013B20EBD4E3.jpg",
          "references": "https://www.tropicos.org/ImageFullView.aspx?imageid=101650653",
          "title": "Porter - 4899 - Panama",
          "creator": "MBG",
          "publisher": null,
          "license": "http://creativecommons.org/licenses/by-nc-sa/3.0/",
          "rightsHolder": "MBG"
        }
      }
    },
    {
      "type": "Feature",
      "geometry": {
        "type": "Point",
        "coordinates": [
          -81.172778,
          8.550833
        ]
      },
      "properties": {
        "gbifID": "4071193327",
        "species": "Lycianthes howardiana",
        "genus": "Lycianthes",
        "family": "Solanaceae",
        "scientificName": "Lycianthes howardiana D' Arcy",
        "coordinateUncertaintyInMeters": "",
        "basisOfRecord": "PRESERVED_SPECIMEN",
        "eventDate": "1975-05-16",
        "country": null,
        "datasetName": "Tropicos",
        "publisher": "Missouri Botanical Garden",
        "license": "CC_BY_4_0",
        "issues": [
          "OCCURRENCE_STATUS_INFERRED_FROM_INDIVIDUAL_COUNT",
          "COORDINATE_ROUNDED",
          "GEODETIC_DATUM_ASSUMED_WGS84",
          "INSTITUTION_MATCH_FUZZY",
          "COLLECTION_MATCH_NONE",
          "TAXON_ID_NOT_FOUND"
        ],
        "fallback_media": {
          "url": "https://images.mobot.org/tropicosimages5/detailimages/TropicosImagesVol5/101650000/363E5ED9-72F0-484F-AC53-013B20EBD4E3.jpg",
          "references": "https://www.tropicos.org/ImageFullView.aspx?imageid=101650653",
          "title": "Porter - 4899 - Panama",
          "creator": "MBG",
          "publisher": null,
          "license": "http://creativecommons.org/licenses/by-nc-sa/3.0/",
          "rightsHolder": "MBG"
        }
      }
    },
    {
      "type": "Feature",
      "geometry": {
        "type": "Point",
        "coordinates": [
          -79.921667,
          8.688611
        ]
      },
      "properties": {
        "gbifID": "4107392372",
        "species": "Lycianthes howardiana",
        "genus": "Lycianthes",
        "family": "Solanaceae",
        "scientificName": "Lycianthes howardiana D' Arcy",
        "coordinateUncertaintyInMeters": "",
        "basisOfRecord": "PRESERVED_SPECIMEN",
        "eventDate": "1969-03-31",
        "country": null,
        "datasetName": "Tropicos",
        "publisher": "Missouri Botanical Garden",
        "license": "CC_BY_4_0",
        "issues": [
          "OCCURRENCE_STATUS_INFERRED_FROM_INDIVIDUAL_COUNT",
          "COORDINATE_ROUNDED",
          "GEODETIC_DATUM_ASSUMED_WGS84",
          "INSTITUTION_MATCH_FUZZY",
          "COLLECTION_MATCH_NONE",
          "TAXON_ID_NOT_FOUND"
        ],
        "media": [
          {
            "url": "https://images.mobot.org/tropicosimages5/detailimages/TropicosImagesVol5/101650000/363E5ED9-72F0-484F-AC53-013B20EBD4E3.jpg",
            "references": "https://www.tropicos.org/ImageFullView.aspx?imageid=101650653",
            "title": "Porter - 4899 - Panama",
            "creator": "MBG",
            "publisher": null,
            "license": "http://creativecommons.org/licenses/by-nc-sa/3.0/",
            "rightsHolder": "MBG"
          }
        ]
      }
    },
    {
      "type": "Feature",
      "geometry": {
        "type": "Point",
        "coordinates": [
          -79.903611,
          8.711111
        ]
      },
      "properties": {
        "gbifID": "4071205329",
        "species": "Lycianthes howardiana",
        "genus": "Lycianthes",
        "family": "Solanaceae",
        "scientificName": "Lycianthes howardiana D' Arcy",
        "coordinateUncertaintyInMeters": "",
        "basisOfRecord": "PRESERVED_SPECIMEN",
        "eventDate": "1971-05-16",
        "country": null,
        "datasetName": "Tropicos",
        "publisher": "Missouri Botanical Garden",
        "license": "CC_BY_4_0",
        "issues": [
          "OCCURRENCE_STATUS_INFERRED_FROM_INDIVIDUAL_COUNT",
          "COORDINATE_ROUNDED",
          "GEODETIC_DATUM_ASSUMED_WGS84",
          "INSTITUTION_MATCH_FUZZY",
          "COLLECTION_MATCH_NONE",
          "TAXON_ID_NOT_FOUND"
        ],
        "fallback_media": {
          "url": "https://images.mobot.org/tropicosimages5/detailimages/TropicosImagesVol5/101650000/363E5ED9-72F0-484F-AC53-013B20EBD4E3.jpg",
          "references": "https://www.tropicos.org/ImageFullView.aspx?imageid=101650653",
          "title": "Porter - 4899 - Panama",
          "creator": "MBG",
          "publisher": null,
          "license": "http://creativecommons.org/licenses/by-nc-sa/3.0/",
          "rightsHolder": "MBG"
        }
      }
    },
    {
      "type": "Feature",
      "geometry": {
        "type": "Point",
        "coordinates": [
          -81.04,
          8.407222
        ]
      },
      "properties": {
        "gbifID": "4071189332",
        "species": "Lycianthes howardiana",
        "genus": "Lycianthes",
        "family": "Solanaceae",
        "scientificName": "Lycianthes howardiana D' Arcy",
        "coordinateUncertaintyInMeters": "",
        "basisOfRecord": "PRESERVED_SPECIMEN",
        "eventDate": "1975-12-05",
        "country": null,
        "datasetName": "Tropicos",
        "publisher": "Missouri Botanical Garden",
        "license": "CC_BY_4_0",
        "issues": [
          "OCCURRENCE_STATUS_INFERRED_FROM_INDIVIDUAL_COUNT",
          "COORDINATE_ROUNDED",
          "GEODETIC_DATUM_ASSUMED_WGS84",
          "INSTITUTION_MATCH_FUZZY",
          "COLLECTION_MATCH_NONE",
          "TAXON_ID_NOT_FOUND"
        ],
        "fallback_media": {
          "url": "https://images.mobot.org/tropicosimages5/detailimages/TropicosImagesVol5/101650000/363E5ED9-72F0-484F-AC53-013B20EBD4E3.jpg",
          "references": "https://www.tropicos.org/ImageFullView.aspx?imageid=101650653",
          "title": "Porter - 4899 - Panama",
          "creator": "MBG",
          "publisher": null,
          "license": "http://creativecommons.org/licenses/by-nc-sa/3.0/",
          "rightsHolder": "MBG"
        }
      }
    },
    {
      "type": "Feature",
      "geometry": {
        "type": "Point",
        "coordinates": [
          -79.833333,
          8.666667
        ]
      },
      "properties": {
        "gbifID": "1262240276",
        "species": "Lycianthes howardiana",
        "genus": "Lycianthes",
        "family": "Solanaceae",
        "scientificName": "Lycianthes howardiana D' Arcy",
        "coordinateUncertaintyInMeters": "",
        "basisOfRecord": "PRESERVED_SPECIMEN",
        "eventDate": "1985-03-21",
        "country": null,
        "datasetName": "Tropicos",
        "publisher": "Missouri Botanical Garden",
        "license": "CC_BY_4_0",
        "issues": [
          "OCCURRENCE_STATUS_INFERRED_FROM_INDIVIDUAL_COUNT",
          "COORDINATE_ROUNDED",
          "GEODETIC_DATUM_ASSUMED_WGS84",
          "INSTITUTION_MATCH_FUZZY",
          "COLLECTION_MATCH_NONE",
          "TAXON_ID_NOT_FOUND"
        ],
        "fallback_media": {
          "url": "https://images.mobot.org/tropicosimages5/detailimages/TropicosImagesVol5/101650000/363E5ED9-72F0-484F-AC53-013B20EBD4E3.jpg",
          "references": "https://www.tropicos.org/ImageFullView.aspx?imageid=101650653",
          "title": "Porter - 4899 - Panama",
          "creator": "MBG",
          "publisher": null,
          "license": "http://creativecommons.org/licenses/by-nc-sa/3.0/",
          "rightsHolder": "MBG"
        }
      }
    },
    {
      "type": "Feature",
      "geometry": {
        "type": "Point",
        "coordinates": [
          -79.924167,
          8.681389
        ]
      },
      "properties": {
        "gbifID": "4071196325",
        "species": "Lycianthes howardiana",
        "genus": "Lycianthes",
        "family": "Solanaceae",
        "scientificName": "Lycianthes howardiana D' Arcy",
        "coordinateUncertaintyInMeters": "",
        "basisOfRecord": "PRESERVED_SPECIMEN",
        "eventDate": "1972-04-03",
        "country": null,
        "datasetName": "Tropicos",
        "publisher": "Missouri Botanical Garden",
        "license": "CC_BY_4_0",
        "issues": [
          "OCCURRENCE_STATUS_INFERRED_FROM_INDIVIDUAL_COUNT",
          "COORDINATE_ROUNDED",
          "GEODETIC_DATUM_ASSUMED_WGS84",
          "INSTITUTION_MATCH_FUZZY",
          "COLLECTION_MATCH_NONE",
          "TAXON_ID_NOT_FOUND"
        ],
        "fallback_media": {
          "url": "https://images.mobot.org/tropicosimages5/detailimages/TropicosImagesVol5/101650000/363E5ED9-72F0-484F-AC53-013B20EBD4E3.jpg",
          "references": "https://www.tropicos.org/ImageFullView.aspx?imageid=101650653",
          "title": "Porter - 4899 - Panama",
          "creator": "MBG",
          "publisher": null,
          "license": "http://creativecommons.org/licenses/by-nc-sa/3.0/",
          "rightsHolder": "MBG"
        }
      }
    },
    {
      "type": "Feature",
      "geometry": {
        "type": "Point",
        "coordinates": [
          -79.916389,
          8.6875
        ]
      },
      "properties": {
        "gbifID": "4071199335",
        "species": "Lycianthes howardiana",
        "genus": "Lycianthes",
        "family": "Solanaceae",
        "scientificName": "Lycianthes howardiana D' Arcy",
        "coordinateUncertaintyInMeters": "",
        "basisOfRecord": "PRESERVED_SPECIMEN",
        "eventDate": "1967-08-11",
        "country": null,
        "datasetName": "Tropicos",
        "publisher": "Missouri Botanical Garden",
        "license": "CC_BY_4_0",
        "issues": [
          "OCCURRENCE_STATUS_INFERRED_FROM_INDIVIDUAL_COUNT",
          "COORDINATE_ROUNDED",
          "GEODETIC_DATUM_ASSUMED_WGS84",
          "INSTITUTION_MATCH_FUZZY",
          "COLLECTION_MATCH_NONE",
          "TAXON_ID_NOT_FOUND"
        ],
        "fallback_media": {
          "url": "https://images.mobot.org/tropicosimages5/detailimages/TropicosImagesVol5/101650000/363E5ED9-72F0-484F-AC53-013B20EBD4E3.jpg",
          "references": "https://www.tropicos.org/ImageFullView.aspx?imageid=101650653",
          "title": "Porter - 4899 - Panama",
          "creator": "MBG",
          "publisher": null,
          "license": "http://creativecommons.org/licenses/by-nc-sa/3.0/",
          "rightsHolder": "MBG"
        }
      }
    },
    {
      "type": "Feature",
      "geometry": {
        "type": "Point",
        "coordinates": [
          -82.216667,
          8.683333
        ]
      },
      "properties": {
        "gbifID": "4071204333",
        "species": "Lycianthes howardiana",
        "genus": "Lycianthes",
        "family": "Solanaceae",
        "scientificName": "Lycianthes howardiana D' Arcy",
        "coordinateUncertaintyInMeters": "",
        "basisOfRecord": "PRESERVED_SPECIMEN",
        "eventDate": "1979-02-17",
        "country": null,
        "datasetName": "Tropicos",
        "publisher": "Missouri Botanical Garden",
        "license": "CC_BY_4_0",
        "issues": [
          "OCCURRENCE_STATUS_INFERRED_FROM_INDIVIDUAL_COUNT",
          "COORDINATE_ROUNDED",
          "GEODETIC_DATUM_ASSUMED_WGS84",
          "INSTITUTION_MATCH_FUZZY",
          "COLLECTION_MATCH_NONE",
          "TAXON_ID_NOT_FOUND"
        ],
        "fallback_media": {
          "url": "https://images.mobot.org/tropicosimages5/detailimages/TropicosImagesVol5/101650000/363E5ED9-72F0-484F-AC53-013B20EBD4E3.jpg",
          "references": "https://www.tropicos.org/ImageFullView.aspx?imageid=101650653",
          "title": "Porter - 4899 - Panama",
          "creator": "MBG",
          "publisher": null,
          "license": "http://creativecommons.org/licenses/by-nc-sa/3.0/",
          "rightsHolder": "MBG"
        }
      }
    },
    {
      "type": "Feature",
      "geometry": {
        "type": "Point",
        "coordinates": [
          -82.22,
          8.75
        ]
      },
      "properties": {
        "gbifID": "1852144803",
        "species": "Lycianthes howardiana",
        "genus": "Lycianthes",
        "family": "Solanaceae",
        "scientificName": "Lycianthes howardiana D' Arcy",
        "coordinateUncertaintyInMeters": "",
        "basisOfRecord": "PRESERVED_SPECIMEN",
        "eventDate": "2000-08-13",
        "country": null,
        "datasetName": "NMNH Extant Biology",
        "publisher": "National Museum of Natural History, Smithsonian Institution",
        "license": "CC0_1_0",
        "issues": [
          "OCCURRENCE_STATUS_INFERRED_FROM_INDIVIDUAL_COUNT",
          "GEODETIC_DATUM_ASSUMED_WGS84"
        ],
        "media": [
          {
            "url": "https://collections.nmnh.si.edu/media/?i=12649659&h=2000",
            "references": null,
            "title": "02839879.tif",
            "creator": "Conveyor Belt",
            "publisher": "Smithsonian Institution, NMNH, Botany",
            "license": "http://creativecommons.org/publicdomain/zero/1.0/",
            "rightsHolder": null
          }
        ]
      }
    },
    {
      "type": "Feature",
      "geometry": {
        "type": "Point",
        "coordinates": [
          -81.25,
          8.1667
        ]
      },
      "properties": {
        "gbifID": "1228482953",
        "species": "Lycianthes howardiana",
        "genus": "Lycianthes",
        "family": "Solanaceae",
        "scientificName": "Lycianthes howardiana D' Arcy",
        "coordinateUncertaintyInMeters": "",
        "basisOfRecord": "PRESERVED_SPECIMEN",
        "eventDate": "1974-02-18",
        "country": null,
        "datasetName": "seeds-22-sep-2023",
        "publisher": "Field Museum",
        "license": "CC0_1_0",
        "issues": [
          "GEODETIC_DATUM_ASSUMED_WGS84",
          "INSTITUTION_MATCH_FUZZY",
          "AMBIGUOUS_COLLECTION"
        ],
        "fallback_media": {
          "url": "https://images.mobot.org/tropicosimages5/detailimages/TropicosImagesVol5/101650000/363E5ED9-72F0-484F-AC53-013B20EBD4E3.jpg",
          "references": "https://www.tropicos.org/ImageFullView.aspx?imageid=101650653",
          "title": "Porter - 4899 - Panama",
          "creator": "MBG",
          "publisher": null,
          "license": "http://creativecommons.org/licenses/by-nc-sa/3.0/",
          "rightsHolder": "MBG"
        }
      }
    },
    {
      "type": "Feature",
      "geometry": {
        "type": "Point",
        "coordinates": [
          -79.833,
          8.667
        ]
      },
      "properties": {
        "gbifID": "3308546289",
        "species": "Lycianthes howardiana",
        "genus": "Lycianthes",
        "family": "Solanaceae",
        "scientificName": "Lycianthes howardiana D' Arcy",
        "coordinateUncertaintyInMeters": "",
        "basisOfRecord": "PRESERVED_SPECIMEN",
        "eventDate": "1985-03-21",
        "country": null,
        "datasetName": "Digitalización y Sistematización de las Colecciones Biológicas Nacionales del Instituto de Biología, UNAM",
        "publisher": "Comisión nacional para el conocimiento y uso de la biodiversidad",
        "license": "CC_BY_4_0",
        "issues": [
          "OCCURRENCE_STATUS_INFERRED_FROM_INDIVIDUAL_COUNT",
          "CONTINENT_DERIVED_FROM_COORDINATES",
          "SCIENTIFIC_NAME_ID_NOT_FOUND",
          "TAXON_ID_NOT_FOUND"
        ],
        "fallback_media": {
          "url": "https://images.mobot.org/tropicosimages5/detailimages/TropicosImagesVol5/101650000/363E5ED9-72F0-484F-AC53-013B20EBD4E3.jpg",
          "references": "https://www.tropicos.org/ImageFullView.aspx?imageid=101650653",
          "title": "Porter - 4899 - Panama",
          "creator": "MBG",
          "publisher": null,
          "license": "http://creativecommons.org/licenses/by-nc-sa/3.0/",
          "rightsHolder": "MBG"
        }
      }
    }
  ]
}
