{
  "type": "FeatureCollection",
  "metadata": {
    "host_taxon": {
      "canonical_name": "Passiflora vellozii",
      "rank": "species",
      "family": "Passifloraceae",
      "genus": "Passiflora",
      "species": "Passiflora vellozii",
      "slug": "species_passiflora_vellozii",
      "resolvable_to_gbif": true,
      "use_for_default_download": true,
      "association_count": 1,
      "butterfly_taxa": [
        "Heliconius numata"
      ],
      "confidence_counts": {
        "medium": 1
      },
      "occurrence_file": "occurrences/species_passiflora_vellozii.geojson",
      "gbif_resolution": {
        "query": "Passiflora vellozii",
        "rank": "species",
        "status": "resolved",
        "gbif_taxon_key": 3586536,
        "accepted_usage_key": null,
        "scientific_name": "Passiflora vellozii Gardner",
        "canonical_name": "Passiflora vellozii",
        "gbif_rank": "SPECIES",
        "taxonomic_status": "ACCEPTED",
        "match_type": "EXACT",
        "confidence": 100,
        "kingdom": "Plantae",
        "family": "Passifloraceae",
        "genus": "Passiflora",
        "resolved_at": "2026-05-21T03:59:01+00:00"
      },
      "gbif_taxon_key": 3586536,
      "gbif_status": "resolved",
      "occurrence_count": 0,
      "occurrence_mode": "not_generated",
      "occurrence_cap": null
    },
    "gbif_resolution": {
      "query": "Passiflora vellozii",
      "rank": "species",
      "status": "resolved",
      "gbif_taxon_key": 3586536,
      "accepted_usage_key": null,
      "scientific_name": "Passiflora vellozii Gardner",
      "canonical_name": "Passiflora vellozii",
      "gbif_rank": "SPECIES",
      "taxonomic_status": "ACCEPTED",
      "match_type": "EXACT",
      "confidence": 100,
      "kingdom": "Plantae",
      "family": "Passifloraceae",
      "genus": "Passiflora",
      "resolved_at": "2026-05-21T03:59:01+00:00"
    },
    "occurrence_query": {
      "method": "gbif_download_api",
      "download_key": "0004690-260519110011954",
      "download_doi": "10.15468/dl.s2gcc3",
      "download_doi_url": "https://doi.org/10.15468/dl.s2gcc3",
      "limit": null,
      "dedupe": "Exact duplicate coordinates removed per taxon after DWCA download.",
      "filters": "GBIF Download API DWCA with TAXON_KEY, HAS_COORDINATE=true, HAS_GEOSPATIAL_ISSUE=false, OCCURRENCE_STATUS=PRESENT; app study extent and coordinate uncertainty <=100km applied locally.",
      "returned_unique_coordinate_records": 29
    },
    "scientific_caveat": "GBIF plant occurrences are sampling-biased context records and do not prove local host use or ecological availability for the butterfly.",
    "generated_at": "2026-05-21T15:57:21+00:00"
  },
  "features": [
    {
      "type": "Feature",
      "geometry": {
        "type": "Point",
        "coordinates": [
          -48.5,
          -25.516667
        ]
      },
      "properties": {
        "gbifID": "1260235361",
        "species": "Passiflora vellozii",
        "genus": "Passiflora",
        "family": "Passifloraceae",
        "scientificName": "Passiflora vellozii Gardner",
        "coordinateUncertaintyInMeters": "",
        "basisOfRecord": "PRESERVED_SPECIMEN",
        "eventDate": "1992-09-25",
        "country": null,
        "datasetName": "Tropicos",
        "publisher": "Missouri Botanical Garden",
        "license": "CC_BY_4_0",
        "issues": [
          "OCCURRENCE_STATUS_INFERRED_FROM_INDIVIDUAL_COUNT",
          "COORDINATE_ROUNDED",
          "GEODETIC_DATUM_ASSUMED_WGS84",
          "INSTITUTION_MATCH_FUZZY",
          "COLLECTION_MATCH_NONE",
          "TAXON_ID_NOT_FOUND"
        ],
        "media": [
          {
            "url": "https://images.mobot.org/RISScanning04/detailImages/RISScanning04/103916000/49124DBF-5802-4936-BE16-AF343C9AB846.jpg",
            "references": "https://www.tropicos.org/ImageFullView.aspx?imageid=103916936",
            "title": "Hatschbach - 57920 - Brazil",
            "creator": "MBG",
            "publisher": null,
            "license": "http://creativecommons.org/licenses/by-nc-sa/3.0/",
            "rightsHolder": "MBG"
          }
        ]
      }
    },
    {
      "type": "Feature",
      "geometry": {
        "type": "Point",
        "coordinates": [
          -43.666667,
          -19.816667
        ]
      },
      "properties": {
        "gbifID": "5295083598",
        "species": "Passiflora vellozii",
        "genus": "Passiflora",
        "family": "Passifloraceae",
        "scientificName": "Passiflora vellozii Gardner",
        "coordinateUncertaintyInMeters": "",
        "basisOfRecord": "PRESERVED_SPECIMEN",
        "eventDate": "1985-04-15",
        "country": null,
        "datasetName": "",
        "publisher": "Instituto de Pesquisas Jardim Botanico do Rio de Janeiro",
        "license": "CC_BY_4_0",
        "issues": [
          "COORDINATE_ROUNDED",
          "GEODETIC_DATUM_ASSUMED_WGS84",
          "CONTINENT_DERIVED_FROM_COORDINATES",
          "INSTITUTION_MATCH_FUZZY",
          "COLLECTION_MATCH_FUZZY"
        ],
        "fallback_media": {
          "url": "https://images.mobot.org/RISScanning04/detailImages/RISScanning04/103916000/49124DBF-5802-4936-BE16-AF343C9AB846.jpg",
          "references": "https://www.tropicos.org/ImageFullView.aspx?imageid=103916936",
          "title": "Hatschbach - 57920 - Brazil",
          "creator": "MBG",
          "publisher": null,
          "license": "http://creativecommons.org/licenses/by-nc-sa/3.0/",
          "rightsHolder": "MBG"
        }
      }
    },
    {
      "type": "Feature",
      "geometry": {
        "type": "Point",
        "coordinates": [
          -40.911111,
          -20.013611
        ]
      },
      "properties": {
        "gbifID": "5295083606",
        "species": "Passiflora vellozii",
        "genus": "Passiflora",
        "family": "Passifloraceae",
        "scientificName": "Passiflora vellozii Gardner",
        "coordinateUncertaintyInMeters": "",
        "basisOfRecord": "PRESERVED_SPECIMEN",
        "eventDate": "2003-02-26",
        "country": null,
        "datasetName": "",
        "publisher": "Instituto de Pesquisas Jardim Botanico do Rio de Janeiro",
        "license": "CC_BY_4_0",
        "issues": [
          "COORDINATE_ROUNDED",
          "GEODETIC_DATUM_ASSUMED_WGS84",
          "CONTINENT_DERIVED_FROM_COORDINATES",
          "INSTITUTION_MATCH_FUZZY",
          "COLLECTION_MATCH_FUZZY"
        ],
        "fallback_media": {
          "url": "https://images.mobot.org/RISScanning04/detailImages/RISScanning04/103916000/49124DBF-5802-4936-BE16-AF343C9AB846.jpg",
          "references": "https://www.tropicos.org/ImageFullView.aspx?imageid=103916936",
          "title": "Hatschbach - 57920 - Brazil",
          "creator": "MBG",
          "publisher": null,
          "license": "http://creativecommons.org/licenses/by-nc-sa/3.0/",
          "rightsHolder": "MBG"
        }
      }
    },
    {
      "type": "Feature",
      "geometry": {
        "type": "Point",
        "coordinates": [
          -48.864167,
          -27.876389
        ]
      },
      "properties": {
        "gbifID": "4439718879",
        "species": "Passiflora vellozii",
        "genus": "Passiflora",
        "family": "Passifloraceae",
        "scientificName": "Passiflora vellozii Gardner",
        "coordinateUncertaintyInMeters": "",
        "basisOfRecord": "PRESERVED_SPECIMEN",
        "eventDate": "2019-02-07",
        "country": null,
        "datasetName": "",
        "publisher": "Instituto de Pesquisas Jardim Botanico do Rio de Janeiro",
        "license": "CC_BY_4_0",
        "issues": [
          "RECORDED_DATE_INVALID",
          "COORDINATE_ROUNDED",
          "GEODETIC_DATUM_ASSUMED_WGS84",
          "CONTINENT_DERIVED_FROM_COORDINATES",
          "INSTITUTION_MATCH_FUZZY",
          "COLLECTION_MATCH_FUZZY"
        ],
        "fallback_media": {
          "url": "https://images.mobot.org/RISScanning04/detailImages/RISScanning04/103916000/49124DBF-5802-4936-BE16-AF343C9AB846.jpg",
          "references": "https://www.tropicos.org/ImageFullView.aspx?imageid=103916936",
          "title": "Hatschbach - 57920 - Brazil",
          "creator": "MBG",
          "publisher": null,
          "license": "http://creativecommons.org/licenses/by-nc-sa/3.0/",
          "rightsHolder": "MBG"
        }
      }
    },
    {
      "type": "Feature",
      "geometry": {
        "type": "Point",
        "coordinates": [
          -42.5,
          -22.55
        ]
      },
      "properties": {
        "gbifID": "1424060912",
        "species": "Passiflora vellozii",
        "genus": "Passiflora",
        "family": "Passifloraceae",
        "scientificName": "Passiflora vellozii Gardner",
        "coordinateUncertaintyInMeters": "",
        "basisOfRecord": "PRESERVED_SPECIMEN",
        "eventDate": "1991-01-16",
        "country": null,
        "datasetName": "RB - Rio de Janeiro Botanical Garden Herbarium Collection",
        "publisher": "Instituto de Pesquisas Jardim Botanico do Rio de Janeiro",
        "license": "CC_BY_4_0",
        "issues": [
          "GEODETIC_DATUM_ASSUMED_WGS84",
          "CONTINENT_DERIVED_FROM_COORDINATES",
          "INSTITUTION_MATCH_FUZZY",
          "COLLECTION_MATCH_FUZZY"
        ],
        "media": [
          {
            "url": "http://jbrj-public-img.s3-sa-east-1.amazonaws.com/JPG/rb/0/29/81/91/00298191.jpg",
            "references": null,
            "title": null,
            "creator": null,
            "publisher": null,
            "license": null,
            "rightsHolder": null
          }
        ]
      }
    },
    {
      "type": "Feature",
      "geometry": {
        "type": "Point",
        "coordinates": [
          -44.521944,
          -22.341389
        ]
      },
      "properties": {
        "gbifID": "1424168700",
        "species": "Passiflora vellozii",
        "genus": "Passiflora",
        "family": "Passifloraceae",
        "scientificName": "Passiflora vellozii Gardner",
        "coordinateUncertaintyInMeters": "",
        "basisOfRecord": "PRESERVED_SPECIMEN",
        "eventDate": "2006-12-06",
        "country": null,
        "datasetName": "RB - Rio de Janeiro Botanical Garden Herbarium Collection",
        "publisher": "Instituto de Pesquisas Jardim Botanico do Rio de Janeiro",
        "license": "CC_BY_4_0",
        "issues": [
          "COORDINATE_ROUNDED",
          "GEODETIC_DATUM_ASSUMED_WGS84",
          "CONTINENT_DERIVED_FROM_COORDINATES",
          "INSTITUTION_MATCH_FUZZY",
          "COLLECTION_MATCH_FUZZY"
        ],
        "media": [
          {
            "url": "http://jbrj-public-img.s3-sa-east-1.amazonaws.com/JPG/rb/0/43/53/82/00435382.jpg",
            "references": null,
            "title": null,
            "creator": null,
            "publisher": null,
            "license": null,
            "rightsHolder": null
          }
        ]
      }
    },
    {
      "type": "Feature",
      "geometry": {
        "type": "Point",
        "coordinates": [
          -48.415,
          -24.962222
        ]
      },
      "properties": {
        "gbifID": "2997730652",
        "species": "Passiflora vellozii",
        "genus": "Passiflora",
        "family": "Passifloraceae",
        "scientificName": "Passiflora vellozii Gardner",
        "coordinateUncertaintyInMeters": "",
        "basisOfRecord": "PRESERVED_SPECIMEN",
        "eventDate": "1995-02-14",
        "country": null,
        "datasetName": "",
        "publisher": "Instituto de Pesquisas Jardim Botanico do Rio de Janeiro",
        "license": "CC_BY_4_0",
        "issues": [
          "IDENTIFIED_DATE_INVALID",
          "COORDINATE_ROUNDED",
          "GEODETIC_DATUM_ASSUMED_WGS84",
          "CONTINENT_DERIVED_FROM_COORDINATES",
          "INSTITUTION_MATCH_FUZZY",
          "COLLECTION_MATCH_FUZZY"
        ],
        "fallback_media": {
          "url": "https://images.mobot.org/RISScanning04/detailImages/RISScanning04/103916000/49124DBF-5802-4936-BE16-AF343C9AB846.jpg",
          "references": "https://www.tropicos.org/ImageFullView.aspx?imageid=103916936",
          "title": "Hatschbach - 57920 - Brazil",
          "creator": "MBG",
          "publisher": null,
          "license": "http://creativecommons.org/licenses/by-nc-sa/3.0/",
          "rightsHolder": "MBG"
        }
      }
    },
    {
      "type": "Feature",
      "geometry": {
        "type": "Point",
        "coordinates": [
          -48.414722,
          -24.962222
        ]
      },
      "properties": {
        "gbifID": "2831320371",
        "species": "Passiflora vellozii",
        "genus": "Passiflora",
        "family": "Passifloraceae",
        "scientificName": "Passiflora vellozii Gardner",
        "coordinateUncertaintyInMeters": "",
        "basisOfRecord": "PRESERVED_SPECIMEN",
        "eventDate": "1995-02-14",
        "country": null,
        "datasetName": "",
        "publisher": "Instituto de Botânica, São Paulo",
        "license": "CC_BY_4_0",
        "issues": [
          "CONTINENT_DERIVED_FROM_COORDINATES",
          "INSTITUTION_MATCH_NONE"
        ],
        "fallback_media": {
          "url": "https://images.mobot.org/RISScanning04/detailImages/RISScanning04/103916000/49124DBF-5802-4936-BE16-AF343C9AB846.jpg",
          "references": "https://www.tropicos.org/ImageFullView.aspx?imageid=103916936",
          "title": "Hatschbach - 57920 - Brazil",
          "creator": "MBG",
          "publisher": null,
          "license": "http://creativecommons.org/licenses/by-nc-sa/3.0/",
          "rightsHolder": "MBG"
        }
      }
    },
    {
      "type": "Feature",
      "geometry": {
        "type": "Point",
        "coordinates": [
          -48.414889,
          -24.962361
        ]
      },
      "properties": {
        "gbifID": "1234541385",
        "species": "Passiflora vellozii",
        "genus": "Passiflora",
        "family": "Passifloraceae",
        "scientificName": "Passiflora vellozii Gardner",
        "coordinateUncertaintyInMeters": "",
        "basisOfRecord": "PRESERVED_SPECIMEN",
        "eventDate": "1995-02-14",
        "country": null,
        "datasetName": "",
        "publisher": "Universidade de São Paulo",
        "license": "CC_BY_4_0",
        "issues": [
          "CONTINENT_DERIVED_FROM_COORDINATES",
          "INSTITUTION_MATCH_NONE"
        ],
        "fallback_media": {
          "url": "https://images.mobot.org/RISScanning04/detailImages/RISScanning04/103916000/49124DBF-5802-4936-BE16-AF343C9AB846.jpg",
          "references": "https://www.tropicos.org/ImageFullView.aspx?imageid=103916936",
          "title": "Hatschbach - 57920 - Brazil",
          "creator": "MBG",
          "publisher": null,
          "license": "http://creativecommons.org/licenses/by-nc-sa/3.0/",
          "rightsHolder": "MBG"
        }
      }
    },
    {
      "type": "Feature",
      "geometry": {
        "type": "Point",
        "coordinates": [
          -43.888611,
          -21.760556
        ]
      },
      "properties": {
        "gbifID": "3305945353",
        "species": "Passiflora vellozii",
        "genus": "Passiflora",
        "family": "Passifloraceae",
        "scientificName": "Passiflora vellozii Gardner",
        "coordinateUncertaintyInMeters": "",
        "basisOfRecord": "PRESERVED_SPECIMEN",
        "eventDate": "2014-11-22",
        "country": null,
        "datasetName": "",
        "publisher": "Museu Nacional / UFRJ",
        "license": "CC_BY_4_0",
        "issues": [
          "CONTINENT_DERIVED_FROM_COORDINATES",
          "INSTITUTION_MATCH_FUZZY",
          "INSTITUTION_COLLECTION_MISMATCH"
        ],
        "fallback_media": {
          "url": "https://images.mobot.org/RISScanning04/detailImages/RISScanning04/103916000/49124DBF-5802-4936-BE16-AF343C9AB846.jpg",
          "references": "https://www.tropicos.org/ImageFullView.aspx?imageid=103916936",
          "title": "Hatschbach - 57920 - Brazil",
          "creator": "MBG",
          "publisher": null,
          "license": "http://creativecommons.org/licenses/by-nc-sa/3.0/",
          "rightsHolder": "MBG"
        }
      }
    },
    {
      "type": "Feature",
      "geometry": {
        "type": "Point",
        "coordinates": [
          -48.415305,
          -24.962838
        ]
      },
      "properties": {
        "gbifID": "1090560103",
        "species": "Passiflora vellozii",
        "genus": "Passiflora",
        "family": "Passifloraceae",
        "scientificName": "Passiflora vellozii Gardner",
        "coordinateUncertaintyInMeters": "",
        "basisOfRecord": "PRESERVED_SPECIMEN",
        "eventDate": "1995-02-14",
        "country": null,
        "datasetName": "",
        "publisher": "Instituto Agronômico (IAC)",
        "license": "CC_BY_4_0",
        "issues": [
          "CONTINENT_DERIVED_FROM_COORDINATES",
          "INSTITUTION_MATCH_FUZZY",
          "COLLECTION_MATCH_FUZZY"
        ],
        "fallback_media": {
          "url": "https://images.mobot.org/RISScanning04/detailImages/RISScanning04/103916000/49124DBF-5802-4936-BE16-AF343C9AB846.jpg",
          "references": "https://www.tropicos.org/ImageFullView.aspx?imageid=103916936",
          "title": "Hatschbach - 57920 - Brazil",
          "creator": "MBG",
          "publisher": null,
          "license": "http://creativecommons.org/licenses/by-nc-sa/3.0/",
          "rightsHolder": "MBG"
        }
      }
    },
    {
      "type": "Feature",
      "geometry": {
        "type": "Point",
        "coordinates": [
          -44.5633,
          -22.4961
        ]
      },
      "properties": {
        "gbifID": "1090573998",
        "species": "Passiflora vellozii",
        "genus": "Passiflora",
        "family": "Passifloraceae",
        "scientificName": "Passiflora vellozii Gardner",
        "coordinateUncertaintyInMeters": "",
        "basisOfRecord": "PRESERVED_SPECIMEN",
        "eventDate": "1945-02-13",
        "country": null,
        "datasetName": "",
        "publisher": "Instituto Agronômico (IAC)",
        "license": "CC_BY_4_0",
        "issues": [
          "CONTINENT_DERIVED_FROM_COORDINATES",
          "INSTITUTION_MATCH_FUZZY",
          "COLLECTION_MATCH_FUZZY"
        ],
        "fallback_media": {
          "url": "https://images.mobot.org/RISScanning04/detailImages/RISScanning04/103916000/49124DBF-5802-4936-BE16-AF343C9AB846.jpg",
          "references": "https://www.tropicos.org/ImageFullView.aspx?imageid=103916936",
          "title": "Hatschbach - 57920 - Brazil",
          "creator": "MBG",
          "publisher": null,
          "license": "http://creativecommons.org/licenses/by-nc-sa/3.0/",
          "rightsHolder": "MBG"
        }
      }
    },
    {
      "type": "Feature",
      "geometry": {
        "type": "Point",
        "coordinates": [
          -48.5047,
          -24.7564
        ]
      },
      "properties": {
        "gbifID": "1090560111",
        "species": "Passiflora vellozii",
        "genus": "Passiflora",
        "family": "Passifloraceae",
        "scientificName": "Passiflora vellozii Gardner",
        "coordinateUncertaintyInMeters": "",
        "basisOfRecord": "PRESERVED_SPECIMEN",
        "eventDate": "",
        "country": null,
        "datasetName": "",
        "publisher": "Instituto Agronômico (IAC)",
        "license": "CC_BY_4_0",
        "issues": [
          "CONTINENT_DERIVED_FROM_COORDINATES",
          "INSTITUTION_MATCH_FUZZY",
          "COLLECTION_MATCH_FUZZY"
        ],
        "fallback_media": {
          "url": "https://images.mobot.org/RISScanning04/detailImages/RISScanning04/103916000/49124DBF-5802-4936-BE16-AF343C9AB846.jpg",
          "references": "https://www.tropicos.org/ImageFullView.aspx?imageid=103916936",
          "title": "Hatschbach - 57920 - Brazil",
          "creator": "MBG",
          "publisher": null,
          "license": "http://creativecommons.org/licenses/by-nc-sa/3.0/",
          "rightsHolder": "MBG"
        }
      }
    },
    {
      "type": "Feature",
      "geometry": {
        "type": "Point",
        "coordinates": [
          -44.7131,
          -23.2178
        ]
      },
      "properties": {
        "gbifID": "1090574004",
        "species": "Passiflora vellozii",
        "genus": "Passiflora",
        "family": "Passifloraceae",
        "scientificName": "Passiflora vellozii Gardner",
        "coordinateUncertaintyInMeters": "",
        "basisOfRecord": "PRESERVED_SPECIMEN",
        "eventDate": "1993-10-20",
        "country": null,
        "datasetName": "",
        "publisher": "Instituto Agronômico (IAC)",
        "license": "CC_BY_4_0",
        "issues": [
          "CONTINENT_DERIVED_FROM_COORDINATES",
          "INSTITUTION_MATCH_FUZZY",
          "COLLECTION_MATCH_FUZZY"
        ],
        "fallback_media": {
          "url": "https://images.mobot.org/RISScanning04/detailImages/RISScanning04/103916000/49124DBF-5802-4936-BE16-AF343C9AB846.jpg",
          "references": "https://www.tropicos.org/ImageFullView.aspx?imageid=103916936",
          "title": "Hatschbach - 57920 - Brazil",
          "creator": "MBG",
          "publisher": null,
          "license": "http://creativecommons.org/licenses/by-nc-sa/3.0/",
          "rightsHolder": "MBG"
        }
      }
    },
    {
      "type": "Feature",
      "geometry": {
        "type": "Point",
        "coordinates": [
          -45.7376,
          -23.57357
        ]
      },
      "properties": {
        "gbifID": "1090579984",
        "species": "Passiflora vellozii",
        "genus": "Passiflora",
        "family": "Passifloraceae",
        "scientificName": "Passiflora vellozii Gardner",
        "coordinateUncertaintyInMeters": "",
        "basisOfRecord": "PRESERVED_SPECIMEN",
        "eventDate": "2010-12-13",
        "country": null,
        "datasetName": "",
        "publisher": "Instituto Agronômico (IAC)",
        "license": "CC_BY_4_0",
        "issues": [
          "CONTINENT_DERIVED_FROM_COORDINATES",
          "INSTITUTION_MATCH_FUZZY",
          "COLLECTION_MATCH_FUZZY"
        ],
        "fallback_media": {
          "url": "https://images.mobot.org/RISScanning04/detailImages/RISScanning04/103916000/49124DBF-5802-4936-BE16-AF343C9AB846.jpg",
          "references": "https://www.tropicos.org/ImageFullView.aspx?imageid=103916936",
          "title": "Hatschbach - 57920 - Brazil",
          "creator": "MBG",
          "publisher": null,
          "license": "http://creativecommons.org/licenses/by-nc-sa/3.0/",
          "rightsHolder": "MBG"
        }
      }
    },
    {
      "type": "Feature",
      "geometry": {
        "type": "Point",
        "coordinates": [
          -47.2958,
          -22.7775
        ]
      },
      "properties": {
        "gbifID": "1090571381",
        "species": "Passiflora vellozii",
        "genus": "Passiflora",
        "family": "Passifloraceae",
        "scientificName": "Passiflora vellozii Gardner",
        "coordinateUncertaintyInMeters": "",
        "basisOfRecord": "PRESERVED_SPECIMEN",
        "eventDate": "2004-06-21",
        "country": null,
        "datasetName": "",
        "publisher": "Instituto Agronômico (IAC)",
        "license": "CC_BY_4_0",
        "issues": [
          "CONTINENT_DERIVED_FROM_COORDINATES",
          "INSTITUTION_MATCH_FUZZY",
          "COLLECTION_MATCH_FUZZY"
        ],
        "fallback_media": {
          "url": "https://images.mobot.org/RISScanning04/detailImages/RISScanning04/103916000/49124DBF-5802-4936-BE16-AF343C9AB846.jpg",
          "references": "https://www.tropicos.org/ImageFullView.aspx?imageid=103916936",
          "title": "Hatschbach - 57920 - Brazil",
          "creator": "MBG",
          "publisher": null,
          "license": "http://creativecommons.org/licenses/by-nc-sa/3.0/",
          "rightsHolder": "MBG"
        }
      }
    },
    {
      "type": "Feature",
      "geometry": {
        "type": "Point",
        "coordinates": [
          -45.8464,
          -23.5322
        ]
      },
      "properties": {
        "gbifID": "1090581153",
        "species": "Passiflora vellozii",
        "genus": "Passiflora",
        "family": "Passifloraceae",
        "scientificName": "Passiflora vellozii Gardner",
        "coordinateUncertaintyInMeters": "",
        "basisOfRecord": "PRESERVED_SPECIMEN",
        "eventDate": "2012-03-18",
        "country": null,
        "datasetName": "",
        "publisher": "Instituto Agronômico (IAC)",
        "license": "CC_BY_4_0",
        "issues": [
          "CONTINENT_DERIVED_FROM_COORDINATES",
          "INSTITUTION_MATCH_FUZZY",
          "COLLECTION_MATCH_FUZZY"
        ],
        "fallback_media": {
          "url": "https://images.mobot.org/RISScanning04/detailImages/RISScanning04/103916000/49124DBF-5802-4936-BE16-AF343C9AB846.jpg",
          "references": "https://www.tropicos.org/ImageFullView.aspx?imageid=103916936",
          "title": "Hatschbach - 57920 - Brazil",
          "creator": "MBG",
          "publisher": null,
          "license": "http://creativecommons.org/licenses/by-nc-sa/3.0/",
          "rightsHolder": "MBG"
        }
      }
    },
    {
      "type": "Feature",
      "geometry": {
        "type": "Point",
        "coordinates": [
          -42.529783,
          -22.425117
        ]
      },
      "properties": {
        "gbifID": "1099312210",
        "species": "Passiflora vellozii",
        "genus": "Passiflora",
        "family": "Passifloraceae",
        "scientificName": "Passiflora vellozii Gardner",
        "coordinateUncertaintyInMeters": "",
        "basisOfRecord": "PRESERVED_SPECIMEN",
        "eventDate": "2010-11-09",
        "country": null,
        "datasetName": "",
        "publisher": "Jardim Botânico Plantarum",
        "license": "CC_BY_4_0",
        "issues": [
          "CONTINENT_DERIVED_FROM_COORDINATES",
          "INSTITUTION_MATCH_NONE"
        ],
        "fallback_media": {
          "url": "https://images.mobot.org/RISScanning04/detailImages/RISScanning04/103916000/49124DBF-5802-4936-BE16-AF343C9AB846.jpg",
          "references": "https://www.tropicos.org/ImageFullView.aspx?imageid=103916936",
          "title": "Hatschbach - 57920 - Brazil",
          "creator": "MBG",
          "publisher": null,
          "license": "http://creativecommons.org/licenses/by-nc-sa/3.0/",
          "rightsHolder": "MBG"
        }
      }
    },
    {
      "type": "Feature",
      "geometry": {
        "type": "Point",
        "coordinates": [
          -44.218611,
          -20.126111
        ]
      },
      "properties": {
        "gbifID": "2425046172",
        "species": "Passiflora vellozii",
        "genus": "Passiflora",
        "family": "Passifloraceae",
        "scientificName": "Passiflora vellozii Gardner",
        "coordinateUncertaintyInMeters": "",
        "basisOfRecord": "PRESERVED_SPECIMEN",
        "eventDate": "2009-12-04",
        "country": null,
        "datasetName": "",
        "publisher": "Universidade Federal de Minas Gerais",
        "license": "CC_BY_4_0",
        "issues": [
          "CONTINENT_DERIVED_FROM_COORDINATES",
          "INSTITUTION_MATCH_NONE"
        ],
        "fallback_media": {
          "url": "https://images.mobot.org/RISScanning04/detailImages/RISScanning04/103916000/49124DBF-5802-4936-BE16-AF343C9AB846.jpg",
          "references": "https://www.tropicos.org/ImageFullView.aspx?imageid=103916936",
          "title": "Hatschbach - 57920 - Brazil",
          "creator": "MBG",
          "publisher": null,
          "license": "http://creativecommons.org/licenses/by-nc-sa/3.0/",
          "rightsHolder": "MBG"
        }
      }
    },
    {
      "type": "Feature",
      "geometry": {
        "type": "Point",
        "coordinates": [
          -43.5775,
          -20.018333
        ]
      },
      "properties": {
        "gbifID": "1087660244",
        "species": "Passiflora vellozii",
        "genus": "Passiflora",
        "family": "Passifloraceae",
        "scientificName": "Passiflora vellozii Gardner",
        "coordinateUncertaintyInMeters": "",
        "basisOfRecord": "PRESERVED_SPECIMEN",
        "eventDate": "2013-02-07",
        "country": null,
        "datasetName": "",
        "publisher": "Universidade Federal de Minas Gerais",
        "license": "CC_BY_4_0",
        "issues": [
          "IDENTIFIED_DATE_INVALID",
          "CONTINENT_DERIVED_FROM_COORDINATES",
          "INSTITUTION_MATCH_NONE"
        ],
        "fallback_media": {
          "url": "https://images.mobot.org/RISScanning04/detailImages/RISScanning04/103916000/49124DBF-5802-4936-BE16-AF343C9AB846.jpg",
          "references": "https://www.tropicos.org/ImageFullView.aspx?imageid=103916936",
          "title": "Hatschbach - 57920 - Brazil",
          "creator": "MBG",
          "publisher": null,
          "license": "http://creativecommons.org/licenses/by-nc-sa/3.0/",
          "rightsHolder": "MBG"
        }
      }
    },
    {
      "type": "Feature",
      "geometry": {
        "type": "Point",
        "coordinates": [
          -43.924722,
          -20.147222
        ]
      },
      "properties": {
        "gbifID": "1303587563",
        "species": "Passiflora vellozii",
        "genus": "Passiflora",
        "family": "Passifloraceae",
        "scientificName": "Passiflora vellozii Gardner",
        "coordinateUncertaintyInMeters": "",
        "basisOfRecord": "PRESERVED_SPECIMEN",
        "eventDate": "2015-05-08",
        "country": null,
        "datasetName": "",
        "publisher": "Universidade Federal de Minas Gerais",
        "license": "CC_BY_4_0",
        "issues": [
          "IDENTIFIED_DATE_INVALID",
          "CONTINENT_DERIVED_FROM_COORDINATES",
          "INSTITUTION_MATCH_NONE"
        ],
        "fallback_media": {
          "url": "https://images.mobot.org/RISScanning04/detailImages/RISScanning04/103916000/49124DBF-5802-4936-BE16-AF343C9AB846.jpg",
          "references": "https://www.tropicos.org/ImageFullView.aspx?imageid=103916936",
          "title": "Hatschbach - 57920 - Brazil",
          "creator": "MBG",
          "publisher": null,
          "license": "http://creativecommons.org/licenses/by-nc-sa/3.0/",
          "rightsHolder": "MBG"
        }
      }
    },
    {
      "type": "Feature",
      "geometry": {
        "type": "Point",
        "coordinates": [
          -43.518889,
          -20.014167
        ]
      },
      "properties": {
        "gbifID": "1226939510",
        "species": "Passiflora vellozii",
        "genus": "Passiflora",
        "family": "Passifloraceae",
        "scientificName": "Passiflora vellozii Gardner",
        "coordinateUncertaintyInMeters": "",
        "basisOfRecord": "PRESERVED_SPECIMEN",
        "eventDate": "2015-01-13",
        "country": null,
        "datasetName": "",
        "publisher": "Universidade Federal de Minas Gerais",
        "license": "CC_BY_4_0",
        "issues": [
          "CONTINENT_DERIVED_FROM_COORDINATES",
          "INSTITUTION_MATCH_NONE"
        ],
        "fallback_media": {
          "url": "https://images.mobot.org/RISScanning04/detailImages/RISScanning04/103916000/49124DBF-5802-4936-BE16-AF343C9AB846.jpg",
          "references": "https://www.tropicos.org/ImageFullView.aspx?imageid=103916936",
          "title": "Hatschbach - 57920 - Brazil",
          "creator": "MBG",
          "publisher": null,
          "license": "http://creativecommons.org/licenses/by-nc-sa/3.0/",
          "rightsHolder": "MBG"
        }
      }
    },
    {
      "type": "Feature",
      "geometry": {
        "type": "Point",
        "coordinates": [
          -44.793075,
          -22.355133
        ]
      },
      "properties": {
        "gbifID": "1291011638",
        "species": "Passiflora vellozii",
        "genus": "Passiflora",
        "family": "Passifloraceae",
        "scientificName": "Passiflora vellozii Gardner",
        "coordinateUncertaintyInMeters": "",
        "basisOfRecord": "PRESERVED_SPECIMEN",
        "eventDate": "2006-11-22",
        "country": null,
        "datasetName": "",
        "publisher": "Universidade Federal de Minas Gerais",
        "license": "CC_BY_4_0",
        "issues": [
          "CONTINENT_DERIVED_FROM_COORDINATES",
          "INSTITUTION_MATCH_NONE"
        ],
        "fallback_media": {
          "url": "https://images.mobot.org/RISScanning04/detailImages/RISScanning04/103916000/49124DBF-5802-4936-BE16-AF343C9AB846.jpg",
          "references": "https://www.tropicos.org/ImageFullView.aspx?imageid=103916936",
          "title": "Hatschbach - 57920 - Brazil",
          "creator": "MBG",
          "publisher": null,
          "license": "http://creativecommons.org/licenses/by-nc-sa/3.0/",
          "rightsHolder": "MBG"
        }
      }
    },
    {
      "type": "Feature",
      "geometry": {
        "type": "Point",
        "coordinates": [
          -43.905833,
          -20.445833
        ]
      },
      "properties": {
        "gbifID": "1303587355",
        "species": "Passiflora vellozii",
        "genus": "Passiflora",
        "family": "Passifloraceae",
        "scientificName": "Passiflora vellozii Gardner",
        "coordinateUncertaintyInMeters": "",
        "basisOfRecord": "PRESERVED_SPECIMEN",
        "eventDate": "2015-04-16",
        "country": null,
        "datasetName": "",
        "publisher": "Universidade Federal de Minas Gerais",
        "license": "CC_BY_4_0",
        "issues": [
          "IDENTIFIED_DATE_INVALID",
          "CONTINENT_DERIVED_FROM_COORDINATES",
          "INSTITUTION_MATCH_NONE"
        ],
        "fallback_media": {
          "url": "https://images.mobot.org/RISScanning04/detailImages/RISScanning04/103916000/49124DBF-5802-4936-BE16-AF343C9AB846.jpg",
          "references": "https://www.tropicos.org/ImageFullView.aspx?imageid=103916936",
          "title": "Hatschbach - 57920 - Brazil",
          "creator": "MBG",
          "publisher": null,
          "license": "http://creativecommons.org/licenses/by-nc-sa/3.0/",
          "rightsHolder": "MBG"
        }
      }
    },
    {
      "type": "Feature",
      "geometry": {
        "type": "Point",
        "coordinates": [
          -44.236944,
          -20.139167
        ]
      },
      "properties": {
        "gbifID": "2425046160",
        "species": "Passiflora vellozii",
        "genus": "Passiflora",
        "family": "Passifloraceae",
        "scientificName": "Passiflora vellozii Gardner",
        "coordinateUncertaintyInMeters": "",
        "basisOfRecord": "PRESERVED_SPECIMEN",
        "eventDate": "2008-01-22",
        "country": null,
        "datasetName": "",
        "publisher": "Universidade Federal de Minas Gerais",
        "license": "CC_BY_4_0",
        "issues": [
          "IDENTIFIED_DATE_INVALID",
          "CONTINENT_DERIVED_FROM_COORDINATES",
          "INSTITUTION_MATCH_NONE"
        ],
        "fallback_media": {
          "url": "https://images.mobot.org/RISScanning04/detailImages/RISScanning04/103916000/49124DBF-5802-4936-BE16-AF343C9AB846.jpg",
          "references": "https://www.tropicos.org/ImageFullView.aspx?imageid=103916936",
          "title": "Hatschbach - 57920 - Brazil",
          "creator": "MBG",
          "publisher": null,
          "license": "http://creativecommons.org/licenses/by-nc-sa/3.0/",
          "rightsHolder": "MBG"
        }
      }
    },
    {
      "type": "Feature",
      "geometry": {
        "type": "Point",
        "coordinates": [
          -43.918889,
          -20.441111
        ]
      },
      "properties": {
        "gbifID": "1087660747",
        "species": "Passiflora vellozii",
        "genus": "Passiflora",
        "family": "Passifloraceae",
        "scientificName": "Passiflora vellozii Gardner",
        "coordinateUncertaintyInMeters": "",
        "basisOfRecord": "PRESERVED_SPECIMEN",
        "eventDate": "2013-01-30",
        "country": null,
        "datasetName": "",
        "publisher": "Universidade Federal de Minas Gerais",
        "license": "CC_BY_4_0",
        "issues": [
          "IDENTIFIED_DATE_INVALID",
          "CONTINENT_DERIVED_FROM_COORDINATES",
          "INSTITUTION_MATCH_NONE"
        ],
        "fallback_media": {
          "url": "https://images.mobot.org/RISScanning04/detailImages/RISScanning04/103916000/49124DBF-5802-4936-BE16-AF343C9AB846.jpg",
          "references": "https://www.tropicos.org/ImageFullView.aspx?imageid=103916936",
          "title": "Hatschbach - 57920 - Brazil",
          "creator": "MBG",
          "publisher": null,
          "license": "http://creativecommons.org/licenses/by-nc-sa/3.0/",
          "rightsHolder": "MBG"
        }
      }
    },
    {
      "type": "Feature",
      "geometry": {
        "type": "Point",
        "coordinates": [
          -46.7748,
          -23.900479
        ]
      },
      "properties": {
        "gbifID": "3967740557",
        "species": "Passiflora vellozii",
        "genus": "Passiflora",
        "family": "Passifloraceae",
        "scientificName": "Passiflora vellozii Gardner",
        "coordinateUncertaintyInMeters": "",
        "basisOfRecord": "OCCURRENCE",
        "eventDate": "1996",
        "country": null,
        "datasetName": "SinBIOTA",
        "publisher": "Programa BIOTA/FAPESP - The Virtual Institute of Biodiversity",
        "license": "CC_BY_NC_4_0",
        "issues": [
          "RECORDED_DATE_MISMATCH",
          "COORDINATE_REPROJECTED",
          "TAXON_ID_NOT_FOUND"
        ],
        "fallback_media": {
          "url": "https://images.mobot.org/RISScanning04/detailImages/RISScanning04/103916000/49124DBF-5802-4936-BE16-AF343C9AB846.jpg",
          "references": "https://www.tropicos.org/ImageFullView.aspx?imageid=103916936",
          "title": "Hatschbach - 57920 - Brazil",
          "creator": "MBG",
          "publisher": null,
          "license": "http://creativecommons.org/licenses/by-nc-sa/3.0/",
          "rightsHolder": "MBG"
        }
      }
    },
    {
      "type": "Feature",
      "geometry": {
        "type": "Point",
        "coordinates": [
          -46.564722,
          -21.838889
        ]
      },
      "properties": {
        "gbifID": "1208844001",
        "species": "Passiflora vellozii",
        "genus": "Passiflora",
        "family": "Passifloraceae",
        "scientificName": "Passiflora vellozii Gardner",
        "coordinateUncertaintyInMeters": "",
        "basisOfRecord": "PRESERVED_SPECIMEN",
        "eventDate": "1981-12-02",
        "country": null,
        "datasetName": "",
        "publisher": "Universidade Estadual de Campinas",
        "license": "CC_BY_4_0",
        "issues": [
          "CONTINENT_DERIVED_FROM_COORDINATES",
          "INSTITUTION_MATCH_NONE"
        ],
        "fallback_media": {
          "url": "https://images.mobot.org/RISScanning04/detailImages/RISScanning04/103916000/49124DBF-5802-4936-BE16-AF343C9AB846.jpg",
          "references": "https://www.tropicos.org/ImageFullView.aspx?imageid=103916936",
          "title": "Hatschbach - 57920 - Brazil",
          "creator": "MBG",
          "publisher": null,
          "license": "http://creativecommons.org/licenses/by-nc-sa/3.0/",
          "rightsHolder": "MBG"
        }
      }
    },
    {
      "type": "Feature",
      "geometry": {
        "type": "Point",
        "coordinates": [
          -45.026944,
          -22.484167
        ]
      },
      "properties": {
        "gbifID": "1208844326",
        "species": "Passiflora vellozii",
        "genus": "Passiflora",
        "family": "Passifloraceae",
        "scientificName": "Passiflora vellozii Gardner",
        "coordinateUncertaintyInMeters": "",
        "basisOfRecord": "PRESERVED_SPECIMEN",
        "eventDate": "1995-04-05",
        "country": null,
        "datasetName": "",
        "publisher": "Universidade Estadual de Campinas",
        "license": "CC_BY_4_0",
        "issues": [
          "CONTINENT_DERIVED_FROM_COORDINATES",
          "INSTITUTION_MATCH_NONE"
        ],
        "fallback_media": {
          "url": "https://images.mobot.org/RISScanning04/detailImages/RISScanning04/103916000/49124DBF-5802-4936-BE16-AF343C9AB846.jpg",
          "references": "https://www.tropicos.org/ImageFullView.aspx?imageid=103916936",
          "title": "Hatschbach - 57920 - Brazil",
          "creator": "MBG",
          "publisher": null,
          "license": "http://creativecommons.org/licenses/by-nc-sa/3.0/",
          "rightsHolder": "MBG"
        }
      }
    }
  ]
}
