{
  "type": "FeatureCollection",
  "metadata": {
    "host_taxon": {
      "canonical_name": "Passiflora tuberosa",
      "rank": "species",
      "family": "Passifloraceae",
      "genus": "Passiflora",
      "species": "Passiflora tuberosa",
      "slug": "species_passiflora_tuberosa",
      "resolvable_to_gbif": true,
      "use_for_default_download": true,
      "association_count": 2,
      "butterfly_taxa": [
        "Dryas iulia",
        "Heliconius erato"
      ],
      "confidence_counts": {
        "medium": 2
      },
      "occurrence_file": "occurrences/species_passiflora_tuberosa.geojson",
      "gbif_resolution": {
        "query": "Passiflora tuberosa",
        "rank": "species",
        "status": "resolved",
        "gbif_taxon_key": 2874208,
        "accepted_usage_key": null,
        "scientific_name": "Passiflora tuberosa Jacq.",
        "canonical_name": "Passiflora tuberosa",
        "gbif_rank": "SPECIES",
        "taxonomic_status": "ACCEPTED",
        "match_type": "EXACT",
        "confidence": 100,
        "kingdom": "Plantae",
        "family": "Passifloraceae",
        "genus": "Passiflora",
        "resolved_at": "2026-05-21T03:59:00+00:00"
      },
      "gbif_taxon_key": 2874208,
      "gbif_status": "resolved",
      "occurrence_count": 0,
      "occurrence_mode": "not_generated",
      "occurrence_cap": null
    },
    "gbif_resolution": {
      "query": "Passiflora tuberosa",
      "rank": "species",
      "status": "resolved",
      "gbif_taxon_key": 2874208,
      "accepted_usage_key": null,
      "scientific_name": "Passiflora tuberosa Jacq.",
      "canonical_name": "Passiflora tuberosa",
      "gbif_rank": "SPECIES",
      "taxonomic_status": "ACCEPTED",
      "match_type": "EXACT",
      "confidence": 100,
      "kingdom": "Plantae",
      "family": "Passifloraceae",
      "genus": "Passiflora",
      "resolved_at": "2026-05-21T03:59:00+00:00"
    },
    "occurrence_query": {
      "method": "gbif_download_api",
      "download_key": "0004690-260519110011954",
      "download_doi": "10.15468/dl.s2gcc3",
      "download_doi_url": "https://doi.org/10.15468/dl.s2gcc3",
      "limit": null,
      "dedupe": "Exact duplicate coordinates removed per taxon after DWCA download.",
      "filters": "GBIF Download API DWCA with TAXON_KEY, HAS_COORDINATE=true, HAS_GEOSPATIAL_ISSUE=false, OCCURRENCE_STATUS=PRESENT; app study extent and coordinate uncertainty <=100km applied locally.",
      "returned_unique_coordinate_records": 37
    },
    "scientific_caveat": "GBIF plant occurrences are sampling-biased context records and do not prove local host use or ecological availability for the butterfly.",
    "generated_at": "2026-05-21T15:57:21+00:00"
  },
  "features": [
    {
      "type": "Feature",
      "geometry": {
        "type": "Point",
        "coordinates": [
          -67.768056,
          10.453333
        ]
      },
      "properties": {
        "gbifID": "1260246619",
        "species": "Passiflora tuberosa",
        "genus": "Passiflora",
        "family": "Passifloraceae",
        "scientificName": "Passiflora tuberosa Jacq.",
        "coordinateUncertaintyInMeters": "",
        "basisOfRecord": "PRESERVED_SPECIMEN",
        "eventDate": "1993-05-29",
        "country": null,
        "datasetName": "Tropicos",
        "publisher": "Missouri Botanical Garden",
        "license": "CC_BY_4_0",
        "issues": [
          "OCCURRENCE_STATUS_INFERRED_FROM_INDIVIDUAL_COUNT",
          "COORDINATE_ROUNDED",
          "GEODETIC_DATUM_ASSUMED_WGS84",
          "INSTITUTION_MATCH_FUZZY",
          "COLLECTION_MATCH_NONE",
          "TAXON_ID_NOT_FOUND"
        ],
        "media": [
          {
            "url": "https://images.mobot.org/tropicosimages6/detailimages/TropicosImagesVol6/102577000/52A6CACB-3C6A-44D8-BAE8-4A3695828729.jpg",
            "references": "https://www.tropicos.org/ImageFullView.aspx?imageid=102577435",
            "title": "Benítez de Rojas - 4880 - Venezuela",
            "creator": "MBG",
            "publisher": null,
            "license": "http://creativecommons.org/licenses/by-nc-sa/3.0/",
            "rightsHolder": "MBG"
          }
        ]
      }
    },
    {
      "type": "Feature",
      "geometry": {
        "type": "Point",
        "coordinates": [
          -61.3,
          10.383333
        ]
      },
      "properties": {
        "gbifID": "4032095588",
        "species": "Passiflora tuberosa",
        "genus": "Passiflora",
        "family": "Passifloraceae",
        "scientificName": "Passiflora tuberosa Jacq.",
        "coordinateUncertaintyInMeters": "",
        "basisOfRecord": "PRESERVED_SPECIMEN",
        "eventDate": "1918-10-28",
        "country": null,
        "datasetName": "Tropicos",
        "publisher": "Missouri Botanical Garden",
        "license": "CC_BY_4_0",
        "issues": [
          "OCCURRENCE_STATUS_INFERRED_FROM_INDIVIDUAL_COUNT",
          "COORDINATE_ROUNDED",
          "COUNTRY_MISMATCH",
          "GEODETIC_DATUM_ASSUMED_WGS84",
          "CONTINENT_COORDINATE_MISMATCH",
          "CONTINENT_COUNTRY_MISMATCH",
          "INSTITUTION_MATCH_FUZZY",
          "COLLECTION_MATCH_NONE",
          "TAXON_ID_NOT_FOUND"
        ],
        "media": [
          {
            "url": "https://images.mobot.org/tropicosimages3/detailimages/Tropicos/242/AC5F2D2E-D940-4BED-B528-A2BB7B92C484.jpg",
            "references": "https://www.tropicos.org/ImageFullView.aspx?imageid=81564",
            "title": "Broadway - s.n. 28 Oct. 1918 - Caribbean",
            "creator": null,
            "publisher": null,
            "license": "http://creativecommons.org/licenses/by-nc-sa/3.0/",
            "rightsHolder": "MBG"
          }
        ]
      }
    },
    {
      "type": "Feature",
      "geometry": {
        "type": "Point",
        "coordinates": [
          -69.5,
          9.683333
        ]
      },
      "properties": {
        "gbifID": "1259128481",
        "species": "Passiflora tuberosa",
        "genus": "Passiflora",
        "family": "Passifloraceae",
        "scientificName": "Passiflora tuberosa Jacq.",
        "coordinateUncertaintyInMeters": "",
        "basisOfRecord": "PRESERVED_SPECIMEN",
        "eventDate": "1982-10-24",
        "country": null,
        "datasetName": "Tropicos",
        "publisher": "Missouri Botanical Garden",
        "license": "CC_BY_4_0",
        "issues": [
          "OCCURRENCE_STATUS_INFERRED_FROM_INDIVIDUAL_COUNT",
          "COORDINATE_ROUNDED",
          "GEODETIC_DATUM_ASSUMED_WGS84",
          "INSTITUTION_MATCH_FUZZY",
          "COLLECTION_MATCH_NONE",
          "TAXON_ID_NOT_FOUND"
        ],
        "media": [
          {
            "url": "https://images.mobot.org/tropicosimages5/detailimages/TropicosImagesVol5/102164000/C15F5CF2-0B4E-4CEE-9F3C-887D2CD48BD0.jpg",
            "references": "https://www.tropicos.org/ImageFullView.aspx?imageid=102164784",
            "title": "Davidse - 20976 - Venezuela",
            "creator": "MBG",
            "publisher": null,
            "license": "http://creativecommons.org/licenses/by-nc-sa/3.0/",
            "rightsHolder": "MBG"
          }
        ]
      }
    },
    {
      "type": "Feature",
      "geometry": {
        "type": "Point",
        "coordinates": [
          -61.5,
          7.3
        ]
      },
      "properties": {
        "gbifID": "1259042622",
        "species": "Passiflora tuberosa",
        "genus": "Passiflora",
        "family": "Passifloraceae",
        "scientificName": "Passiflora tuberosa Jacq.",
        "coordinateUncertaintyInMeters": "",
        "basisOfRecord": "PRESERVED_SPECIMEN",
        "eventDate": "1974-03-18",
        "country": null,
        "datasetName": "Tropicos",
        "publisher": "Missouri Botanical Garden",
        "license": "CC_BY_4_0",
        "issues": [
          "OCCURRENCE_STATUS_INFERRED_FROM_INDIVIDUAL_COUNT",
          "GEODETIC_DATUM_ASSUMED_WGS84",
          "INSTITUTION_MATCH_FUZZY",
          "COLLECTION_MATCH_NONE",
          "TAXON_ID_NOT_FOUND"
        ],
        "media": [
          {
            "url": "https://images.mobot.org/tropicosimages6/detailimages/TropicosImagesVol6/102577000/EB5111EE-5A6A-4FA9-A616-BCF831244475.jpg",
            "references": "https://www.tropicos.org/ImageFullView.aspx?imageid=102577436",
            "title": "Gentry - 10695 - Venezuela",
            "creator": "MBG",
            "publisher": null,
            "license": "http://creativecommons.org/licenses/by-nc-sa/3.0/",
            "rightsHolder": "MBG"
          }
        ]
      }
    },
    {
      "type": "Feature",
      "geometry": {
        "type": "Point",
        "coordinates": [
          -66.5,
          6.916667
        ]
      },
      "properties": {
        "gbifID": "1260237222",
        "species": "Passiflora tuberosa",
        "genus": "Passiflora",
        "family": "Passifloraceae",
        "scientificName": "Passiflora tuberosa Jacq.",
        "coordinateUncertaintyInMeters": "",
        "basisOfRecord": "PRESERVED_SPECIMEN",
        "eventDate": "1986-05-20",
        "country": null,
        "datasetName": "Tropicos",
        "publisher": "Missouri Botanical Garden",
        "license": "CC_BY_4_0",
        "issues": [
          "OCCURRENCE_STATUS_INFERRED_FROM_INDIVIDUAL_COUNT",
          "COORDINATE_ROUNDED",
          "GEODETIC_DATUM_ASSUMED_WGS84",
          "INSTITUTION_MATCH_FUZZY",
          "COLLECTION_MATCH_NONE",
          "TAXON_ID_NOT_FOUND"
        ],
        "fallback_media": {
          "url": "https://inaturalist-open-data.s3.amazonaws.com/photos/177395371/original.jpg",
          "references": "https://www.inaturalist.org/photos/177395371",
          "title": null,
          "creator": "Jack Johnson",
          "publisher": "iNaturalist",
          "license": "http://creativecommons.org/licenses/by-nc/4.0/",
          "rightsHolder": "Jack Johnson"
        }
      }
    },
    {
      "type": "Feature",
      "geometry": {
        "type": "Point",
        "coordinates": [
          -66.5,
          6.92
        ]
      },
      "properties": {
        "gbifID": "2447318978",
        "species": "Passiflora tuberosa",
        "genus": "Passiflora",
        "family": "Passifloraceae",
        "scientificName": "Passiflora tuberosa Jacq.",
        "coordinateUncertaintyInMeters": "",
        "basisOfRecord": "PRESERVED_SPECIMEN",
        "eventDate": "1986-05-20",
        "country": null,
        "datasetName": "Vascular plants",
        "publisher": "The New York Botanical Garden",
        "license": "CC0_1_0",
        "issues": [
          "MODIFIED_DATE_INVALID",
          "GEODETIC_DATUM_ASSUMED_WGS84"
        ],
        "media": [
          {
            "url": "http://sweetgum.nybg.org/images3/3621/771/04140958.jpg",
            "references": null,
            "title": null,
            "creator": "The New York Botanical Garden",
            "publisher": null,
            "license": "http://creativecommons.org/licenses/by/4.0/",
            "rightsHolder": "The New York Botanical Garden"
          }
        ]
      }
    },
    {
      "type": "Feature",
      "geometry": {
        "type": "Point",
        "coordinates": [
          -69.854833,
          9.404
        ]
      },
      "properties": {
        "gbifID": "2430122170",
        "species": "Passiflora tuberosa",
        "genus": "Passiflora",
        "family": "Passifloraceae",
        "scientificName": "Passiflora tuberosa Jacq.",
        "coordinateUncertaintyInMeters": "",
        "basisOfRecord": "PRESERVED_SPECIMEN",
        "eventDate": "2009-03-22",
        "country": null,
        "datasetName": "",
        "publisher": "Rancho Santa Ana Botanic Garden",
        "license": "CC_BY_NC_4_0",
        "issues": [
          "COORDINATE_ROUNDED",
          "GEODETIC_DATUM_ASSUMED_WGS84",
          "INSTITUTION_MATCH_FUZZY",
          "TAXON_ID_NOT_FOUND"
        ],
        "fallback_media": {
          "url": "https://inaturalist-open-data.s3.amazonaws.com/photos/177395371/original.jpg",
          "references": "https://www.inaturalist.org/photos/177395371",
          "title": null,
          "creator": "Jack Johnson",
          "publisher": "iNaturalist",
          "license": "http://creativecommons.org/licenses/by-nc/4.0/",
          "rightsHolder": "Jack Johnson"
        }
      }
    },
    {
      "type": "Feature",
      "geometry": {
        "type": "Point",
        "coordinates": [
          -69.088167,
          9.404
        ]
      },
      "properties": {
        "gbifID": "2430245503",
        "species": "Passiflora tuberosa",
        "genus": "Passiflora",
        "family": "Passifloraceae",
        "scientificName": "Passiflora tuberosa Jacq.",
        "coordinateUncertaintyInMeters": "",
        "basisOfRecord": "PRESERVED_SPECIMEN",
        "eventDate": "2009-03-22",
        "country": null,
        "datasetName": "",
        "publisher": "Rancho Santa Ana Botanic Garden",
        "license": "CC_BY_NC_4_0",
        "issues": [
          "COORDINATE_ROUNDED",
          "GEODETIC_DATUM_ASSUMED_WGS84",
          "INSTITUTION_MATCH_FUZZY",
          "TAXON_ID_NOT_FOUND"
        ],
        "fallback_media": {
          "url": "https://inaturalist-open-data.s3.amazonaws.com/photos/177395371/original.jpg",
          "references": "https://www.inaturalist.org/photos/177395371",
          "title": null,
          "creator": "Jack Johnson",
          "publisher": "iNaturalist",
          "license": "http://creativecommons.org/licenses/by-nc/4.0/",
          "rightsHolder": "Jack Johnson"
        }
      }
    },
    {
      "type": "Feature",
      "geometry": {
        "type": "Point",
        "coordinates": [
          -69.64718,
          18.86865
        ]
      },
      "properties": {
        "gbifID": "4528434348",
        "species": "Passiflora tuberosa",
        "genus": "Passiflora",
        "family": "Passifloraceae",
        "scientificName": "Passiflora tuberosa Jacq.",
        "coordinateUncertaintyInMeters": "",
        "basisOfRecord": "PRESERVED_SPECIMEN",
        "eventDate": "2007-01-11",
        "country": null,
        "datasetName": "",
        "publisher": "University of Texas at Austin, Biodiversity Collections",
        "license": "CC0_1_0",
        "issues": [
          "GEODETIC_DATUM_ASSUMED_WGS84",
          "INSTITUTION_MATCH_FUZZY",
          "COLLECTION_MATCH_FUZZY"
        ],
        "media": [
          {
            "url": "http://was.tacc.utexas.edu/fileget?coll=TEX-LL&type=O&filename=sp63451907881301758375.att.JPG",
            "references": null,
            "title": null,
            "creator": null,
            "publisher": null,
            "license": null,
            "rightsHolder": null
          }
        ]
      }
    },
    {
      "type": "Feature",
      "geometry": {
        "type": "Point",
        "coordinates": [
          -64.916667,
          18.333333
        ]
      },
      "properties": {
        "gbifID": "1257544702",
        "species": "Passiflora tuberosa",
        "genus": "Passiflora",
        "family": "Passifloraceae",
        "scientificName": "Passiflora tuberosa Jacq.",
        "coordinateUncertaintyInMeters": "",
        "basisOfRecord": "PRESERVED_SPECIMEN",
        "eventDate": "",
        "country": null,
        "datasetName": "Tropicos",
        "publisher": "Missouri Botanical Garden",
        "license": "CC_BY_4_0",
        "issues": [
          "OCCURRENCE_STATUS_INFERRED_FROM_INDIVIDUAL_COUNT",
          "COORDINATE_ROUNDED",
          "COUNTRY_MISMATCH",
          "GEODETIC_DATUM_ASSUMED_WGS84",
          "INSTITUTION_MATCH_FUZZY",
          "COLLECTION_MATCH_NONE",
          "TAXON_ID_NOT_FOUND"
        ],
        "fallback_media": {
          "url": "https://inaturalist-open-data.s3.amazonaws.com/photos/177395371/original.jpg",
          "references": "https://www.inaturalist.org/photos/177395371",
          "title": null,
          "creator": "Jack Johnson",
          "publisher": "iNaturalist",
          "license": "http://creativecommons.org/licenses/by-nc/4.0/",
          "rightsHolder": "Jack Johnson"
        }
      }
    },
    {
      "type": "Feature",
      "geometry": {
        "type": "Point",
        "coordinates": [
          -71.960833,
          7.728333
        ]
      },
      "properties": {
        "gbifID": "1257603485",
        "species": "Passiflora tuberosa",
        "genus": "Passiflora",
        "family": "Passifloraceae",
        "scientificName": "Passiflora tuberosa Jacq.",
        "coordinateUncertaintyInMeters": "",
        "basisOfRecord": "PRESERVED_SPECIMEN",
        "eventDate": "2009-03-07",
        "country": null,
        "datasetName": "Tropicos",
        "publisher": "Missouri Botanical Garden",
        "license": "CC_BY_4_0",
        "issues": [
          "OCCURRENCE_STATUS_INFERRED_FROM_INDIVIDUAL_COUNT",
          "COORDINATE_ROUNDED",
          "GEODETIC_DATUM_ASSUMED_WGS84",
          "INSTITUTION_MATCH_FUZZY",
          "COLLECTION_MATCH_NONE",
          "TAXON_ID_NOT_FOUND"
        ],
        "fallback_media": {
          "url": "https://inaturalist-open-data.s3.amazonaws.com/photos/177395371/original.jpg",
          "references": "https://www.inaturalist.org/photos/177395371",
          "title": null,
          "creator": "Jack Johnson",
          "publisher": "iNaturalist",
          "license": "http://creativecommons.org/licenses/by-nc/4.0/",
          "rightsHolder": "Jack Johnson"
        }
      }
    },
    {
      "type": "Feature",
      "geometry": {
        "type": "Point",
        "coordinates": [
          -61.266667,
          10.75
        ]
      },
      "properties": {
        "gbifID": "1260914752",
        "species": "Passiflora tuberosa",
        "genus": "Passiflora",
        "family": "Passifloraceae",
        "scientificName": "Passiflora tuberosa Jacq.",
        "coordinateUncertaintyInMeters": "",
        "basisOfRecord": "PRESERVED_SPECIMEN",
        "eventDate": "1959-10-25",
        "country": null,
        "datasetName": "Tropicos",
        "publisher": "Missouri Botanical Garden",
        "license": "CC_BY_4_0",
        "issues": [
          "OCCURRENCE_STATUS_INFERRED_FROM_INDIVIDUAL_COUNT",
          "COORDINATE_ROUNDED",
          "COUNTRY_MISMATCH",
          "GEODETIC_DATUM_ASSUMED_WGS84",
          "CONTINENT_COORDINATE_MISMATCH",
          "CONTINENT_COUNTRY_MISMATCH",
          "INSTITUTION_MATCH_FUZZY",
          "COLLECTION_MATCH_NONE",
          "TAXON_ID_NOT_FOUND"
        ],
        "fallback_media": {
          "url": "https://inaturalist-open-data.s3.amazonaws.com/photos/177395371/original.jpg",
          "references": "https://www.inaturalist.org/photos/177395371",
          "title": null,
          "creator": "Jack Johnson",
          "publisher": "iNaturalist",
          "license": "http://creativecommons.org/licenses/by-nc/4.0/",
          "rightsHolder": "Jack Johnson"
        }
      }
    },
    {
      "type": "Feature",
      "geometry": {
        "type": "Point",
        "coordinates": [
          -61.45,
          10.3
        ]
      },
      "properties": {
        "gbifID": "4061690354",
        "species": "Passiflora tuberosa",
        "genus": "Passiflora",
        "family": "Passifloraceae",
        "scientificName": "Passiflora tuberosa Jacq.",
        "coordinateUncertaintyInMeters": "",
        "basisOfRecord": "PRESERVED_SPECIMEN",
        "eventDate": "",
        "country": null,
        "datasetName": "Tropicos",
        "publisher": "Missouri Botanical Garden",
        "license": "CC_BY_4_0",
        "issues": [
          "OCCURRENCE_STATUS_INFERRED_FROM_INDIVIDUAL_COUNT",
          "COUNTRY_MISMATCH",
          "GEODETIC_DATUM_ASSUMED_WGS84",
          "CONTINENT_COORDINATE_MISMATCH",
          "CONTINENT_COUNTRY_MISMATCH",
          "INSTITUTION_MATCH_NONE",
          "TAXON_ID_NOT_FOUND"
        ],
        "fallback_media": {
          "url": "https://inaturalist-open-data.s3.amazonaws.com/photos/177395371/original.jpg",
          "references": "https://www.inaturalist.org/photos/177395371",
          "title": null,
          "creator": "Jack Johnson",
          "publisher": "iNaturalist",
          "license": "http://creativecommons.org/licenses/by-nc/4.0/",
          "rightsHolder": "Jack Johnson"
        }
      }
    },
    {
      "type": "Feature",
      "geometry": {
        "type": "Point",
        "coordinates": [
          -61.3,
          10.783333
        ]
      },
      "properties": {
        "gbifID": "1257526647",
        "species": "Passiflora tuberosa",
        "genus": "Passiflora",
        "family": "Passifloraceae",
        "scientificName": "Passiflora tuberosa Jacq.",
        "coordinateUncertaintyInMeters": "",
        "basisOfRecord": "PRESERVED_SPECIMEN",
        "eventDate": "1933-11-28",
        "country": null,
        "datasetName": "Tropicos",
        "publisher": "Missouri Botanical Garden",
        "license": "CC_BY_4_0",
        "issues": [
          "OCCURRENCE_STATUS_INFERRED_FROM_INDIVIDUAL_COUNT",
          "COORDINATE_ROUNDED",
          "COUNTRY_MISMATCH",
          "GEODETIC_DATUM_ASSUMED_WGS84",
          "CONTINENT_COORDINATE_MISMATCH",
          "CONTINENT_COUNTRY_MISMATCH",
          "AMBIGUOUS_INSTITUTION",
          "TAXON_ID_NOT_FOUND"
        ],
        "fallback_media": {
          "url": "https://inaturalist-open-data.s3.amazonaws.com/photos/177395371/original.jpg",
          "references": "https://www.inaturalist.org/photos/177395371",
          "title": null,
          "creator": "Jack Johnson",
          "publisher": "iNaturalist",
          "license": "http://creativecommons.org/licenses/by-nc/4.0/",
          "rightsHolder": "Jack Johnson"
        }
      }
    },
    {
      "type": "Feature",
      "geometry": {
        "type": "Point",
        "coordinates": [
          -60.733333,
          11.2
        ]
      },
      "properties": {
        "gbifID": "1257544746",
        "species": "Passiflora tuberosa",
        "genus": "Passiflora",
        "family": "Passifloraceae",
        "scientificName": "Passiflora tuberosa Jacq.",
        "coordinateUncertaintyInMeters": "",
        "basisOfRecord": "PRESERVED_SPECIMEN",
        "eventDate": "",
        "country": null,
        "datasetName": "Tropicos",
        "publisher": "Missouri Botanical Garden",
        "license": "CC_BY_4_0",
        "issues": [
          "OCCURRENCE_STATUS_INFERRED_FROM_INDIVIDUAL_COUNT",
          "COORDINATE_ROUNDED",
          "COUNTRY_MISMATCH",
          "GEODETIC_DATUM_ASSUMED_WGS84",
          "CONTINENT_COORDINATE_MISMATCH",
          "CONTINENT_COUNTRY_MISMATCH",
          "INSTITUTION_MATCH_FUZZY",
          "COLLECTION_MATCH_NONE",
          "TAXON_ID_NOT_FOUND"
        ],
        "fallback_media": {
          "url": "https://inaturalist-open-data.s3.amazonaws.com/photos/177395371/original.jpg",
          "references": "https://www.inaturalist.org/photos/177395371",
          "title": null,
          "creator": "Jack Johnson",
          "publisher": "iNaturalist",
          "license": "http://creativecommons.org/licenses/by-nc/4.0/",
          "rightsHolder": "Jack Johnson"
        }
      }
    },
    {
      "type": "Feature",
      "geometry": {
        "type": "Point",
        "coordinates": [
          -61.266667,
          10.716667
        ]
      },
      "properties": {
        "gbifID": "1260914738",
        "species": "Passiflora tuberosa",
        "genus": "Passiflora",
        "family": "Passifloraceae",
        "scientificName": "Passiflora tuberosa Jacq.",
        "coordinateUncertaintyInMeters": "",
        "basisOfRecord": "PRESERVED_SPECIMEN",
        "eventDate": "1960-06-21",
        "country": null,
        "datasetName": "Tropicos",
        "publisher": "Missouri Botanical Garden",
        "license": "CC_BY_4_0",
        "issues": [
          "OCCURRENCE_STATUS_INFERRED_FROM_INDIVIDUAL_COUNT",
          "COORDINATE_ROUNDED",
          "COUNTRY_MISMATCH",
          "GEODETIC_DATUM_ASSUMED_WGS84",
          "CONTINENT_COORDINATE_MISMATCH",
          "CONTINENT_COUNTRY_MISMATCH",
          "INSTITUTION_MATCH_FUZZY",
          "COLLECTION_MATCH_NONE",
          "TAXON_ID_NOT_FOUND"
        ],
        "fallback_media": {
          "url": "https://inaturalist-open-data.s3.amazonaws.com/photos/177395371/original.jpg",
          "references": "https://www.inaturalist.org/photos/177395371",
          "title": null,
          "creator": "Jack Johnson",
          "publisher": "iNaturalist",
          "license": "http://creativecommons.org/licenses/by-nc/4.0/",
          "rightsHolder": "Jack Johnson"
        }
      }
    },
    {
      "type": "Feature",
      "geometry": {
        "type": "Point",
        "coordinates": [
          -61.25,
          10.716667
        ]
      },
      "properties": {
        "gbifID": "4061648345",
        "species": "Passiflora tuberosa",
        "genus": "Passiflora",
        "family": "Passifloraceae",
        "scientificName": "Passiflora tuberosa Jacq.",
        "coordinateUncertaintyInMeters": "",
        "basisOfRecord": "PRESERVED_SPECIMEN",
        "eventDate": "",
        "country": null,
        "datasetName": "Tropicos",
        "publisher": "Missouri Botanical Garden",
        "license": "CC_BY_4_0",
        "issues": [
          "OCCURRENCE_STATUS_INFERRED_FROM_INDIVIDUAL_COUNT",
          "COORDINATE_ROUNDED",
          "COUNTRY_MISMATCH",
          "GEODETIC_DATUM_ASSUMED_WGS84",
          "CONTINENT_COORDINATE_MISMATCH",
          "CONTINENT_COUNTRY_MISMATCH",
          "INSTITUTION_MATCH_NONE",
          "TAXON_ID_NOT_FOUND"
        ],
        "fallback_media": {
          "url": "https://inaturalist-open-data.s3.amazonaws.com/photos/177395371/original.jpg",
          "references": "https://www.inaturalist.org/photos/177395371",
          "title": null,
          "creator": "Jack Johnson",
          "publisher": "iNaturalist",
          "license": "http://creativecommons.org/licenses/by-nc/4.0/",
          "rightsHolder": "Jack Johnson"
        }
      }
    },
    {
      "type": "Feature",
      "geometry": {
        "type": "Point",
        "coordinates": [
          -70.116667,
          -4.316667
        ]
      },
      "properties": {
        "gbifID": "1257544926",
        "species": "Passiflora tuberosa",
        "genus": "Passiflora",
        "family": "Passifloraceae",
        "scientificName": "Passiflora tuberosa Jacq.",
        "coordinateUncertaintyInMeters": "",
        "basisOfRecord": "PRESERVED_SPECIMEN",
        "eventDate": "",
        "country": null,
        "datasetName": "Tropicos",
        "publisher": "Missouri Botanical Garden",
        "license": "CC_BY_4_0",
        "issues": [
          "OCCURRENCE_STATUS_INFERRED_FROM_INDIVIDUAL_COUNT",
          "COORDINATE_ROUNDED",
          "GEODETIC_DATUM_ASSUMED_WGS84",
          "INSTITUTION_MATCH_FUZZY",
          "COLLECTION_MATCH_NONE",
          "TAXON_ID_NOT_FOUND"
        ],
        "fallback_media": {
          "url": "https://inaturalist-open-data.s3.amazonaws.com/photos/177395371/original.jpg",
          "references": "https://www.inaturalist.org/photos/177395371",
          "title": null,
          "creator": "Jack Johnson",
          "publisher": "iNaturalist",
          "license": "http://creativecommons.org/licenses/by-nc/4.0/",
          "rightsHolder": "Jack Johnson"
        }
      }
    },
    {
      "type": "Feature",
      "geometry": {
        "type": "Point",
        "coordinates": [
          -61.533333,
          10.733333
        ]
      },
      "properties": {
        "gbifID": "1257587649",
        "species": "Passiflora tuberosa",
        "genus": "Passiflora",
        "family": "Passifloraceae",
        "scientificName": "Passiflora tuberosa Jacq.",
        "coordinateUncertaintyInMeters": "",
        "basisOfRecord": "PRESERVED_SPECIMEN",
        "eventDate": "1901-09-08",
        "country": null,
        "datasetName": "Tropicos",
        "publisher": "Missouri Botanical Garden",
        "license": "CC_BY_4_0",
        "issues": [
          "OCCURRENCE_STATUS_INFERRED_FROM_INDIVIDUAL_COUNT",
          "COORDINATE_ROUNDED",
          "COUNTRY_MISMATCH",
          "GEODETIC_DATUM_ASSUMED_WGS84",
          "CONTINENT_COORDINATE_MISMATCH",
          "CONTINENT_COUNTRY_MISMATCH",
          "INSTITUTION_MATCH_FUZZY",
          "COLLECTION_MATCH_NONE",
          "TAXON_ID_NOT_FOUND"
        ],
        "fallback_media": {
          "url": "https://inaturalist-open-data.s3.amazonaws.com/photos/177395371/original.jpg",
          "references": "https://www.inaturalist.org/photos/177395371",
          "title": null,
          "creator": "Jack Johnson",
          "publisher": "iNaturalist",
          "license": "http://creativecommons.org/licenses/by-nc/4.0/",
          "rightsHolder": "Jack Johnson"
        }
      }
    },
    {
      "type": "Feature",
      "geometry": {
        "type": "Point",
        "coordinates": [
          -70.05,
          9.383333
        ]
      },
      "properties": {
        "gbifID": "4061021793",
        "species": "Passiflora tuberosa",
        "genus": "Passiflora",
        "family": "Passifloraceae",
        "scientificName": "Passiflora tuberosa Jacq.",
        "coordinateUncertaintyInMeters": "",
        "basisOfRecord": "PRESERVED_SPECIMEN",
        "eventDate": "1971-05-22",
        "country": null,
        "datasetName": "Tropicos",
        "publisher": "Missouri Botanical Garden",
        "license": "CC_BY_4_0",
        "issues": [
          "OCCURRENCE_STATUS_INFERRED_FROM_INDIVIDUAL_COUNT",
          "COORDINATE_ROUNDED",
          "GEODETIC_DATUM_ASSUMED_WGS84",
          "INSTITUTION_MATCH_NONE",
          "TAXON_ID_NOT_FOUND"
        ],
        "fallback_media": {
          "url": "https://inaturalist-open-data.s3.amazonaws.com/photos/177395371/original.jpg",
          "references": "https://www.inaturalist.org/photos/177395371",
          "title": null,
          "creator": "Jack Johnson",
          "publisher": "iNaturalist",
          "license": "http://creativecommons.org/licenses/by-nc/4.0/",
          "rightsHolder": "Jack Johnson"
        }
      }
    },
    {
      "type": "Feature",
      "geometry": {
        "type": "Point",
        "coordinates": [
          -59.666667,
          3.616667
        ]
      },
      "properties": {
        "gbifID": "4060984054",
        "species": "Passiflora tuberosa",
        "genus": "Passiflora",
        "family": "Passifloraceae",
        "scientificName": "Passiflora tuberosa Jacq.",
        "coordinateUncertaintyInMeters": "",
        "basisOfRecord": "PRESERVED_SPECIMEN",
        "eventDate": "1835",
        "country": null,
        "datasetName": "Tropicos",
        "publisher": "Missouri Botanical Garden",
        "license": "CC_BY_4_0",
        "issues": [
          "OCCURRENCE_STATUS_INFERRED_FROM_INDIVIDUAL_COUNT",
          "COORDINATE_ROUNDED",
          "GEODETIC_DATUM_ASSUMED_WGS84",
          "AMBIGUOUS_INSTITUTION",
          "TAXON_ID_NOT_FOUND"
        ],
        "fallback_media": {
          "url": "https://inaturalist-open-data.s3.amazonaws.com/photos/177395371/original.jpg",
          "references": "https://www.inaturalist.org/photos/177395371",
          "title": null,
          "creator": "Jack Johnson",
          "publisher": "iNaturalist",
          "license": "http://creativecommons.org/licenses/by-nc/4.0/",
          "rightsHolder": "Jack Johnson"
        }
      }
    },
    {
      "type": "Feature",
      "geometry": {
        "type": "Point",
        "coordinates": [
          -61.458056,
          10.280833
        ]
      },
      "properties": {
        "gbifID": "1257526649",
        "species": "Passiflora tuberosa",
        "genus": "Passiflora",
        "family": "Passifloraceae",
        "scientificName": "Passiflora tuberosa Jacq.",
        "coordinateUncertaintyInMeters": "",
        "basisOfRecord": "PRESERVED_SPECIMEN",
        "eventDate": "1953-02-01",
        "country": null,
        "datasetName": "Tropicos",
        "publisher": "Missouri Botanical Garden",
        "license": "CC_BY_4_0",
        "issues": [
          "OCCURRENCE_STATUS_INFERRED_FROM_INDIVIDUAL_COUNT",
          "COORDINATE_ROUNDED",
          "COUNTRY_MISMATCH",
          "GEODETIC_DATUM_ASSUMED_WGS84",
          "CONTINENT_COORDINATE_MISMATCH",
          "CONTINENT_COUNTRY_MISMATCH",
          "AMBIGUOUS_INSTITUTION",
          "TAXON_ID_NOT_FOUND"
        ],
        "fallback_media": {
          "url": "https://inaturalist-open-data.s3.amazonaws.com/photos/177395371/original.jpg",
          "references": "https://www.inaturalist.org/photos/177395371",
          "title": null,
          "creator": "Jack Johnson",
          "publisher": "iNaturalist",
          "license": "http://creativecommons.org/licenses/by-nc/4.0/",
          "rightsHolder": "Jack Johnson"
        }
      }
    },
    {
      "type": "Feature",
      "geometry": {
        "type": "Point",
        "coordinates": [
          -71.066667,
          8.616667
        ]
      },
      "properties": {
        "gbifID": "1257529109",
        "species": "Passiflora tuberosa",
        "genus": "Passiflora",
        "family": "Passifloraceae",
        "scientificName": "Passiflora tuberosa Jacq.",
        "coordinateUncertaintyInMeters": "",
        "basisOfRecord": "PRESERVED_SPECIMEN",
        "eventDate": "1977-10-20",
        "country": null,
        "datasetName": "Tropicos",
        "publisher": "Missouri Botanical Garden",
        "license": "CC_BY_4_0",
        "issues": [
          "OCCURRENCE_STATUS_INFERRED_FROM_INDIVIDUAL_COUNT",
          "COORDINATE_ROUNDED",
          "GEODETIC_DATUM_ASSUMED_WGS84",
          "AMBIGUOUS_INSTITUTION",
          "TAXON_ID_NOT_FOUND"
        ],
        "fallback_media": {
          "url": "https://inaturalist-open-data.s3.amazonaws.com/photos/177395371/original.jpg",
          "references": "https://www.inaturalist.org/photos/177395371",
          "title": null,
          "creator": "Jack Johnson",
          "publisher": "iNaturalist",
          "license": "http://creativecommons.org/licenses/by-nc/4.0/",
          "rightsHolder": "Jack Johnson"
        }
      }
    },
    {
      "type": "Feature",
      "geometry": {
        "type": "Point",
        "coordinates": [
          -66.461667,
          10.051389
        ]
      },
      "properties": {
        "gbifID": "1260890941",
        "species": "Passiflora tuberosa",
        "genus": "Passiflora",
        "family": "Passifloraceae",
        "scientificName": "Passiflora tuberosa Jacq.",
        "coordinateUncertaintyInMeters": "",
        "basisOfRecord": "PRESERVED_SPECIMEN",
        "eventDate": "1987-06-27",
        "country": null,
        "datasetName": "Tropicos",
        "publisher": "Missouri Botanical Garden",
        "license": "CC_BY_4_0",
        "issues": [
          "OCCURRENCE_STATUS_INFERRED_FROM_INDIVIDUAL_COUNT",
          "COORDINATE_ROUNDED",
          "GEODETIC_DATUM_ASSUMED_WGS84",
          "INSTITUTION_MATCH_FUZZY",
          "COLLECTION_MATCH_NONE",
          "TAXON_ID_NOT_FOUND"
        ],
        "fallback_media": {
          "url": "https://inaturalist-open-data.s3.amazonaws.com/photos/177395371/original.jpg",
          "references": "https://www.inaturalist.org/photos/177395371",
          "title": null,
          "creator": "Jack Johnson",
          "publisher": "iNaturalist",
          "license": "http://creativecommons.org/licenses/by-nc/4.0/",
          "rightsHolder": "Jack Johnson"
        }
      }
    },
    {
      "type": "Feature",
      "geometry": {
        "type": "Point",
        "coordinates": [
          -69.854722,
          9.403889
        ]
      },
      "properties": {
        "gbifID": "2268886599",
        "species": "Passiflora tuberosa",
        "genus": "Passiflora",
        "family": "Passifloraceae",
        "scientificName": "Passiflora tuberosa Jacq.",
        "coordinateUncertaintyInMeters": "",
        "basisOfRecord": "PRESERVED_SPECIMEN",
        "eventDate": "2009-03-22",
        "country": null,
        "datasetName": "Tropicos",
        "publisher": "Missouri Botanical Garden",
        "license": "CC_BY_4_0",
        "issues": [
          "OCCURRENCE_STATUS_INFERRED_FROM_INDIVIDUAL_COUNT",
          "COORDINATE_ROUNDED",
          "GEODETIC_DATUM_ASSUMED_WGS84",
          "INSTITUTION_MATCH_FUZZY",
          "COLLECTION_MATCH_NONE",
          "TAXON_ID_NOT_FOUND"
        ],
        "fallback_media": {
          "url": "https://inaturalist-open-data.s3.amazonaws.com/photos/177395371/original.jpg",
          "references": "https://www.inaturalist.org/photos/177395371",
          "title": null,
          "creator": "Jack Johnson",
          "publisher": "iNaturalist",
          "license": "http://creativecommons.org/licenses/by-nc/4.0/",
          "rightsHolder": "Jack Johnson"
        }
      }
    },
    {
      "type": "Feature",
      "geometry": {
        "type": "Point",
        "coordinates": [
          -61.533333,
          10.683333
        ]
      },
      "properties": {
        "gbifID": "4061077712",
        "species": "Passiflora tuberosa",
        "genus": "Passiflora",
        "family": "Passifloraceae",
        "scientificName": "Passiflora tuberosa Jacq.",
        "coordinateUncertaintyInMeters": "",
        "basisOfRecord": "PRESERVED_SPECIMEN",
        "eventDate": "",
        "country": null,
        "datasetName": "Tropicos",
        "publisher": "Missouri Botanical Garden",
        "license": "CC_BY_4_0",
        "issues": [
          "OCCURRENCE_STATUS_INFERRED_FROM_INDIVIDUAL_COUNT",
          "COORDINATE_ROUNDED",
          "COUNTRY_MISMATCH",
          "GEODETIC_DATUM_ASSUMED_WGS84",
          "CONTINENT_COORDINATE_MISMATCH",
          "CONTINENT_COUNTRY_MISMATCH",
          "INSTITUTION_MATCH_NONE",
          "TAXON_ID_NOT_FOUND"
        ],
        "fallback_media": {
          "url": "https://inaturalist-open-data.s3.amazonaws.com/photos/177395371/original.jpg",
          "references": "https://www.inaturalist.org/photos/177395371",
          "title": null,
          "creator": "Jack Johnson",
          "publisher": "iNaturalist",
          "license": "http://creativecommons.org/licenses/by-nc/4.0/",
          "rightsHolder": "Jack Johnson"
        }
      }
    },
    {
      "type": "Feature",
      "geometry": {
        "type": "Point",
        "coordinates": [
          -60.61,
          11.226667
        ]
      },
      "properties": {
        "gbifID": "1257526650",
        "species": "Passiflora tuberosa",
        "genus": "Passiflora",
        "family": "Passifloraceae",
        "scientificName": "Passiflora tuberosa Jacq.",
        "coordinateUncertaintyInMeters": "",
        "basisOfRecord": "PRESERVED_SPECIMEN",
        "eventDate": "1937-10-12",
        "country": null,
        "datasetName": "Tropicos",
        "publisher": "Missouri Botanical Garden",
        "license": "CC_BY_4_0",
        "issues": [
          "OCCURRENCE_STATUS_INFERRED_FROM_INDIVIDUAL_COUNT",
          "COORDINATE_ROUNDED",
          "COUNTRY_MISMATCH",
          "GEODETIC_DATUM_ASSUMED_WGS84",
          "CONTINENT_COORDINATE_MISMATCH",
          "CONTINENT_COUNTRY_MISMATCH",
          "AMBIGUOUS_INSTITUTION",
          "TAXON_ID_NOT_FOUND"
        ],
        "fallback_media": {
          "url": "https://inaturalist-open-data.s3.amazonaws.com/photos/177395371/original.jpg",
          "references": "https://www.inaturalist.org/photos/177395371",
          "title": null,
          "creator": "Jack Johnson",
          "publisher": "iNaturalist",
          "license": "http://creativecommons.org/licenses/by-nc/4.0/",
          "rightsHolder": "Jack Johnson"
        }
      }
    },
    {
      "type": "Feature",
      "geometry": {
        "type": "Point",
        "coordinates": [
          -64.166667,
          10.466667
        ]
      },
      "properties": {
        "gbifID": "1257544900",
        "species": "Passiflora tuberosa",
        "genus": "Passiflora",
        "family": "Passifloraceae",
        "scientificName": "Passiflora tuberosa Jacq.",
        "coordinateUncertaintyInMeters": "",
        "basisOfRecord": "PRESERVED_SPECIMEN",
        "eventDate": "",
        "country": null,
        "datasetName": "Tropicos",
        "publisher": "Missouri Botanical Garden",
        "license": "CC_BY_4_0",
        "issues": [
          "OCCURRENCE_STATUS_INFERRED_FROM_INDIVIDUAL_COUNT",
          "COORDINATE_ROUNDED",
          "GEODETIC_DATUM_ASSUMED_WGS84",
          "INSTITUTION_MATCH_FUZZY",
          "COLLECTION_MATCH_NONE",
          "TAXON_ID_NOT_FOUND"
        ],
        "fallback_media": {
          "url": "https://inaturalist-open-data.s3.amazonaws.com/photos/177395371/original.jpg",
          "references": "https://www.inaturalist.org/photos/177395371",
          "title": null,
          "creator": "Jack Johnson",
          "publisher": "iNaturalist",
          "license": "http://creativecommons.org/licenses/by-nc/4.0/",
          "rightsHolder": "Jack Johnson"
        }
      }
    },
    {
      "type": "Feature",
      "geometry": {
        "type": "Point",
        "coordinates": [
          -67.6525,
          10.322222
        ]
      },
      "properties": {
        "gbifID": "1257603518",
        "species": "Passiflora tuberosa",
        "genus": "Passiflora",
        "family": "Passifloraceae",
        "scientificName": "Passiflora tuberosa Jacq.",
        "coordinateUncertaintyInMeters": "",
        "basisOfRecord": "PRESERVED_SPECIMEN",
        "eventDate": "2009-03-17",
        "country": null,
        "datasetName": "Tropicos",
        "publisher": "Missouri Botanical Garden",
        "license": "CC_BY_4_0",
        "issues": [
          "OCCURRENCE_STATUS_INFERRED_FROM_INDIVIDUAL_COUNT",
          "COORDINATE_ROUNDED",
          "GEODETIC_DATUM_ASSUMED_WGS84",
          "INSTITUTION_MATCH_FUZZY",
          "COLLECTION_MATCH_NONE",
          "TAXON_ID_NOT_FOUND"
        ],
        "fallback_media": {
          "url": "https://inaturalist-open-data.s3.amazonaws.com/photos/177395371/original.jpg",
          "references": "https://www.inaturalist.org/photos/177395371",
          "title": null,
          "creator": "Jack Johnson",
          "publisher": "iNaturalist",
          "license": "http://creativecommons.org/licenses/by-nc/4.0/",
          "rightsHolder": "Jack Johnson"
        }
      }
    },
    {
      "type": "Feature",
      "geometry": {
        "type": "Point",
        "coordinates": [
          -60.666667,
          11.25
        ]
      },
      "properties": {
        "gbifID": "1257544744",
        "species": "Passiflora tuberosa",
        "genus": "Passiflora",
        "family": "Passifloraceae",
        "scientificName": "Passiflora tuberosa Jacq.",
        "coordinateUncertaintyInMeters": "",
        "basisOfRecord": "PRESERVED_SPECIMEN",
        "eventDate": "",
        "country": null,
        "datasetName": "Tropicos",
        "publisher": "Missouri Botanical Garden",
        "license": "CC_BY_4_0",
        "issues": [
          "OCCURRENCE_STATUS_INFERRED_FROM_INDIVIDUAL_COUNT",
          "COORDINATE_ROUNDED",
          "COUNTRY_MISMATCH",
          "GEODETIC_DATUM_ASSUMED_WGS84",
          "CONTINENT_COORDINATE_MISMATCH",
          "CONTINENT_COUNTRY_MISMATCH",
          "INSTITUTION_MATCH_FUZZY",
          "COLLECTION_MATCH_NONE",
          "TAXON_ID_NOT_FOUND"
        ],
        "fallback_media": {
          "url": "https://inaturalist-open-data.s3.amazonaws.com/photos/177395371/original.jpg",
          "references": "https://www.inaturalist.org/photos/177395371",
          "title": null,
          "creator": "Jack Johnson",
          "publisher": "iNaturalist",
          "license": "http://creativecommons.org/licenses/by-nc/4.0/",
          "rightsHolder": "Jack Johnson"
        }
      }
    },
    {
      "type": "Feature",
      "geometry": {
        "type": "Point",
        "coordinates": [
          -61.384627,
          10.744808
        ]
      },
      "properties": {
        "gbifID": "3466262705",
        "species": "Passiflora tuberosa",
        "genus": "Passiflora",
        "family": "Passifloraceae",
        "scientificName": "Passiflora tuberosa Jacq.",
        "coordinateUncertaintyInMeters": "173.0",
        "basisOfRecord": "HUMAN_OBSERVATION",
        "eventDate": "2022-01-11T11:27:21",
        "country": null,
        "datasetName": "iNaturalist research-grade observations",
        "publisher": "iNaturalist.org",
        "license": "CC_BY_NC_4_0",
        "issues": [
          "COORDINATE_ROUNDED",
          "CONTINENT_DERIVED_FROM_COORDINATES",
          "TAXON_ID_NOT_FOUND"
        ],
        "media": [
          {
            "url": "https://inaturalist-open-data.s3.amazonaws.com/photos/177395371/original.jpg",
            "references": "https://www.inaturalist.org/photos/177395371",
            "title": null,
            "creator": "Jack Johnson",
            "publisher": "iNaturalist",
            "license": "http://creativecommons.org/licenses/by-nc/4.0/",
            "rightsHolder": "Jack Johnson"
          },
          {
            "url": "https://inaturalist-open-data.s3.amazonaws.com/photos/177395359/original.jpg",
            "references": "https://www.inaturalist.org/photos/177395359",
            "title": null,
            "creator": "Jack Johnson",
            "publisher": "iNaturalist",
            "license": "http://creativecommons.org/licenses/by-nc/4.0/",
            "rightsHolder": "Jack Johnson"
          },
          {
            "url": "https://inaturalist-open-data.s3.amazonaws.com/photos/177395376/original.jpg",
            "references": "https://www.inaturalist.org/photos/177395376",
            "title": null,
            "creator": "Jack Johnson",
            "publisher": "iNaturalist",
            "license": "http://creativecommons.org/licenses/by-nc/4.0/",
            "rightsHolder": "Jack Johnson"
          }
        ]
      }
    },
    {
      "type": "Feature",
      "geometry": {
        "type": "Point",
        "coordinates": [
          -60.669596,
          11.237144
        ]
      },
      "properties": {
        "gbifID": "3468672744",
        "species": "Passiflora tuberosa",
        "genus": "Passiflora",
        "family": "Passifloraceae",
        "scientificName": "Passiflora tuberosa Jacq.",
        "coordinateUncertaintyInMeters": "",
        "basisOfRecord": "HUMAN_OBSERVATION",
        "eventDate": "2022-02-05T11:55:55Z",
        "country": null,
        "datasetName": "iNaturalist research-grade observations",
        "publisher": "iNaturalist.org",
        "license": "CC_BY_NC_4_0",
        "issues": [
          "COORDINATE_ROUNDED",
          "CONTINENT_DERIVED_FROM_COORDINATES",
          "TAXON_ID_NOT_FOUND"
        ],
        "media": [
          {
            "url": "https://inaturalist-open-data.s3.amazonaws.com/photos/178495924/original.jpeg",
            "references": "https://www.inaturalist.org/photos/178495924",
            "title": null,
            "creator": "Kyle Dyer",
            "publisher": "iNaturalist",
            "license": "http://creativecommons.org/licenses/by-nc/4.0/",
            "rightsHolder": "Kyle Dyer"
          }
        ]
      }
    },
    {
      "type": "Feature",
      "geometry": {
        "type": "Point",
        "coordinates": [
          -61.258758,
          10.750624
        ]
      },
      "properties": {
        "gbifID": "4096861558",
        "species": "Passiflora tuberosa",
        "genus": "Passiflora",
        "family": "Passifloraceae",
        "scientificName": "Passiflora tuberosa Jacq.",
        "coordinateUncertaintyInMeters": "65.0",
        "basisOfRecord": "HUMAN_OBSERVATION",
        "eventDate": "2022-12-12T21:58",
        "country": null,
        "datasetName": "iNaturalist research-grade observations",
        "publisher": "iNaturalist.org",
        "license": "CC_BY_4_0",
        "issues": [
          "COORDINATE_ROUNDED",
          "CONTINENT_DERIVED_FROM_COORDINATES",
          "TAXON_ID_NOT_FOUND"
        ],
        "media": [
          {
            "url": "https://inaturalist-open-data.s3.amazonaws.com/photos/247705072/original.jpeg",
            "references": "https://www.inaturalist.org/photos/247705072",
            "title": null,
            "creator": "Stephanie Tran",
            "publisher": "iNaturalist",
            "license": "http://creativecommons.org/licenses/by/4.0/",
            "rightsHolder": "Stephanie Tran"
          },
          {
            "url": "https://inaturalist-open-data.s3.amazonaws.com/photos/247705077/original.jpeg",
            "references": "https://www.inaturalist.org/photos/247705077",
            "title": null,
            "creator": "Stephanie Tran",
            "publisher": "iNaturalist",
            "license": "http://creativecommons.org/licenses/by/4.0/",
            "rightsHolder": "Stephanie Tran"
          }
        ]
      }
    },
    {
      "type": "Feature",
      "geometry": {
        "type": "Point",
        "coordinates": [
          -61.50136,
          10.68343
        ]
      },
      "properties": {
        "gbifID": "4129686515",
        "species": "Passiflora tuberosa",
        "genus": "Passiflora",
        "family": "Passifloraceae",
        "scientificName": "Passiflora tuberosa Jacq.",
        "coordinateUncertaintyInMeters": "",
        "basisOfRecord": "HUMAN_OBSERVATION",
        "eventDate": "2023-04-11T16:59:45",
        "country": null,
        "datasetName": "iNaturalist research-grade observations",
        "publisher": "iNaturalist.org",
        "license": "CC_BY_NC_4_0",
        "issues": [
          "COORDINATE_ROUNDED",
          "CONTINENT_DERIVED_FROM_COORDINATES",
          "TAXON_ID_NOT_FOUND"
        ],
        "media": [
          {
            "url": "https://inaturalist-open-data.s3.amazonaws.com/photos/266951304/original.jpeg",
            "references": "https://www.inaturalist.org/photos/266951304",
            "title": null,
            "creator": "jon868",
            "publisher": "iNaturalist",
            "license": "http://creativecommons.org/licenses/by-nc/4.0/",
            "rightsHolder": "jon868"
          }
        ]
      }
    },
    {
      "type": "Feature",
      "geometry": {
        "type": "Point",
        "coordinates": [
          -61.321572,
          10.754342
        ]
      },
      "properties": {
        "gbifID": "4172058045",
        "species": "Passiflora tuberosa",
        "genus": "Passiflora",
        "family": "Passifloraceae",
        "scientificName": "Passiflora tuberosa Jacq.",
        "coordinateUncertaintyInMeters": "1780.0",
        "basisOfRecord": "HUMAN_OBSERVATION",
        "eventDate": "1972-03-15T09:39",
        "country": null,
        "datasetName": "iNaturalist research-grade observations",
        "publisher": "iNaturalist.org",
        "license": "CC_BY_NC_4_0",
        "issues": [
          "COORDINATE_ROUNDED",
          "CONTINENT_DERIVED_FROM_COORDINATES",
          "TAXON_ID_NOT_FOUND"
        ],
        "media": [
          {
            "url": "https://inaturalist-open-data.s3.amazonaws.com/photos/307368742/original.jpg",
            "references": "https://www.inaturalist.org/photos/307368742",
            "title": null,
            "creator": "leg9",
            "publisher": "iNaturalist",
            "license": "http://creativecommons.org/licenses/by-nc/4.0/",
            "rightsHolder": "leg9"
          }
        ]
      }
    },
    {
      "type": "Feature",
      "geometry": {
        "type": "Point",
        "coordinates": [
          -61.307547,
          10.723262
        ]
      },
      "properties": {
        "gbifID": "6234379905",
        "species": "Passiflora tuberosa",
        "genus": "Passiflora",
        "family": "Passifloraceae",
        "scientificName": "Passiflora tuberosa Jacq.",
        "coordinateUncertaintyInMeters": "210.0",
        "basisOfRecord": "HUMAN_OBSERVATION",
        "eventDate": "2026-03-14",
        "country": null,
        "datasetName": "iNaturalist research-grade observations",
        "publisher": "iNaturalist.org",
        "license": "CC_BY_NC_4_0",
        "issues": [
          "COORDINATE_ROUNDED",
          "CONTINENT_DERIVED_FROM_COORDINATES",
          "TAXON_ID_NOT_FOUND"
        ],
        "media": [
          {
            "url": "https://inaturalist-open-data.s3.amazonaws.com/photos/625118222/original.jpg",
            "references": "https://www.inaturalist.org/photos/625118222",
            "title": null,
            "creator": "Serene Ramjohn",
            "publisher": "iNaturalist",
            "license": "http://creativecommons.org/licenses/by-nc/4.0/",
            "rightsHolder": "Serene Ramjohn"
          }
        ]
      }
    },
    {
      "type": "Feature",
      "geometry": {
        "type": "Point",
        "coordinates": [
          -61.033333,
          10.516667
        ]
      },
      "properties": {
        "gbifID": "4130813506",
        "species": "Passiflora tuberosa",
        "genus": "Passiflora",
        "family": "Passifloraceae",
        "scientificName": "Passiflora tuberosa Jacq.",
        "coordinateUncertaintyInMeters": "",
        "basisOfRecord": "PRESERVED_SPECIMEN",
        "eventDate": "2007-04-20",
        "country": null,
        "datasetName": "Passifloraceae",
        "publisher": "National Herbarium of Trinidad and Tobago",
        "license": "CC_BY_4_0",
        "issues": [
          "CONTINENT_DERIVED_FROM_COORDINATES"
        ],
        "fallback_media": {
          "url": "https://inaturalist-open-data.s3.amazonaws.com/photos/177395371/original.jpg",
          "references": "https://www.inaturalist.org/photos/177395371",
          "title": null,
          "creator": "Jack Johnson",
          "publisher": "iNaturalist",
          "license": "http://creativecommons.org/licenses/by-nc/4.0/",
          "rightsHolder": "Jack Johnson"
        }
      }
    }
  ]
}
