{
  "type": "FeatureCollection",
  "metadata": {
    "host_taxon": {
      "canonical_name": "Solanum triste",
      "rank": "species",
      "family": "Solanaceae",
      "genus": "Solanum",
      "species": "Solanum triste",
      "slug": "species_solanum_triste",
      "resolvable_to_gbif": true,
      "use_for_default_download": true,
      "association_count": 2,
      "butterfly_taxa": [
        "Hypoleria ocalea",
        "Pteronymia latilla"
      ],
      "confidence_counts": {
        "medium": 2
      },
      "occurrence_file": "occurrences/species_solanum_triste.geojson",
      "gbif_resolution": {
        "query": "Solanum triste",
        "rank": "species",
        "status": "resolved",
        "gbif_taxon_key": 2929094,
        "accepted_usage_key": null,
        "scientific_name": "Solanum triste Jacq.",
        "canonical_name": "Solanum triste",
        "gbif_rank": "SPECIES",
        "taxonomic_status": "ACCEPTED",
        "match_type": "EXACT",
        "confidence": 99,
        "kingdom": "Plantae",
        "family": "Solanaceae",
        "genus": "Solanum",
        "resolved_at": "2026-05-21T04:00:54+00:00"
      },
      "gbif_taxon_key": 2929094,
      "gbif_status": "resolved",
      "occurrence_count": 0,
      "occurrence_mode": "not_generated",
      "occurrence_cap": null
    },
    "gbif_resolution": {
      "query": "Solanum triste",
      "rank": "species",
      "status": "resolved",
      "gbif_taxon_key": 2929094,
      "accepted_usage_key": null,
      "scientific_name": "Solanum triste Jacq.",
      "canonical_name": "Solanum triste",
      "gbif_rank": "SPECIES",
      "taxonomic_status": "ACCEPTED",
      "match_type": "EXACT",
      "confidence": 99,
      "kingdom": "Plantae",
      "family": "Solanaceae",
      "genus": "Solanum",
      "resolved_at": "2026-05-21T04:00:54+00:00"
    },
    "occurrence_query": {
      "method": "gbif_download_api",
      "download_key": "0004690-260519110011954",
      "download_doi": "10.15468/dl.s2gcc3",
      "download_doi_url": "https://doi.org/10.15468/dl.s2gcc3",
      "limit": null,
      "dedupe": "Exact duplicate coordinates removed per taxon after DWCA download.",
      "filters": "GBIF Download API DWCA with TAXON_KEY, HAS_COORDINATE=true, HAS_GEOSPATIAL_ISSUE=false, OCCURRENCE_STATUS=PRESENT; app study extent and coordinate uncertainty <=100km applied locally.",
      "returned_unique_coordinate_records": 25
    },
    "scientific_caveat": "GBIF plant occurrences are sampling-biased context records and do not prove local host use or ecological availability for the butterfly.",
    "generated_at": "2026-05-21T15:57:25+00:00"
  },
  "features": [
    {
      "type": "Feature",
      "geometry": {
        "type": "Point",
        "coordinates": [
          -63.91666,
          10.25
        ]
      },
      "properties": {
        "gbifID": "1260372480",
        "species": "Solanum triste",
        "genus": "Solanum",
        "family": "Solanaceae",
        "scientificName": "Solanum triste Jacq.",
        "coordinateUncertaintyInMeters": "",
        "basisOfRecord": "PRESERVED_SPECIMEN",
        "eventDate": "1984-10-14",
        "country": null,
        "datasetName": "Tropicos",
        "publisher": "Missouri Botanical Garden",
        "license": "CC_BY_4_0",
        "issues": [
          "GEODETIC_DATUM_ASSUMED_WGS84",
          "INSTITUTION_MATCH_FUZZY",
          "COLLECTION_MATCH_NONE",
          "TAXON_ID_NOT_FOUND"
        ],
        "fallback_media": {
          "url": "https://d2jcv3kl45hlgi.cloudfront.net/e6513ebd355baec36cb8cb2056ab354d.jpg",
          "references": "http://specimens.kew.org/Herbarium/K000196436",
          "title": null,
          "creator": null,
          "publisher": null,
          "license": "http://creativecommons.org/licenses/by/4.0/",
          "rightsHolder": "Royal Botanic Gardens, Kew"
        }
      }
    },
    {
      "type": "Feature",
      "geometry": {
        "type": "Point",
        "coordinates": [
          -63.92,
          10.25
        ]
      },
      "properties": {
        "gbifID": "1843559192",
        "species": "Solanum triste",
        "genus": "Solanum",
        "family": "Solanaceae",
        "scientificName": "Solanum triste Jacq.",
        "coordinateUncertaintyInMeters": "",
        "basisOfRecord": "PRESERVED_SPECIMEN",
        "eventDate": "1984-10-14",
        "country": null,
        "datasetName": "NMNH Extant Biology",
        "publisher": "National Museum of Natural History, Smithsonian Institution",
        "license": "CC0_1_0",
        "issues": [
          "OCCURRENCE_STATUS_INFERRED_FROM_INDIVIDUAL_COUNT",
          "GEODETIC_DATUM_ASSUMED_WGS84"
        ],
        "media": [
          {
            "url": "https://collections.nmnh.si.edu/media/?i=12646959&h=2000",
            "references": null,
            "title": "02835031.tif",
            "creator": "Conveyor Belt",
            "publisher": "Smithsonian Institution, NMNH, Botany",
            "license": "http://creativecommons.org/publicdomain/zero/1.0/",
            "rightsHolder": null
          }
        ]
      }
    },
    {
      "type": "Feature",
      "geometry": {
        "type": "Point",
        "coordinates": [
          -61.4167,
          15.3167
        ]
      },
      "properties": {
        "gbifID": "123010044",
        "species": "Solanum triste",
        "genus": "Solanum",
        "family": "Solanaceae",
        "scientificName": "Solanum triste Jacq.",
        "coordinateUncertaintyInMeters": "",
        "basisOfRecord": "PRESERVED_SPECIMEN",
        "eventDate": "1992-06-05",
        "country": null,
        "datasetName": "",
        "publisher": "Fairchild Tropical Botanic Garden",
        "license": "CC_BY_4_0",
        "issues": [
          "GEODETIC_DATUM_ASSUMED_WGS84",
          "CONTINENT_DERIVED_FROM_COORDINATES",
          "INSTITUTION_COLLECTION_MISMATCH"
        ],
        "fallback_media": {
          "url": "https://d2jcv3kl45hlgi.cloudfront.net/e6513ebd355baec36cb8cb2056ab354d.jpg",
          "references": "http://specimens.kew.org/Herbarium/K000196436",
          "title": null,
          "creator": null,
          "publisher": null,
          "license": "http://creativecommons.org/licenses/by/4.0/",
          "rightsHolder": "Royal Botanic Gardens, Kew"
        }
      }
    },
    {
      "type": "Feature",
      "geometry": {
        "type": "Point",
        "coordinates": [
          -63.916667,
          10.25
        ]
      },
      "properties": {
        "gbifID": "1304580639",
        "species": "Solanum triste",
        "genus": "Solanum",
        "family": "Solanaceae",
        "scientificName": "Solanum triste Jacq.",
        "coordinateUncertaintyInMeters": "",
        "basisOfRecord": "OCCURRENCE",
        "eventDate": "1984-10-14",
        "country": null,
        "datasetName": "",
        "publisher": "Centro Internacional de Agricultura Tropical - CIAT",
        "license": "CC_BY_4_0",
        "issues": [
          "RECORDED_DATE_INVALID",
          "COORDINATE_ROUNDED",
          "GEODETIC_DATUM_ASSUMED_WGS84",
          "CONTINENT_DERIVED_FROM_COORDINATES"
        ],
        "fallback_media": {
          "url": "https://d2jcv3kl45hlgi.cloudfront.net/e6513ebd355baec36cb8cb2056ab354d.jpg",
          "references": "http://specimens.kew.org/Herbarium/K000196436",
          "title": null,
          "creator": null,
          "publisher": null,
          "license": "http://creativecommons.org/licenses/by/4.0/",
          "rightsHolder": "Royal Botanic Gardens, Kew"
        }
      }
    },
    {
      "type": "Feature",
      "geometry": {
        "type": "Point",
        "coordinates": [
          -61.416667,
          15.316667
        ]
      },
      "properties": {
        "gbifID": "1304581247",
        "species": "Solanum triste",
        "genus": "Solanum",
        "family": "Solanaceae",
        "scientificName": "Solanum triste Jacq.",
        "coordinateUncertaintyInMeters": "",
        "basisOfRecord": "OCCURRENCE",
        "eventDate": "1992-06-05",
        "country": null,
        "datasetName": "",
        "publisher": "Centro Internacional de Agricultura Tropical - CIAT",
        "license": "CC_BY_4_0",
        "issues": [
          "RECORDED_DATE_INVALID",
          "COORDINATE_ROUNDED",
          "GEODETIC_DATUM_ASSUMED_WGS84",
          "CONTINENT_DERIVED_FROM_COORDINATES"
        ],
        "fallback_media": {
          "url": "https://d2jcv3kl45hlgi.cloudfront.net/e6513ebd355baec36cb8cb2056ab354d.jpg",
          "references": "http://specimens.kew.org/Herbarium/K000196436",
          "title": null,
          "creator": null,
          "publisher": null,
          "license": "http://creativecommons.org/licenses/by/4.0/",
          "rightsHolder": "Royal Botanic Gardens, Kew"
        }
      }
    },
    {
      "type": "Feature",
      "geometry": {
        "type": "Point",
        "coordinates": [
          -61.42,
          15.32
        ]
      },
      "properties": {
        "gbifID": "1929998631",
        "species": "Solanum triste",
        "genus": "Solanum",
        "family": "Solanaceae",
        "scientificName": "Solanum triste Jacq.",
        "coordinateUncertaintyInMeters": "",
        "basisOfRecord": "PRESERVED_SPECIMEN",
        "eventDate": "1992-06-05",
        "country": null,
        "datasetName": "Vascular plants",
        "publisher": "The New York Botanical Garden",
        "license": "CC0_1_0",
        "issues": [
          "MODIFIED_DATE_INVALID",
          "GEODETIC_DATUM_ASSUMED_WGS84"
        ],
        "fallback_media": {
          "url": "https://d2jcv3kl45hlgi.cloudfront.net/e6513ebd355baec36cb8cb2056ab354d.jpg",
          "references": "http://specimens.kew.org/Herbarium/K000196436",
          "title": null,
          "creator": null,
          "publisher": null,
          "license": "http://creativecommons.org/licenses/by/4.0/",
          "rightsHolder": "Royal Botanic Gardens, Kew"
        }
      }
    },
    {
      "type": "Feature",
      "geometry": {
        "type": "Point",
        "coordinates": [
          -61.1975,
          14.80167
        ]
      },
      "properties": {
        "gbifID": "1563896677",
        "species": "Solanum triste",
        "genus": "Solanum",
        "family": "Solanaceae",
        "scientificName": "Solanum triste Jacq.",
        "coordinateUncertaintyInMeters": "",
        "basisOfRecord": "PRESERVED_SPECIMEN",
        "eventDate": "2015-09-21",
        "country": null,
        "datasetName": "",
        "publisher": "MNHN - Museum national d'Histoire naturelle",
        "license": "CC_BY_4_0",
        "issues": [
          "GEODETIC_DATUM_ASSUMED_WGS84",
          "CONTINENT_DERIVED_FROM_COORDINATES"
        ],
        "media": [
          {
            "url": "http://mediaphoto.mnhn.fr/media/1496140019909VzExQwpeUnH3zkjh",
            "references": null,
            "title": null,
            "creator": "Grouard Jean-Christophe",
            "publisher": null,
            "license": "http://creativecommons.org/licenses/by-nc-nd/4.0/",
            "rightsHolder": null
          }
        ]
      }
    },
    {
      "type": "Feature",
      "geometry": {
        "type": "Point",
        "coordinates": [
          -61.01929,
          14.65485
        ]
      },
      "properties": {
        "gbifID": "3847019437",
        "species": "Solanum triste",
        "genus": "Solanum",
        "family": "Solanaceae",
        "scientificName": "Solanum triste Jacq.",
        "coordinateUncertaintyInMeters": "26983.0",
        "basisOfRecord": "HUMAN_OBSERVATION",
        "eventDate": "",
        "country": null,
        "datasetName": "",
        "publisher": "UAR PatriNat (OFB-MNHN-CNRS-IRD), Paris",
        "license": "CC_BY_4_0",
        "issues": [
          "COUNTRY_MISMATCH",
          "CONTINENT_DERIVED_FROM_COORDINATES",
          "TAXON_ID_NOT_FOUND"
        ],
        "fallback_media": {
          "url": "https://d2jcv3kl45hlgi.cloudfront.net/e6513ebd355baec36cb8cb2056ab354d.jpg",
          "references": "http://specimens.kew.org/Herbarium/K000196436",
          "title": null,
          "creator": null,
          "publisher": null,
          "license": "http://creativecommons.org/licenses/by/4.0/",
          "rightsHolder": "Royal Botanic Gardens, Kew"
        }
      }
    },
    {
      "type": "Feature",
      "geometry": {
        "type": "Point",
        "coordinates": [
          -61.53977,
          16.19759
        ]
      },
      "properties": {
        "gbifID": "3847027816",
        "species": "Solanum triste",
        "genus": "Solanum",
        "family": "Solanaceae",
        "scientificName": "Solanum triste Jacq.",
        "coordinateUncertaintyInMeters": "43140.0",
        "basisOfRecord": "HUMAN_OBSERVATION",
        "eventDate": "",
        "country": null,
        "datasetName": "",
        "publisher": "UAR PatriNat (OFB-MNHN-CNRS-IRD), Paris",
        "license": "CC_BY_4_0",
        "issues": [
          "COUNTRY_MISMATCH",
          "CONTINENT_DERIVED_FROM_COORDINATES",
          "TAXON_ID_NOT_FOUND"
        ],
        "fallback_media": {
          "url": "https://d2jcv3kl45hlgi.cloudfront.net/e6513ebd355baec36cb8cb2056ab354d.jpg",
          "references": "http://specimens.kew.org/Herbarium/K000196436",
          "title": null,
          "creator": null,
          "publisher": null,
          "license": "http://creativecommons.org/licenses/by/4.0/",
          "rightsHolder": "Royal Botanic Gardens, Kew"
        }
      }
    },
    {
      "type": "Feature",
      "geometry": {
        "type": "Point",
        "coordinates": [
          -63.20893,
          18.03505
        ]
      },
      "properties": {
        "gbifID": "3846944459",
        "species": "Solanum triste",
        "genus": "Solanum",
        "family": "Solanaceae",
        "scientificName": "Solanum triste Jacq.",
        "coordinateUncertaintyInMeters": "47299.0",
        "basisOfRecord": "HUMAN_OBSERVATION",
        "eventDate": "",
        "country": null,
        "datasetName": "",
        "publisher": "UAR PatriNat (OFB-MNHN-CNRS-IRD), Paris",
        "license": "CC_BY_4_0",
        "issues": [
          "COUNTRY_MISMATCH",
          "TAXON_ID_NOT_FOUND"
        ],
        "fallback_media": {
          "url": "https://d2jcv3kl45hlgi.cloudfront.net/e6513ebd355baec36cb8cb2056ab354d.jpg",
          "references": "http://specimens.kew.org/Herbarium/K000196436",
          "title": null,
          "creator": null,
          "publisher": null,
          "license": "http://creativecommons.org/licenses/by/4.0/",
          "rightsHolder": "Royal Botanic Gardens, Kew"
        }
      }
    },
    {
      "type": "Feature",
      "geometry": {
        "type": "Point",
        "coordinates": [
          -65.9119,
          7.0758
        ]
      },
      "properties": {
        "gbifID": "1228282399",
        "species": "Solanum triste",
        "genus": "Solanum",
        "family": "Solanaceae",
        "scientificName": "Solanum triste Jacq.",
        "coordinateUncertaintyInMeters": "",
        "basisOfRecord": "PRESERVED_SPECIMEN",
        "eventDate": "1984-10-14",
        "country": null,
        "datasetName": "seeds-22-sep-2023",
        "publisher": "Field Museum",
        "license": "CC0_1_0",
        "issues": [
          "GEODETIC_DATUM_ASSUMED_WGS84",
          "INSTITUTION_MATCH_FUZZY",
          "AMBIGUOUS_COLLECTION"
        ],
        "fallback_media": {
          "url": "https://d2jcv3kl45hlgi.cloudfront.net/e6513ebd355baec36cb8cb2056ab354d.jpg",
          "references": "http://specimens.kew.org/Herbarium/K000196436",
          "title": null,
          "creator": null,
          "publisher": null,
          "license": "http://creativecommons.org/licenses/by/4.0/",
          "rightsHolder": "Royal Botanic Gardens, Kew"
        }
      }
    },
    {
      "type": "Feature",
      "geometry": {
        "type": "Point",
        "coordinates": [
          -61.5398,
          16.19761
        ]
      },
      "properties": {
        "gbifID": "4547984921",
        "species": "Solanum triste",
        "genus": "Solanum",
        "family": "Solanaceae",
        "scientificName": "Solanum triste Jacq.",
        "coordinateUncertaintyInMeters": "43140.0",
        "basisOfRecord": "HUMAN_OBSERVATION",
        "eventDate": "",
        "country": null,
        "datasetName": "",
        "publisher": "UAR PatriNat (OFB-MNHN-CNRS-IRD), Paris",
        "license": "CC_BY_4_0",
        "issues": [
          "COUNTRY_MISMATCH",
          "CONTINENT_DERIVED_FROM_COORDINATES",
          "TAXON_ID_NOT_FOUND"
        ],
        "fallback_media": {
          "url": "https://d2jcv3kl45hlgi.cloudfront.net/e6513ebd355baec36cb8cb2056ab354d.jpg",
          "references": "http://specimens.kew.org/Herbarium/K000196436",
          "title": null,
          "creator": null,
          "publisher": null,
          "license": "http://creativecommons.org/licenses/by/4.0/",
          "rightsHolder": "Royal Botanic Gardens, Kew"
        }
      }
    },
    {
      "type": "Feature",
      "geometry": {
        "type": "Point",
        "coordinates": [
          -63.06085,
          18.07928
        ]
      },
      "properties": {
        "gbifID": "4547865729",
        "species": "Solanum triste",
        "genus": "Solanum",
        "family": "Solanaceae",
        "scientificName": "Solanum triste Jacq.",
        "coordinateUncertaintyInMeters": "9672.0",
        "basisOfRecord": "HUMAN_OBSERVATION",
        "eventDate": "",
        "country": null,
        "datasetName": "",
        "publisher": "UAR PatriNat (OFB-MNHN-CNRS-IRD), Paris",
        "license": "CC_BY_4_0",
        "issues": [
          "COUNTRY_MISMATCH",
          "CONTINENT_DERIVED_FROM_COORDINATES",
          "TAXON_ID_NOT_FOUND"
        ],
        "fallback_media": {
          "url": "https://d2jcv3kl45hlgi.cloudfront.net/e6513ebd355baec36cb8cb2056ab354d.jpg",
          "references": "http://specimens.kew.org/Herbarium/K000196436",
          "title": null,
          "creator": null,
          "publisher": null,
          "license": "http://creativecommons.org/licenses/by/4.0/",
          "rightsHolder": "Royal Botanic Gardens, Kew"
        }
      }
    },
    {
      "type": "Feature",
      "geometry": {
        "type": "Point",
        "coordinates": [
          -95.765265,
          18.364449
        ]
      },
      "properties": {
        "gbifID": "2270553329",
        "species": "Solanum triste",
        "genus": "Solanum",
        "family": "Solanaceae",
        "scientificName": "Solanum triste Jacq.",
        "coordinateUncertaintyInMeters": "40000.0",
        "basisOfRecord": "PRESERVED_SPECIMEN",
        "eventDate": "1974-07-19",
        "country": null,
        "datasetName": "",
        "publisher": "Arizona State University Biocollections",
        "license": "CC_BY_4_0",
        "issues": [
          "GEODETIC_DATUM_ASSUMED_WGS84",
          "CONTINENT_DERIVED_FROM_COORDINATES",
          "INSTITUTION_MATCH_FUZZY",
          "COLLECTION_MATCH_FUZZY",
          "TAXON_ID_NOT_FOUND"
        ],
        "media": [
          {
            "url": "https://media01.symbiota.org/media/h_seinet/seinet/ASU/ASU0051/ASU0051157_lg.jpg",
            "references": null,
            "title": null,
            "creator": null,
            "publisher": null,
            "license": null,
            "rightsHolder": "Arizona State University Vascular Plant Herbarium"
          },
          {
            "url": "https://media01.symbiota.org/media/h_seinet/seinet/ASU/ASU0051/ASU0051157a_lg.jpg",
            "references": null,
            "title": null,
            "creator": null,
            "publisher": null,
            "license": null,
            "rightsHolder": "Arizona State University Vascular Plant Herbarium"
          }
        ]
      }
    },
    {
      "type": "Feature",
      "geometry": {
        "type": "Point",
        "coordinates": [
          -61.266145,
          15.281957
        ]
      },
      "properties": {
        "gbifID": "1135481626",
        "species": "Solanum triste",
        "genus": "Solanum",
        "family": "Solanaceae",
        "scientificName": "Solanum triste Jacq.",
        "coordinateUncertaintyInMeters": "",
        "basisOfRecord": "PRESERVED_SPECIMEN",
        "eventDate": "1983-09-26",
        "country": null,
        "datasetName": "",
        "publisher": "Natural History Museum",
        "license": "CC0_1_0",
        "issues": [
          "GEODETIC_DATUM_ASSUMED_WGS84",
          "INSTITUTION_MATCH_FUZZY",
          "COLLECTION_MATCH_FUZZY"
        ],
        "media": [
          {
            "url": "https://data.nhm.ac.uk/media/06e0e09e-d341-4620-91bd-85b75cbb7bd6",
            "references": null,
            "title": "BM000886919",
            "creator": null,
            "publisher": null,
            "license": "http://creativecommons.org/licenses/by/4.0/",
            "rightsHolder": "The Trustees of the Natural History Museum, London"
          }
        ]
      }
    },
    {
      "type": "Feature",
      "geometry": {
        "type": "Point",
        "coordinates": [
          -61.021286,
          14.652547
        ]
      },
      "properties": {
        "gbifID": "1056783276",
        "species": "Solanum triste",
        "genus": "Solanum",
        "family": "Solanaceae",
        "scientificName": "Solanum triste Jacq.",
        "coordinateUncertaintyInMeters": "64.0",
        "basisOfRecord": "PRESERVED_SPECIMEN",
        "eventDate": "1786",
        "country": null,
        "datasetName": "",
        "publisher": "Natural History Museum",
        "license": "CC0_1_0",
        "issues": [
          "RECORDED_DATE_INVALID",
          "GEODETIC_DATUM_ASSUMED_WGS84",
          "INSTITUTION_MATCH_FUZZY",
          "COLLECTION_MATCH_FUZZY"
        ],
        "media": [
          {
            "url": "https://data.nhm.ac.uk/media/e393a001-9960-437a-9ca6-3fa2f756c7f9",
            "references": null,
            "title": "BM000886917_back",
            "creator": null,
            "publisher": null,
            "license": "http://creativecommons.org/licenses/by/4.0/",
            "rightsHolder": "The Trustees of the Natural History Museum, London"
          },
          {
            "url": "https://data.nhm.ac.uk/media/9a2a8a5e-d8ab-4584-ad63-c6f226d65af0",
            "references": null,
            "title": "BM000886917",
            "creator": null,
            "publisher": null,
            "license": "http://creativecommons.org/licenses/by/4.0/",
            "rightsHolder": "The Trustees of the Natural History Museum, London"
          }
        ]
      }
    },
    {
      "type": "Feature",
      "geometry": {
        "type": "Point",
        "coordinates": [
          -61.126537,
          14.755024
        ]
      },
      "properties": {
        "gbifID": "1135481637",
        "species": "Solanum triste",
        "genus": "Solanum",
        "family": "Solanaceae",
        "scientificName": "Solanum triste Jacq.",
        "coordinateUncertaintyInMeters": "",
        "basisOfRecord": "PRESERVED_SPECIMEN",
        "eventDate": "1867-12",
        "country": null,
        "datasetName": "",
        "publisher": "Natural History Museum",
        "license": "CC0_1_0",
        "issues": [
          "RECORDED_DATE_INVALID",
          "INSTITUTION_MATCH_FUZZY",
          "COLLECTION_MATCH_FUZZY"
        ],
        "media": [
          {
            "url": "https://data.nhm.ac.uk/media/def9392c-fb83-43eb-bccc-11b4988d2899",
            "references": null,
            "title": "BM000886916",
            "creator": null,
            "publisher": null,
            "license": "http://creativecommons.org/licenses/by/4.0/",
            "rightsHolder": "The Trustees of the Natural History Museum, London"
          }
        ]
      }
    },
    {
      "type": "Feature",
      "geometry": {
        "type": "Point",
        "coordinates": [
          -61.0,
          14.666667
        ]
      },
      "properties": {
        "gbifID": "912178284",
        "species": "Solanum triste",
        "genus": "Solanum",
        "family": "Solanaceae",
        "scientificName": "Solanum triste Jacq.",
        "coordinateUncertaintyInMeters": "",
        "basisOfRecord": "PRESERVED_SPECIMEN",
        "eventDate": "1867-12-01T00:00",
        "country": null,
        "datasetName": "",
        "publisher": "Royal Botanic Gardens, Kew",
        "license": "CC_BY_4_0",
        "issues": [
          "COORDINATE_ROUNDED",
          "GEODETIC_DATUM_ASSUMED_WGS84",
          "CONTINENT_DERIVED_FROM_COORDINATES",
          "INSTITUTION_MATCH_FUZZY",
          "INSTITUTION_COLLECTION_MISMATCH"
        ],
        "media": [
          {
            "url": "https://d2jcv3kl45hlgi.cloudfront.net/e6513ebd355baec36cb8cb2056ab354d.jpg",
            "references": "http://specimens.kew.org/Herbarium/K000196436",
            "title": null,
            "creator": null,
            "publisher": null,
            "license": "http://creativecommons.org/licenses/by/4.0/",
            "rightsHolder": "Royal Botanic Gardens, Kew"
          }
        ]
      }
    },
    {
      "type": "Feature",
      "geometry": {
        "type": "Point",
        "coordinates": [
          -53.24111,
          3.92472
        ]
      },
      "properties": {
        "gbifID": "1144990049",
        "species": "Solanum triste",
        "genus": "Solanum",
        "family": "Solanaceae",
        "scientificName": "Solanum triste Jacq.",
        "coordinateUncertaintyInMeters": "",
        "basisOfRecord": "PRESERVED_SPECIMEN",
        "eventDate": "",
        "country": null,
        "datasetName": "",
        "publisher": "SwissNatColl",
        "license": "CC_BY_NC_4_0",
        "issues": [
          "GEODETIC_DATUM_ASSUMED_WGS84",
          "TAXON_ID_NOT_FOUND"
        ],
        "fallback_media": {
          "url": "https://d2jcv3kl45hlgi.cloudfront.net/e6513ebd355baec36cb8cb2056ab354d.jpg",
          "references": "http://specimens.kew.org/Herbarium/K000196436",
          "title": null,
          "creator": null,
          "publisher": null,
          "license": "http://creativecommons.org/licenses/by/4.0/",
          "rightsHolder": "Royal Botanic Gardens, Kew"
        }
      }
    },
    {
      "type": "Feature",
      "geometry": {
        "type": "Point",
        "coordinates": [
          -65.66185,
          -27.076279
        ]
      },
      "properties": {
        "gbifID": "1851908809",
        "species": "Solanum triste",
        "genus": "Solanum",
        "family": "Solanaceae",
        "scientificName": "Solanum triste Jacq.",
        "coordinateUncertaintyInMeters": "",
        "basisOfRecord": "PRESERVED_SPECIMEN",
        "eventDate": "1973-11-01",
        "country": null,
        "datasetName": "",
        "publisher": "Staatliche Naturwissenschaftliche Sammlungen Bayerns",
        "license": "CC_BY_4_0",
        "issues": [
          "REFERENCES_URI_INVALID",
          "COORDINATE_ROUNDED",
          "CONTINENT_DERIVED_FROM_COORDINATES",
          "AMBIGUOUS_INSTITUTION"
        ],
        "fallback_media": {
          "url": "https://d2jcv3kl45hlgi.cloudfront.net/e6513ebd355baec36cb8cb2056ab354d.jpg",
          "references": "http://specimens.kew.org/Herbarium/K000196436",
          "title": null,
          "creator": null,
          "publisher": null,
          "license": "http://creativecommons.org/licenses/by/4.0/",
          "rightsHolder": "Royal Botanic Gardens, Kew"
        }
      }
    },
    {
      "type": "Feature",
      "geometry": {
        "type": "Point",
        "coordinates": [
          -61.419648,
          10.710587
        ]
      },
      "properties": {
        "gbifID": "4130822779",
        "species": "Solanum triste",
        "genus": "Solanum",
        "family": "Solanaceae",
        "scientificName": "Solanum triste Jacq.",
        "coordinateUncertaintyInMeters": "",
        "basisOfRecord": "PRESERVED_SPECIMEN",
        "eventDate": "1845/2021",
        "country": null,
        "datasetName": "Solanaceae",
        "publisher": "National Herbarium of Trinidad and Tobago",
        "license": "CC_BY_4_0",
        "issues": [
          "CONTINENT_DERIVED_FROM_COORDINATES"
        ],
        "fallback_media": {
          "url": "https://d2jcv3kl45hlgi.cloudfront.net/e6513ebd355baec36cb8cb2056ab354d.jpg",
          "references": "http://specimens.kew.org/Herbarium/K000196436",
          "title": null,
          "creator": null,
          "publisher": null,
          "license": "http://creativecommons.org/licenses/by/4.0/",
          "rightsHolder": "Royal Botanic Gardens, Kew"
        }
      }
    },
    {
      "type": "Feature",
      "geometry": {
        "type": "Point",
        "coordinates": [
          -61.514339,
          10.675706
        ]
      },
      "properties": {
        "gbifID": "4130815750",
        "species": "Solanum triste",
        "genus": "Solanum",
        "family": "Solanaceae",
        "scientificName": "Solanum triste Jacq.",
        "coordinateUncertaintyInMeters": "",
        "basisOfRecord": "PRESERVED_SPECIMEN",
        "eventDate": "1845/2021",
        "country": null,
        "datasetName": "Solanaceae",
        "publisher": "National Herbarium of Trinidad and Tobago",
        "license": "CC_BY_4_0",
        "issues": [
          "CONTINENT_DERIVED_FROM_COORDINATES"
        ],
        "fallback_media": {
          "url": "https://d2jcv3kl45hlgi.cloudfront.net/e6513ebd355baec36cb8cb2056ab354d.jpg",
          "references": "http://specimens.kew.org/Herbarium/K000196436",
          "title": null,
          "creator": null,
          "publisher": null,
          "license": "http://creativecommons.org/licenses/by/4.0/",
          "rightsHolder": "Royal Botanic Gardens, Kew"
        }
      }
    },
    {
      "type": "Feature",
      "geometry": {
        "type": "Point",
        "coordinates": [
          -61.495143,
          10.648632
        ]
      },
      "properties": {
        "gbifID": "4130813052",
        "species": "Solanum triste",
        "genus": "Solanum",
        "family": "Solanaceae",
        "scientificName": "Solanum triste Jacq.",
        "coordinateUncertaintyInMeters": "",
        "basisOfRecord": "PRESERVED_SPECIMEN",
        "eventDate": "1845/2021",
        "country": null,
        "datasetName": "Solanaceae",
        "publisher": "National Herbarium of Trinidad and Tobago",
        "license": "CC_BY_4_0",
        "issues": [
          "CONTINENT_DERIVED_FROM_COORDINATES"
        ],
        "fallback_media": {
          "url": "https://d2jcv3kl45hlgi.cloudfront.net/e6513ebd355baec36cb8cb2056ab354d.jpg",
          "references": "http://specimens.kew.org/Herbarium/K000196436",
          "title": null,
          "creator": null,
          "publisher": null,
          "license": "http://creativecommons.org/licenses/by/4.0/",
          "rightsHolder": "Royal Botanic Gardens, Kew"
        }
      }
    },
    {
      "type": "Feature",
      "geometry": {
        "type": "Point",
        "coordinates": [
          -61.500135,
          10.66578
        ]
      },
      "properties": {
        "gbifID": "4130814571",
        "species": "Solanum triste",
        "genus": "Solanum",
        "family": "Solanaceae",
        "scientificName": "Solanum triste Jacq.",
        "coordinateUncertaintyInMeters": "",
        "basisOfRecord": "PRESERVED_SPECIMEN",
        "eventDate": "1845/2021",
        "country": null,
        "datasetName": "Solanaceae",
        "publisher": "National Herbarium of Trinidad and Tobago",
        "license": "CC_BY_4_0",
        "issues": [
          "COORDINATE_ROUNDED",
          "CONTINENT_DERIVED_FROM_COORDINATES"
        ],
        "fallback_media": {
          "url": "https://d2jcv3kl45hlgi.cloudfront.net/e6513ebd355baec36cb8cb2056ab354d.jpg",
          "references": "http://specimens.kew.org/Herbarium/K000196436",
          "title": null,
          "creator": null,
          "publisher": null,
          "license": "http://creativecommons.org/licenses/by/4.0/",
          "rightsHolder": "Royal Botanic Gardens, Kew"
        }
      }
    },
    {
      "type": "Feature",
      "geometry": {
        "type": "Point",
        "coordinates": [
          -61.418126,
          10.655817
        ]
      },
      "properties": {
        "gbifID": "4130812249",
        "species": "Solanum triste",
        "genus": "Solanum",
        "family": "Solanaceae",
        "scientificName": "Solanum triste Jacq.",
        "coordinateUncertaintyInMeters": "",
        "basisOfRecord": "PRESERVED_SPECIMEN",
        "eventDate": "1845/2021",
        "country": null,
        "datasetName": "Solanaceae",
        "publisher": "National Herbarium of Trinidad and Tobago",
        "license": "CC_BY_4_0",
        "issues": [
          "CONTINENT_DERIVED_FROM_COORDINATES"
        ],
        "fallback_media": {
          "url": "https://d2jcv3kl45hlgi.cloudfront.net/e6513ebd355baec36cb8cb2056ab354d.jpg",
          "references": "http://specimens.kew.org/Herbarium/K000196436",
          "title": null,
          "creator": null,
          "publisher": null,
          "license": "http://creativecommons.org/licenses/by/4.0/",
          "rightsHolder": "Royal Botanic Gardens, Kew"
        }
      }
    }
  ]
}
