{
  "type": "FeatureCollection",
  "metadata": {
    "host_taxon": {
      "canonical_name": "Solanum lucens",
      "rank": "species",
      "family": "Solanaceae",
      "genus": "Solanum",
      "species": "Solanum lucens",
      "slug": "species_solanum_lucens",
      "resolvable_to_gbif": true,
      "use_for_default_download": true,
      "association_count": 1,
      "butterfly_taxa": [
        "Pteronymia latilla"
      ],
      "confidence_counts": {
        "medium": 1
      },
      "occurrence_file": "occurrences/species_solanum_lucens.geojson",
      "gbif_resolution": {
        "query": "Solanum lucens",
        "rank": "species",
        "status": "resolved",
        "gbif_taxon_key": 2931728,
        "accepted_usage_key": null,
        "scientific_name": "Solanum lucens S.Knapp",
        "canonical_name": "Solanum lucens",
        "gbif_rank": "SPECIES",
        "taxonomic_status": "ACCEPTED",
        "match_type": "EXACT",
        "confidence": 100,
        "kingdom": "Plantae",
        "family": "Solanaceae",
        "genus": "Solanum",
        "resolved_at": "2026-05-21T04:00:03+00:00"
      },
      "gbif_taxon_key": 2931728,
      "gbif_status": "resolved",
      "occurrence_count": 0,
      "occurrence_mode": "not_generated",
      "occurrence_cap": null
    },
    "gbif_resolution": {
      "query": "Solanum lucens",
      "rank": "species",
      "status": "resolved",
      "gbif_taxon_key": 2931728,
      "accepted_usage_key": null,
      "scientific_name": "Solanum lucens S.Knapp",
      "canonical_name": "Solanum lucens",
      "gbif_rank": "SPECIES",
      "taxonomic_status": "ACCEPTED",
      "match_type": "EXACT",
      "confidence": 100,
      "kingdom": "Plantae",
      "family": "Solanaceae",
      "genus": "Solanum",
      "resolved_at": "2026-05-21T04:00:03+00:00"
    },
    "occurrence_query": {
      "method": "gbif_download_api",
      "download_key": "0004690-260519110011954",
      "download_doi": "10.15468/dl.s2gcc3",
      "download_doi_url": "https://doi.org/10.15468/dl.s2gcc3",
      "limit": null,
      "dedupe": "Exact duplicate coordinates removed per taxon after DWCA download.",
      "filters": "GBIF Download API DWCA with TAXON_KEY, HAS_COORDINATE=true, HAS_GEOSPATIAL_ISSUE=false, OCCURRENCE_STATUS=PRESENT; app study extent and coordinate uncertainty <=100km applied locally.",
      "returned_unique_coordinate_records": 19
    },
    "scientific_caveat": "GBIF plant occurrences are sampling-biased context records and do not prove local host use or ecological availability for the butterfly.",
    "generated_at": "2026-05-21T15:57:23+00:00"
  },
  "features": [
    {
      "type": "Feature",
      "geometry": {
        "type": "Point",
        "coordinates": [
          -72.41666,
          7.66666
        ]
      },
      "properties": {
        "gbifID": "1260344232",
        "species": "Solanum lucens",
        "genus": "Solanum",
        "family": "Solanaceae",
        "scientificName": "Solanum lucens S.Knapp",
        "coordinateUncertaintyInMeters": "",
        "basisOfRecord": "PRESERVED_SPECIMEN",
        "eventDate": "1984-10-24",
        "country": null,
        "datasetName": "Tropicos",
        "publisher": "Missouri Botanical Garden",
        "license": "CC_BY_4_0",
        "issues": [
          "GEODETIC_DATUM_ASSUMED_WGS84",
          "INSTITUTION_MATCH_FUZZY",
          "COLLECTION_MATCH_NONE",
          "TAXON_ID_NOT_FOUND"
        ],
        "fallback_media": {
          "url": "https://collections.nmnh.si.edu/media/?i=12665319&h=2000",
          "references": null,
          "title": "00840577.tif",
          "creator": "Conveyor Belt",
          "publisher": "Smithsonian Institution, NMNH, Botany",
          "license": "http://creativecommons.org/publicdomain/zero/1.0/",
          "rightsHolder": null
        }
      }
    },
    {
      "type": "Feature",
      "geometry": {
        "type": "Point",
        "coordinates": [
          -70.75,
          8.25
        ]
      },
      "properties": {
        "gbifID": "1260343415",
        "species": "Solanum lucens",
        "genus": "Solanum",
        "family": "Solanaceae",
        "scientificName": "Solanum lucens S.Knapp",
        "coordinateUncertaintyInMeters": "",
        "basisOfRecord": "PRESERVED_SPECIMEN",
        "eventDate": "1964-07-15",
        "country": null,
        "datasetName": "Tropicos",
        "publisher": "Missouri Botanical Garden",
        "license": "CC_BY_4_0",
        "issues": [
          "OCCURRENCE_STATUS_INFERRED_FROM_INDIVIDUAL_COUNT",
          "GEODETIC_DATUM_ASSUMED_WGS84",
          "INSTITUTION_MATCH_FUZZY",
          "COLLECTION_MATCH_NONE",
          "TAXON_ID_NOT_FOUND"
        ],
        "fallback_media": {
          "url": "https://collections.nmnh.si.edu/media/?i=12665319&h=2000",
          "references": null,
          "title": "00840577.tif",
          "creator": "Conveyor Belt",
          "publisher": "Smithsonian Institution, NMNH, Botany",
          "license": "http://creativecommons.org/publicdomain/zero/1.0/",
          "rightsHolder": null
        }
      }
    },
    {
      "type": "Feature",
      "geometry": {
        "type": "Point",
        "coordinates": [
          -71.46666,
          7.68333
        ]
      },
      "properties": {
        "gbifID": "1258560607",
        "species": "Solanum lucens",
        "genus": "Solanum",
        "family": "Solanaceae",
        "scientificName": "Solanum lucens S.Knapp",
        "coordinateUncertaintyInMeters": "",
        "basisOfRecord": "PRESERVED_SPECIMEN",
        "eventDate": "1980-03-09",
        "country": null,
        "datasetName": "Tropicos",
        "publisher": "Missouri Botanical Garden",
        "license": "CC_BY_4_0",
        "issues": [
          "GEODETIC_DATUM_ASSUMED_WGS84",
          "INSTITUTION_MATCH_FUZZY",
          "COLLECTION_MATCH_NONE",
          "TAXON_ID_NOT_FOUND"
        ],
        "fallback_media": {
          "url": "https://collections.nmnh.si.edu/media/?i=12665319&h=2000",
          "references": null,
          "title": "00840577.tif",
          "creator": "Conveyor Belt",
          "publisher": "Smithsonian Institution, NMNH, Botany",
          "license": "http://creativecommons.org/publicdomain/zero/1.0/",
          "rightsHolder": null
        }
      }
    },
    {
      "type": "Feature",
      "geometry": {
        "type": "Point",
        "coordinates": [
          -71.933333,
          7.15
        ]
      },
      "properties": {
        "gbifID": "4031523261",
        "species": "Solanum lucens",
        "genus": "Solanum",
        "family": "Solanaceae",
        "scientificName": "Solanum lucens S.Knapp",
        "coordinateUncertaintyInMeters": "",
        "basisOfRecord": "PRESERVED_SPECIMEN",
        "eventDate": "1982-11-08",
        "country": null,
        "datasetName": "Tropicos",
        "publisher": "Missouri Botanical Garden",
        "license": "CC_BY_4_0",
        "issues": [
          "OCCURRENCE_STATUS_INFERRED_FROM_INDIVIDUAL_COUNT",
          "COORDINATE_ROUNDED",
          "GEODETIC_DATUM_ASSUMED_WGS84",
          "INSTITUTION_MATCH_FUZZY",
          "COLLECTION_MATCH_NONE",
          "TAXON_ID_NOT_FOUND"
        ],
        "fallback_media": {
          "url": "https://collections.nmnh.si.edu/media/?i=12665319&h=2000",
          "references": null,
          "title": "00840577.tif",
          "creator": "Conveyor Belt",
          "publisher": "Smithsonian Institution, NMNH, Botany",
          "license": "http://creativecommons.org/publicdomain/zero/1.0/",
          "rightsHolder": null
        }
      }
    },
    {
      "type": "Feature",
      "geometry": {
        "type": "Point",
        "coordinates": [
          -71.7,
          7.95
        ]
      },
      "properties": {
        "gbifID": "1317770450",
        "species": "Solanum lucens",
        "genus": "Solanum",
        "family": "Solanaceae",
        "scientificName": "Solanum lucens S.Knapp",
        "coordinateUncertaintyInMeters": "",
        "basisOfRecord": "PRESERVED_SPECIMEN",
        "eventDate": "1990-06-23",
        "country": null,
        "datasetName": "NMNH Extant Biology",
        "publisher": "National Museum of Natural History, Smithsonian Institution",
        "license": "CC0_1_0",
        "issues": [
          "OCCURRENCE_STATUS_INFERRED_FROM_INDIVIDUAL_COUNT",
          "GEODETIC_DATUM_ASSUMED_WGS84"
        ],
        "media": [
          {
            "url": "https://collections.nmnh.si.edu/media/?i=12665319&h=2000",
            "references": null,
            "title": "00840577.tif",
            "creator": "Conveyor Belt",
            "publisher": "Smithsonian Institution, NMNH, Botany",
            "license": "http://creativecommons.org/publicdomain/zero/1.0/",
            "rightsHolder": null
          }
        ]
      }
    },
    {
      "type": "Feature",
      "geometry": {
        "type": "Point",
        "coordinates": [
          -72.42,
          7.67
        ]
      },
      "properties": {
        "gbifID": "2235856424",
        "species": "Solanum lucens",
        "genus": "Solanum",
        "family": "Solanaceae",
        "scientificName": "Solanum lucens S.Knapp",
        "coordinateUncertaintyInMeters": "",
        "basisOfRecord": "PRESERVED_SPECIMEN",
        "eventDate": "1984-10-24",
        "country": null,
        "datasetName": "NMNH Extant Biology",
        "publisher": "National Museum of Natural History, Smithsonian Institution",
        "license": "CC0_1_0",
        "issues": [
          "OCCURRENCE_STATUS_INFERRED_FROM_INDIVIDUAL_COUNT",
          "GEODETIC_DATUM_ASSUMED_WGS84"
        ],
        "media": [
          {
            "url": "https://collections.nmnh.si.edu/media/?i=12649836&h=2000",
            "references": null,
            "title": "02833723.tif",
            "creator": "Conveyor Belt",
            "publisher": "Smithsonian Institution, NMNH, Botany",
            "license": "http://creativecommons.org/publicdomain/zero/1.0/",
            "rightsHolder": null
          }
        ]
      }
    },
    {
      "type": "Feature",
      "geometry": {
        "type": "Point",
        "coordinates": [
          -72.22,
          7.6
        ]
      },
      "properties": {
        "gbifID": "2235934553",
        "species": "Solanum lucens",
        "genus": "Solanum",
        "family": "Solanaceae",
        "scientificName": "Solanum lucens S.Knapp",
        "coordinateUncertaintyInMeters": "",
        "basisOfRecord": "PRESERVED_SPECIMEN",
        "eventDate": "1984-10-24",
        "country": null,
        "datasetName": "NMNH Extant Biology",
        "publisher": "National Museum of Natural History, Smithsonian Institution",
        "license": "CC0_1_0",
        "issues": [
          "OCCURRENCE_STATUS_INFERRED_FROM_INDIVIDUAL_COUNT",
          "GEODETIC_DATUM_ASSUMED_WGS84"
        ],
        "media": [
          {
            "url": "https://collections.nmnh.si.edu/media/?i=12640311&h=2000",
            "references": null,
            "title": "02833724.tif",
            "creator": "Conveyor Belt",
            "publisher": "Smithsonian Institution, NMNH, Botany",
            "license": "http://creativecommons.org/publicdomain/zero/1.0/",
            "rightsHolder": null
          }
        ]
      }
    },
    {
      "type": "Feature",
      "geometry": {
        "type": "Point",
        "coordinates": [
          -70.62,
          8.52
        ]
      },
      "properties": {
        "gbifID": "1320766943",
        "species": "Solanum lucens",
        "genus": "Solanum",
        "family": "Solanaceae",
        "scientificName": "Solanum lucens S.Knapp",
        "coordinateUncertaintyInMeters": "",
        "basisOfRecord": "PRESERVED_SPECIMEN",
        "eventDate": "1988-04-16",
        "country": null,
        "datasetName": "NMNH Extant Biology",
        "publisher": "National Museum of Natural History, Smithsonian Institution",
        "license": "CC0_1_0",
        "issues": [
          "OCCURRENCE_STATUS_INFERRED_FROM_INDIVIDUAL_COUNT",
          "GEODETIC_DATUM_ASSUMED_WGS84"
        ],
        "media": [
          {
            "url": "https://collections.nmnh.si.edu/media/?i=12657751&h=2000",
            "references": null,
            "title": "00840580.tif",
            "creator": "Conveyor Belt",
            "publisher": "Smithsonian Institution, NMNH, Botany",
            "license": "http://creativecommons.org/publicdomain/zero/1.0/",
            "rightsHolder": null
          }
        ]
      }
    },
    {
      "type": "Feature",
      "geometry": {
        "type": "Point",
        "coordinates": [
          -70.616667,
          8.525
        ]
      },
      "properties": {
        "gbifID": "1304595744",
        "species": "Solanum lucens",
        "genus": "Solanum",
        "family": "Solanaceae",
        "scientificName": "Solanum lucens S.Knapp",
        "coordinateUncertaintyInMeters": "",
        "basisOfRecord": "OCCURRENCE",
        "eventDate": "1988-04-16",
        "country": null,
        "datasetName": "",
        "publisher": "Centro Internacional de Agricultura Tropical - CIAT",
        "license": "CC_BY_4_0",
        "issues": [
          "RECORDED_DATE_INVALID",
          "COORDINATE_ROUNDED",
          "GEODETIC_DATUM_ASSUMED_WGS84",
          "CONTINENT_DERIVED_FROM_COORDINATES"
        ],
        "fallback_media": {
          "url": "https://collections.nmnh.si.edu/media/?i=12665319&h=2000",
          "references": null,
          "title": "00840577.tif",
          "creator": "Conveyor Belt",
          "publisher": "Smithsonian Institution, NMNH, Botany",
          "license": "http://creativecommons.org/publicdomain/zero/1.0/",
          "rightsHolder": null
        }
      }
    },
    {
      "type": "Feature",
      "geometry": {
        "type": "Point",
        "coordinates": [
          -71.95,
          7.166667
        ]
      },
      "properties": {
        "gbifID": "1304605371",
        "species": "Solanum lucens",
        "genus": "Solanum",
        "family": "Solanaceae",
        "scientificName": "Solanum lucens S.Knapp",
        "coordinateUncertaintyInMeters": "",
        "basisOfRecord": "OCCURRENCE",
        "eventDate": "1982-11-08",
        "country": null,
        "datasetName": "",
        "publisher": "Centro Internacional de Agricultura Tropical - CIAT",
        "license": "CC_BY_4_0",
        "issues": [
          "RECORDED_DATE_INVALID",
          "COORDINATE_ROUNDED",
          "GEODETIC_DATUM_ASSUMED_WGS84",
          "CONTINENT_DERIVED_FROM_COORDINATES"
        ],
        "fallback_media": {
          "url": "https://collections.nmnh.si.edu/media/?i=12665319&h=2000",
          "references": null,
          "title": "00840577.tif",
          "creator": "Conveyor Belt",
          "publisher": "Smithsonian Institution, NMNH, Botany",
          "license": "http://creativecommons.org/publicdomain/zero/1.0/",
          "rightsHolder": null
        }
      }
    },
    {
      "type": "Feature",
      "geometry": {
        "type": "Point",
        "coordinates": [
          -71.466667,
          7.683333
        ]
      },
      "properties": {
        "gbifID": "1304584870",
        "species": "Solanum lucens",
        "genus": "Solanum",
        "family": "Solanaceae",
        "scientificName": "Solanum lucens S.Knapp",
        "coordinateUncertaintyInMeters": "",
        "basisOfRecord": "OCCURRENCE",
        "eventDate": "1980-03-09",
        "country": null,
        "datasetName": "",
        "publisher": "Centro Internacional de Agricultura Tropical - CIAT",
        "license": "CC_BY_4_0",
        "issues": [
          "RECORDED_DATE_INVALID",
          "COORDINATE_ROUNDED",
          "GEODETIC_DATUM_ASSUMED_WGS84",
          "CONTINENT_DERIVED_FROM_COORDINATES"
        ],
        "fallback_media": {
          "url": "https://collections.nmnh.si.edu/media/?i=12665319&h=2000",
          "references": null,
          "title": "00840577.tif",
          "creator": "Conveyor Belt",
          "publisher": "Smithsonian Institution, NMNH, Botany",
          "license": "http://creativecommons.org/publicdomain/zero/1.0/",
          "rightsHolder": null
        }
      }
    },
    {
      "type": "Feature",
      "geometry": {
        "type": "Point",
        "coordinates": [
          -72.216667,
          7.6
        ]
      },
      "properties": {
        "gbifID": "1304607328",
        "species": "Solanum lucens",
        "genus": "Solanum",
        "family": "Solanaceae",
        "scientificName": "Solanum lucens S.Knapp",
        "coordinateUncertaintyInMeters": "",
        "basisOfRecord": "OCCURRENCE",
        "eventDate": "1984-10-24",
        "country": null,
        "datasetName": "",
        "publisher": "Centro Internacional de Agricultura Tropical - CIAT",
        "license": "CC_BY_4_0",
        "issues": [
          "RECORDED_DATE_INVALID",
          "COORDINATE_ROUNDED",
          "GEODETIC_DATUM_ASSUMED_WGS84",
          "CONTINENT_DERIVED_FROM_COORDINATES"
        ],
        "fallback_media": {
          "url": "https://collections.nmnh.si.edu/media/?i=12665319&h=2000",
          "references": null,
          "title": "00840577.tif",
          "creator": "Conveyor Belt",
          "publisher": "Smithsonian Institution, NMNH, Botany",
          "license": "http://creativecommons.org/publicdomain/zero/1.0/",
          "rightsHolder": null
        }
      }
    },
    {
      "type": "Feature",
      "geometry": {
        "type": "Point",
        "coordinates": [
          -72.416667,
          7.666667
        ]
      },
      "properties": {
        "gbifID": "1304584664",
        "species": "Solanum lucens",
        "genus": "Solanum",
        "family": "Solanaceae",
        "scientificName": "Solanum lucens S.Knapp",
        "coordinateUncertaintyInMeters": "",
        "basisOfRecord": "OCCURRENCE",
        "eventDate": "1984-10-24",
        "country": null,
        "datasetName": "",
        "publisher": "Centro Internacional de Agricultura Tropical - CIAT",
        "license": "CC_BY_4_0",
        "issues": [
          "RECORDED_DATE_INVALID",
          "COORDINATE_ROUNDED",
          "GEODETIC_DATUM_ASSUMED_WGS84",
          "CONTINENT_DERIVED_FROM_COORDINATES"
        ],
        "fallback_media": {
          "url": "https://collections.nmnh.si.edu/media/?i=12665319&h=2000",
          "references": null,
          "title": "00840577.tif",
          "creator": "Conveyor Belt",
          "publisher": "Smithsonian Institution, NMNH, Botany",
          "license": "http://creativecommons.org/publicdomain/zero/1.0/",
          "rightsHolder": null
        }
      }
    },
    {
      "type": "Feature",
      "geometry": {
        "type": "Point",
        "coordinates": [
          -71.95,
          7.167
        ]
      },
      "properties": {
        "gbifID": "1928727172",
        "species": "Solanum lucens",
        "genus": "Solanum",
        "family": "Solanaceae",
        "scientificName": "Solanum lucens S.Knapp",
        "coordinateUncertaintyInMeters": "",
        "basisOfRecord": "PRESERVED_SPECIMEN",
        "eventDate": "1982-11-08/1982-11-12",
        "country": null,
        "datasetName": "Vascular plants",
        "publisher": "The New York Botanical Garden",
        "license": "CC0_1_0",
        "issues": [
          "MODIFIED_DATE_INVALID",
          "GEODETIC_DATUM_ASSUMED_WGS84"
        ],
        "media": [
          {
            "url": "http://sweetgum.nybg.org/images3/4468/274/00986877.jpg",
            "references": null,
            "title": null,
            "creator": "The New York Botanical Garden",
            "publisher": null,
            "license": "http://creativecommons.org/licenses/by/4.0/",
            "rightsHolder": "The New York Botanical Garden"
          }
        ]
      }
    },
    {
      "type": "Feature",
      "geometry": {
        "type": "Point",
        "coordinates": [
          -71.47,
          7.68
        ]
      },
      "properties": {
        "gbifID": "1928379162",
        "species": "Solanum lucens",
        "genus": "Solanum",
        "family": "Solanaceae",
        "scientificName": "Solanum lucens S.Knapp",
        "coordinateUncertaintyInMeters": "",
        "basisOfRecord": "PRESERVED_SPECIMEN",
        "eventDate": "1980-03-09",
        "country": null,
        "datasetName": "Vascular plants",
        "publisher": "The New York Botanical Garden",
        "license": "CC0_1_0",
        "issues": [
          "MODIFIED_DATE_INVALID",
          "GEODETIC_DATUM_ASSUMED_WGS84"
        ],
        "media": [
          {
            "url": "http://sweetgum.nybg.org/images3/230/131/v-287-00732173.jpg",
            "references": null,
            "title": null,
            "creator": "The New York Botanical Garden",
            "publisher": null,
            "license": "http://creativecommons.org/licenses/by/4.0/",
            "rightsHolder": "The New York Botanical Garden"
          }
        ]
      }
    },
    {
      "type": "Feature",
      "geometry": {
        "type": "Point",
        "coordinates": [
          -70.617,
          8.525
        ]
      },
      "properties": {
        "gbifID": "1931085067",
        "species": "Solanum lucens",
        "genus": "Solanum",
        "family": "Solanaceae",
        "scientificName": "Solanum lucens S.Knapp",
        "coordinateUncertaintyInMeters": "",
        "basisOfRecord": "PRESERVED_SPECIMEN",
        "eventDate": "1988-04-16",
        "country": null,
        "datasetName": "Vascular plants",
        "publisher": "The New York Botanical Garden",
        "license": "CC0_1_0",
        "issues": [
          "MODIFIED_DATE_INVALID",
          "GEODETIC_DATUM_ASSUMED_WGS84"
        ],
        "media": [
          {
            "url": "http://sweetgum.nybg.org/images3/230/341/v-287-00820010.jpg",
            "references": null,
            "title": null,
            "creator": "The New York Botanical Garden",
            "publisher": null,
            "license": "http://creativecommons.org/licenses/by/4.0/",
            "rightsHolder": "The New York Botanical Garden"
          }
        ]
      }
    },
    {
      "type": "Feature",
      "geometry": {
        "type": "Point",
        "coordinates": [
          -65.9119,
          7.0758
        ]
      },
      "properties": {
        "gbifID": "1228147125",
        "species": "Solanum lucens",
        "genus": "Solanum",
        "family": "Solanaceae",
        "scientificName": "Solanum lucens S.Knapp",
        "coordinateUncertaintyInMeters": "",
        "basisOfRecord": "PRESERVED_SPECIMEN",
        "eventDate": "1984-10-24",
        "country": null,
        "datasetName": "seeds-22-sep-2023",
        "publisher": "Field Museum",
        "license": "CC0_1_0",
        "issues": [
          "GEODETIC_DATUM_ASSUMED_WGS84",
          "INSTITUTION_MATCH_FUZZY",
          "AMBIGUOUS_COLLECTION"
        ],
        "fallback_media": {
          "url": "https://collections.nmnh.si.edu/media/?i=12665319&h=2000",
          "references": null,
          "title": "00840577.tif",
          "creator": "Conveyor Belt",
          "publisher": "Smithsonian Institution, NMNH, Botany",
          "license": "http://creativecommons.org/publicdomain/zero/1.0/",
          "rightsHolder": null
        }
      }
    },
    {
      "type": "Feature",
      "geometry": {
        "type": "Point",
        "coordinates": [
          -73.0,
          8.0
        ]
      },
      "properties": {
        "gbifID": "1228593149",
        "species": "Solanum lucens",
        "genus": "Solanum",
        "family": "Solanaceae",
        "scientificName": "Solanum lucens S.Knapp",
        "coordinateUncertaintyInMeters": "",
        "basisOfRecord": "PRESERVED_SPECIMEN",
        "eventDate": "1941-11-15",
        "country": null,
        "datasetName": "seeds-22-sep-2023",
        "publisher": "Field Museum",
        "license": "CC0_1_0",
        "issues": [
          "GEODETIC_DATUM_ASSUMED_WGS84",
          "INSTITUTION_MATCH_FUZZY",
          "AMBIGUOUS_COLLECTION"
        ],
        "fallback_media": {
          "url": "https://collections.nmnh.si.edu/media/?i=12665319&h=2000",
          "references": null,
          "title": "00840577.tif",
          "creator": "Conveyor Belt",
          "publisher": "Smithsonian Institution, NMNH, Botany",
          "license": "http://creativecommons.org/publicdomain/zero/1.0/",
          "rightsHolder": null
        }
      }
    },
    {
      "type": "Feature",
      "geometry": {
        "type": "Point",
        "coordinates": [
          -71.683333,
          7.983333
        ]
      },
      "properties": {
        "gbifID": "4905661006",
        "species": "Solanum lucens",
        "genus": "Solanum",
        "family": "Solanaceae",
        "scientificName": "Solanum lucens S.Knapp",
        "coordinateUncertaintyInMeters": "",
        "basisOfRecord": "PRESERVED_SPECIMEN",
        "eventDate": "2006-04-11",
        "country": null,
        "datasetName": "",
        "publisher": "Instituto Venezolano de Investigaciones Científicas (IVIC)",
        "license": "CC_BY_4_0",
        "issues": [
          "COORDINATE_ROUNDED",
          "TAXON_ID_NOT_FOUND"
        ],
        "fallback_media": {
          "url": "https://collections.nmnh.si.edu/media/?i=12665319&h=2000",
          "references": null,
          "title": "00840577.tif",
          "creator": "Conveyor Belt",
          "publisher": "Smithsonian Institution, NMNH, Botany",
          "license": "http://creativecommons.org/publicdomain/zero/1.0/",
          "rightsHolder": null
        }
      }
    }
  ]
}
