{
  "type": "FeatureCollection",
  "metadata": {
    "host_taxon": {
      "canonical_name": "Passiflora glaucescens",
      "rank": "species",
      "family": "Passifloraceae",
      "genus": "Passiflora",
      "species": "Passiflora glaucescens",
      "slug": "species_passiflora_glaucescens",
      "resolvable_to_gbif": true,
      "use_for_default_download": true,
      "association_count": 2,
      "butterfly_taxa": [
        "Dryas iulia",
        "Heliconius erato"
      ],
      "confidence_counts": {
        "medium": 2
      },
      "occurrence_file": "occurrences/species_passiflora_glaucescens.geojson",
      "gbif_resolution": {
        "query": "Passiflora glaucescens",
        "rank": "species",
        "status": "resolved",
        "gbif_taxon_key": 3586635,
        "accepted_usage_key": 3588367,
        "scientific_name": "Passiflora glaucescens Killip",
        "canonical_name": "Passiflora glaucescens",
        "gbif_rank": "SPECIES",
        "taxonomic_status": "SYNONYM",
        "match_type": "EXACT",
        "confidence": 100,
        "kingdom": "Plantae",
        "family": "Passifloraceae",
        "genus": "Passiflora",
        "resolved_at": "2026-05-21T03:58:21+00:00"
      },
      "gbif_taxon_key": 3586635,
      "gbif_status": "resolved",
      "occurrence_count": 0,
      "occurrence_mode": "not_generated",
      "occurrence_cap": null
    },
    "gbif_resolution": {
      "query": "Passiflora glaucescens",
      "rank": "species",
      "status": "resolved",
      "gbif_taxon_key": 3586635,
      "accepted_usage_key": 3588367,
      "scientific_name": "Passiflora glaucescens Killip",
      "canonical_name": "Passiflora glaucescens",
      "gbif_rank": "SPECIES",
      "taxonomic_status": "SYNONYM",
      "match_type": "EXACT",
      "confidence": 100,
      "kingdom": "Plantae",
      "family": "Passifloraceae",
      "genus": "Passiflora",
      "resolved_at": "2026-05-21T03:58:21+00:00"
    },
    "occurrence_query": {
      "method": "gbif_download_api",
      "download_key": "0004690-260519110011954",
      "download_doi": "10.15468/dl.s2gcc3",
      "download_doi_url": "https://doi.org/10.15468/dl.s2gcc3",
      "limit": null,
      "dedupe": "Exact duplicate coordinates removed per taxon after DWCA download.",
      "filters": "GBIF Download API DWCA with TAXON_KEY, HAS_COORDINATE=true, HAS_GEOSPATIAL_ISSUE=false, OCCURRENCE_STATUS=PRESENT; app study extent and coordinate uncertainty <=100km applied locally.",
      "returned_unique_coordinate_records": 2
    },
    "scientific_caveat": "GBIF plant occurrences are sampling-biased context records and do not prove local host use or ecological availability for the butterfly.",
    "generated_at": "2026-05-21T15:57:20+00:00"
  },
  "features": [
    {
      "type": "Feature",
      "geometry": {
        "type": "Point",
        "coordinates": [
          -46.6361,
          -23.5475
        ]
      },
      "properties": {
        "gbifID": "1090564630",
        "species": "Passiflora porophylla",
        "genus": "Passiflora",
        "family": "Passifloraceae",
        "scientificName": "Passiflora glaucescens Killip",
        "coordinateUncertaintyInMeters": "",
        "basisOfRecord": "PRESERVED_SPECIMEN",
        "eventDate": "1935-03-22",
        "country": null,
        "datasetName": "",
        "publisher": "Instituto Agronômico (IAC)",
        "license": "CC_BY_4_0",
        "issues": [
          "CONTINENT_DERIVED_FROM_COORDINATES",
          "INSTITUTION_MATCH_FUZZY",
          "COLLECTION_MATCH_FUZZY"
        ],
        "fallback_media": {
          "url": "https://d2jcv3kl45hlgi.cloudfront.net/cb390ecbd256d6f35394bcae927dff21.jpg",
          "references": "http://specimens.kew.org/Herbarium/K001390261",
          "title": null,
          "creator": null,
          "publisher": null,
          "license": "http://creativecommons.org/licenses/by/4.0/",
          "rightsHolder": "Royal Botanic Gardens, Kew"
        }
      }
    },
    {
      "type": "Feature",
      "geometry": {
        "type": "Point",
        "coordinates": [
          -53.08982,
          -10.773109
        ]
      },
      "properties": {
        "gbifID": "1055922332",
        "species": "Passiflora porophylla",
        "genus": "Passiflora",
        "family": "Passifloraceae",
        "scientificName": "Passiflora glaucescens Killip",
        "coordinateUncertaintyInMeters": "4364.0",
        "basisOfRecord": "PRESERVED_SPECIMEN",
        "eventDate": "",
        "country": null,
        "datasetName": "",
        "publisher": "Natural History Museum",
        "license": "CC0_1_0",
        "issues": [
          "RECORDED_DATE_INVALID",
          "GEODETIC_DATUM_ASSUMED_WGS84",
          "INSTITUTION_MATCH_FUZZY",
          "COLLECTION_MATCH_FUZZY"
        ],
        "media": [
          {
            "url": "https://data.nhm.ac.uk/media/20a26bbb-86a7-4699-8961-1dae3fcbc116",
            "references": null,
            "title": "Passiflora glaucescens",
            "creator": null,
            "publisher": null,
            "license": "http://creativecommons.org/licenses/by/4.0/",
            "rightsHolder": "The Trustees of the Natural History Museum, London"
          },
          {
            "url": "https://data.nhm.ac.uk/media/fca97acf-e6c5-4e94-a8ef-c99c13b4d64f",
            "references": null,
            "title": "BM000566159",
            "creator": null,
            "publisher": null,
            "license": "http://creativecommons.org/licenses/by/4.0/",
            "rightsHolder": "The Trustees of the Natural History Museum, London"
          }
        ]
      }
    }
  ]
}
