{
  "type": "FeatureCollection",
  "metadata": {
    "host_taxon": {
      "canonical_name": "Solanum stagnale",
      "rank": "species",
      "family": "Solanaceae",
      "genus": "Solanum",
      "species": "Solanum stagnale",
      "slug": "species_solanum_stagnale",
      "resolvable_to_gbif": true,
      "use_for_default_download": true,
      "association_count": 1,
      "butterfly_taxa": [
        "Oleria astrea"
      ],
      "confidence_counts": {
        "medium": 1
      },
      "occurrence_file": "occurrences/species_solanum_stagnale.geojson",
      "gbif_resolution": {
        "query": "Solanum stagnale",
        "rank": "species",
        "status": "resolved",
        "gbif_taxon_key": 2930371,
        "accepted_usage_key": null,
        "scientific_name": "Solanum stagnale Moric.",
        "canonical_name": "Solanum stagnale",
        "gbif_rank": "SPECIES",
        "taxonomic_status": "ACCEPTED",
        "match_type": "EXACT",
        "confidence": 100,
        "kingdom": "Plantae",
        "family": "Solanaceae",
        "genus": "Solanum",
        "resolved_at": "2026-05-21T04:00:50+00:00"
      },
      "gbif_taxon_key": 2930371,
      "gbif_status": "resolved",
      "occurrence_count": 0,
      "occurrence_mode": "not_generated",
      "occurrence_cap": null
    },
    "gbif_resolution": {
      "query": "Solanum stagnale",
      "rank": "species",
      "status": "resolved",
      "gbif_taxon_key": 2930371,
      "accepted_usage_key": null,
      "scientific_name": "Solanum stagnale Moric.",
      "canonical_name": "Solanum stagnale",
      "gbif_rank": "SPECIES",
      "taxonomic_status": "ACCEPTED",
      "match_type": "EXACT",
      "confidence": 100,
      "kingdom": "Plantae",
      "family": "Solanaceae",
      "genus": "Solanum",
      "resolved_at": "2026-05-21T04:00:50+00:00"
    },
    "occurrence_query": {
      "method": "gbif_download_api",
      "download_key": "0004690-260519110011954",
      "download_doi": "10.15468/dl.s2gcc3",
      "download_doi_url": "https://doi.org/10.15468/dl.s2gcc3",
      "limit": null,
      "dedupe": "Exact duplicate coordinates removed per taxon after DWCA download.",
      "filters": "GBIF Download API DWCA with TAXON_KEY, HAS_COORDINATE=true, HAS_GEOSPATIAL_ISSUE=false, OCCURRENCE_STATUS=PRESENT; app study extent and coordinate uncertainty <=100km applied locally.",
      "returned_unique_coordinate_records": 43
    },
    "scientific_caveat": "GBIF plant occurrences are sampling-biased context records and do not prove local host use or ecological availability for the butterfly.",
    "generated_at": "2026-05-21T15:57:24+00:00"
  },
  "features": [
    {
      "type": "Feature",
      "geometry": {
        "type": "Point",
        "coordinates": [
          -38.888241,
          -15.892838
        ]
      },
      "properties": {
        "gbifID": "5070682729",
        "species": "Solanum stagnale",
        "genus": "Solanum",
        "family": "Solanaceae",
        "scientificName": "Solanum stagnale Moric.",
        "coordinateUncertaintyInMeters": "800.0",
        "basisOfRecord": "PRESERVED_SPECIMEN",
        "eventDate": "1981-01-07",
        "country": null,
        "datasetName": "",
        "publisher": "Indiana University Herbarium",
        "license": "CC_BY_NC_4_0",
        "issues": [
          "GEODETIC_DATUM_ASSUMED_WGS84",
          "CONTINENT_DERIVED_FROM_COORDINATES",
          "INSTITUTION_MATCH_FUZZY",
          "TAXON_ID_NOT_FOUND"
        ],
        "media": [
          {
            "url": "http://purl.dlib.indiana.edu/iudl/herbarium/full/IND-0109160",
            "references": null,
            "title": null,
            "creator": null,
            "publisher": null,
            "license": null,
            "rightsHolder": "The Trustees of Indiana University"
          }
        ]
      }
    },
    {
      "type": "Feature",
      "geometry": {
        "type": "Point",
        "coordinates": [
          -38.357288,
          -12.944185
        ]
      },
      "properties": {
        "gbifID": "5070682870",
        "species": "Solanum stagnale",
        "genus": "Solanum",
        "family": "Solanaceae",
        "scientificName": "Solanum stagnale Moric.",
        "coordinateUncertaintyInMeters": "300.0",
        "basisOfRecord": "PRESERVED_SPECIMEN",
        "eventDate": "1981-05-22",
        "country": null,
        "datasetName": "",
        "publisher": "Indiana University Herbarium",
        "license": "CC_BY_NC_4_0",
        "issues": [
          "GEODETIC_DATUM_ASSUMED_WGS84",
          "CONTINENT_DERIVED_FROM_COORDINATES",
          "INSTITUTION_MATCH_FUZZY",
          "TAXON_ID_NOT_FOUND"
        ],
        "media": [
          {
            "url": "http://purl.dlib.indiana.edu/iudl/herbarium/full/IND-0109159",
            "references": null,
            "title": null,
            "creator": null,
            "publisher": null,
            "license": null,
            "rightsHolder": "The Trustees of Indiana University"
          }
        ]
      }
    },
    {
      "type": "Feature",
      "geometry": {
        "type": "Point",
        "coordinates": [
          -39.044739,
          -16.286159
        ]
      },
      "properties": {
        "gbifID": "5070680966",
        "species": "Solanum stagnale",
        "genus": "Solanum",
        "family": "Solanaceae",
        "scientificName": "Solanum stagnale Moric.",
        "coordinateUncertaintyInMeters": "3000.0",
        "basisOfRecord": "PRESERVED_SPECIMEN",
        "eventDate": "1980-06-16",
        "country": null,
        "datasetName": "",
        "publisher": "Indiana University Herbarium",
        "license": "CC_BY_NC_4_0",
        "issues": [
          "GEODETIC_DATUM_ASSUMED_WGS84",
          "CONTINENT_DERIVED_FROM_COORDINATES",
          "INSTITUTION_MATCH_FUZZY",
          "TAXON_ID_NOT_FOUND"
        ],
        "media": [
          {
            "url": "http://purl.dlib.indiana.edu/iudl/herbarium/full/IND-0109158",
            "references": null,
            "title": null,
            "creator": null,
            "publisher": null,
            "license": null,
            "rightsHolder": "The Trustees of Indiana University"
          }
        ]
      }
    },
    {
      "type": "Feature",
      "geometry": {
        "type": "Point",
        "coordinates": [
          -39.011647,
          -13.32355
        ]
      },
      "properties": {
        "gbifID": "5070680968",
        "species": "Solanum stagnale",
        "genus": "Solanum",
        "family": "Solanaceae",
        "scientificName": "Solanum stagnale Moric.",
        "coordinateUncertaintyInMeters": "1000.0",
        "basisOfRecord": "PRESERVED_SPECIMEN",
        "eventDate": "1983-02-06",
        "country": null,
        "datasetName": "",
        "publisher": "Indiana University Herbarium",
        "license": "CC_BY_NC_4_0",
        "issues": [
          "GEODETIC_DATUM_ASSUMED_WGS84",
          "CONTINENT_DERIVED_FROM_COORDINATES",
          "INSTITUTION_MATCH_FUZZY",
          "TAXON_ID_NOT_FOUND"
        ],
        "media": [
          {
            "url": "http://purl.dlib.indiana.edu/iudl/herbarium/full/IND-0109155",
            "references": null,
            "title": null,
            "creator": null,
            "publisher": null,
            "license": null,
            "rightsHolder": "The Trustees of Indiana University"
          }
        ]
      }
    },
    {
      "type": "Feature",
      "geometry": {
        "type": "Point",
        "coordinates": [
          -39.415833,
          -17.141667
        ]
      },
      "properties": {
        "gbifID": "5295084941",
        "species": "Solanum stagnale",
        "genus": "Solanum",
        "family": "Solanaceae",
        "scientificName": "Solanum stagnale Moric.",
        "coordinateUncertaintyInMeters": "",
        "basisOfRecord": "PRESERVED_SPECIMEN",
        "eventDate": "2024-05-14",
        "country": null,
        "datasetName": "",
        "publisher": "Instituto de Pesquisas Jardim Botanico do Rio de Janeiro",
        "license": "CC_BY_4_0",
        "issues": [
          "COORDINATE_ROUNDED",
          "GEODETIC_DATUM_ASSUMED_WGS84",
          "CONTINENT_DERIVED_FROM_COORDINATES",
          "INSTITUTION_MATCH_FUZZY",
          "COLLECTION_MATCH_FUZZY"
        ],
        "fallback_media": {
          "url": "https://inaturalist-open-data.s3.amazonaws.com/photos/107493874/original.jpeg",
          "references": "https://www.inaturalist.org/photos/107493874",
          "title": null,
          "creator": "Wagner Nogueira",
          "publisher": "iNaturalist",
          "license": "http://creativecommons.org/licenses/by-nc/4.0/",
          "rightsHolder": "Wagner Nogueira"
        }
      }
    },
    {
      "type": "Feature",
      "geometry": {
        "type": "Point",
        "coordinates": [
          -38.3575,
          -12.944444
        ]
      },
      "properties": {
        "gbifID": "2997897341",
        "species": "Solanum stagnale",
        "genus": "Solanum",
        "family": "Solanaceae",
        "scientificName": "Solanum stagnale Moric.",
        "coordinateUncertaintyInMeters": "",
        "basisOfRecord": "PRESERVED_SPECIMEN",
        "eventDate": "1981-05-22",
        "country": null,
        "datasetName": "",
        "publisher": "Instituto de Pesquisas Jardim Botanico do Rio de Janeiro",
        "license": "CC_BY_4_0",
        "issues": [
          "COORDINATE_ROUNDED",
          "GEODETIC_DATUM_ASSUMED_WGS84",
          "CONTINENT_DERIVED_FROM_COORDINATES",
          "INSTITUTION_MATCH_FUZZY",
          "COLLECTION_MATCH_FUZZY"
        ],
        "fallback_media": {
          "url": "https://inaturalist-open-data.s3.amazonaws.com/photos/107493874/original.jpeg",
          "references": "https://www.inaturalist.org/photos/107493874",
          "title": null,
          "creator": "Wagner Nogueira",
          "publisher": "iNaturalist",
          "license": "http://creativecommons.org/licenses/by-nc/4.0/",
          "rightsHolder": "Wagner Nogueira"
        }
      }
    },
    {
      "type": "Feature",
      "geometry": {
        "type": "Point",
        "coordinates": [
          -39.049167,
          -14.789167
        ]
      },
      "properties": {
        "gbifID": "2997374328",
        "species": "Solanum stagnale",
        "genus": "Solanum",
        "family": "Solanaceae",
        "scientificName": "Solanum stagnale Moric.",
        "coordinateUncertaintyInMeters": "",
        "basisOfRecord": "PRESERVED_SPECIMEN",
        "eventDate": "1821",
        "country": null,
        "datasetName": "",
        "publisher": "Instituto de Pesquisas Jardim Botanico do Rio de Janeiro",
        "license": "CC_BY_4_0",
        "issues": [
          "RECORDED_DATE_INVALID",
          "COORDINATE_ROUNDED",
          "GEODETIC_DATUM_ASSUMED_WGS84",
          "CONTINENT_DERIVED_FROM_COORDINATES",
          "INSTITUTION_MATCH_FUZZY",
          "COLLECTION_MATCH_FUZZY"
        ],
        "fallback_media": {
          "url": "https://inaturalist-open-data.s3.amazonaws.com/photos/107493874/original.jpeg",
          "references": "https://www.inaturalist.org/photos/107493874",
          "title": null,
          "creator": "Wagner Nogueira",
          "publisher": "iNaturalist",
          "license": "http://creativecommons.org/licenses/by-nc/4.0/",
          "rightsHolder": "Wagner Nogueira"
        }
      }
    },
    {
      "type": "Feature",
      "geometry": {
        "type": "Point",
        "coordinates": [
          -39.280278,
          -14.785833
        ]
      },
      "properties": {
        "gbifID": "2997375330",
        "species": "Solanum stagnale",
        "genus": "Solanum",
        "family": "Solanaceae",
        "scientificName": "Solanum stagnale Moric.",
        "coordinateUncertaintyInMeters": "",
        "basisOfRecord": "PRESERVED_SPECIMEN",
        "eventDate": "",
        "country": null,
        "datasetName": "",
        "publisher": "Instituto de Pesquisas Jardim Botanico do Rio de Janeiro",
        "license": "CC_BY_4_0",
        "issues": [
          "COORDINATE_ROUNDED",
          "GEODETIC_DATUM_ASSUMED_WGS84",
          "CONTINENT_DERIVED_FROM_COORDINATES",
          "INSTITUTION_MATCH_FUZZY",
          "COLLECTION_MATCH_FUZZY"
        ],
        "fallback_media": {
          "url": "https://inaturalist-open-data.s3.amazonaws.com/photos/107493874/original.jpeg",
          "references": "https://www.inaturalist.org/photos/107493874",
          "title": null,
          "creator": "Wagner Nogueira",
          "publisher": "iNaturalist",
          "license": "http://creativecommons.org/licenses/by-nc/4.0/",
          "rightsHolder": "Wagner Nogueira"
        }
      }
    },
    {
      "type": "Feature",
      "geometry": {
        "type": "Point",
        "coordinates": [
          -39.075278,
          -15.293333
        ]
      },
      "properties": {
        "gbifID": "2997920342",
        "species": "Solanum stagnale",
        "genus": "Solanum",
        "family": "Solanaceae",
        "scientificName": "Solanum stagnale Moric.",
        "coordinateUncertaintyInMeters": "",
        "basisOfRecord": "PRESERVED_SPECIMEN",
        "eventDate": "1965-05-21",
        "country": null,
        "datasetName": "",
        "publisher": "Instituto de Pesquisas Jardim Botanico do Rio de Janeiro",
        "license": "CC_BY_4_0",
        "issues": [
          "IDENTIFIED_DATE_INVALID",
          "COORDINATE_ROUNDED",
          "GEODETIC_DATUM_ASSUMED_WGS84",
          "CONTINENT_DERIVED_FROM_COORDINATES",
          "INSTITUTION_MATCH_FUZZY",
          "COLLECTION_MATCH_FUZZY"
        ],
        "fallback_media": {
          "url": "https://inaturalist-open-data.s3.amazonaws.com/photos/107493874/original.jpeg",
          "references": "https://www.inaturalist.org/photos/107493874",
          "title": null,
          "creator": "Wagner Nogueira",
          "publisher": "iNaturalist",
          "license": "http://creativecommons.org/licenses/by-nc/4.0/",
          "rightsHolder": "Wagner Nogueira"
        }
      }
    },
    {
      "type": "Feature",
      "geometry": {
        "type": "Point",
        "coordinates": [
          -65.6,
          -1.85
        ]
      },
      "properties": {
        "gbifID": "1424196654",
        "species": "Solanum stagnale",
        "genus": "Solanum",
        "family": "Solanaceae",
        "scientificName": "Solanum stagnale Moric.",
        "coordinateUncertaintyInMeters": "",
        "basisOfRecord": "PRESERVED_SPECIMEN",
        "eventDate": "1982-12-04",
        "country": null,
        "datasetName": "RB - Rio de Janeiro Botanical Garden Herbarium Collection",
        "publisher": "Instituto de Pesquisas Jardim Botanico do Rio de Janeiro",
        "license": "CC_BY_4_0",
        "issues": [
          "GEODETIC_DATUM_ASSUMED_WGS84",
          "CONTINENT_DERIVED_FROM_COORDINATES",
          "INSTITUTION_MATCH_FUZZY",
          "COLLECTION_MATCH_FUZZY"
        ],
        "media": [
          {
            "url": "http://jbrj-public-img.s3-sa-east-1.amazonaws.com/JPG/rb/0/46/80/45/00468045.jpg",
            "references": null,
            "title": null,
            "creator": null,
            "publisher": null,
            "license": null,
            "rightsHolder": null
          }
        ]
      }
    },
    {
      "type": "Feature",
      "geometry": {
        "type": "Point",
        "coordinates": [
          -38.35,
          -12.35
        ]
      },
      "properties": {
        "gbifID": "4900618113",
        "species": "Solanum stagnale",
        "genus": "Solanum",
        "family": "Solanaceae",
        "scientificName": "Solanum stagnale Moric.",
        "coordinateUncertaintyInMeters": "",
        "basisOfRecord": "PRESERVED_SPECIMEN",
        "eventDate": "1985-12-11",
        "country": null,
        "datasetName": "",
        "publisher": "Instituto de Pesquisas Jardim Botanico do Rio de Janeiro",
        "license": "CC_BY_4_0",
        "issues": [
          "RECORDED_DATE_INVALID",
          "GEODETIC_DATUM_ASSUMED_WGS84",
          "CONTINENT_DERIVED_FROM_COORDINATES",
          "INSTITUTION_MATCH_FUZZY",
          "COLLECTION_MATCH_FUZZY"
        ],
        "fallback_media": {
          "url": "https://inaturalist-open-data.s3.amazonaws.com/photos/107493874/original.jpeg",
          "references": "https://www.inaturalist.org/photos/107493874",
          "title": null,
          "creator": "Wagner Nogueira",
          "publisher": "iNaturalist",
          "license": "http://creativecommons.org/licenses/by-nc/4.0/",
          "rightsHolder": "Wagner Nogueira"
        }
      }
    },
    {
      "type": "Feature",
      "geometry": {
        "type": "Point",
        "coordinates": [
          -41.0,
          -13.0
        ]
      },
      "properties": {
        "gbifID": "2996071778",
        "species": "Solanum stagnale",
        "genus": "Solanum",
        "family": "Solanaceae",
        "scientificName": "Solanum stagnale Moric.",
        "coordinateUncertaintyInMeters": "",
        "basisOfRecord": "PRESERVED_SPECIMEN",
        "eventDate": "1997-02-13",
        "country": null,
        "datasetName": "",
        "publisher": "Instituto de Pesquisas Jardim Botanico do Rio de Janeiro",
        "license": "CC_BY_4_0",
        "issues": [
          "IDENTIFIED_DATE_INVALID",
          "GEODETIC_DATUM_ASSUMED_WGS84",
          "CONTINENT_DERIVED_FROM_COORDINATES",
          "ELEVATION_MIN_MAX_SWAPPED",
          "INSTITUTION_MATCH_FUZZY",
          "COLLECTION_MATCH_FUZZY"
        ],
        "fallback_media": {
          "url": "https://inaturalist-open-data.s3.amazonaws.com/photos/107493874/original.jpeg",
          "references": "https://www.inaturalist.org/photos/107493874",
          "title": null,
          "creator": "Wagner Nogueira",
          "publisher": "iNaturalist",
          "license": "http://creativecommons.org/licenses/by-nc/4.0/",
          "rightsHolder": "Wagner Nogueira"
        }
      }
    },
    {
      "type": "Feature",
      "geometry": {
        "type": "Point",
        "coordinates": [
          -39.216667,
          -17.5
        ]
      },
      "properties": {
        "gbifID": "1424197405",
        "species": "Solanum stagnale",
        "genus": "Solanum",
        "family": "Solanaceae",
        "scientificName": "Solanum stagnale Moric.",
        "coordinateUncertaintyInMeters": "",
        "basisOfRecord": "PRESERVED_SPECIMEN",
        "eventDate": "1977-01-15",
        "country": null,
        "datasetName": "RB - Rio de Janeiro Botanical Garden Herbarium Collection",
        "publisher": "Instituto de Pesquisas Jardim Botanico do Rio de Janeiro",
        "license": "CC_BY_4_0",
        "issues": [
          "COORDINATE_ROUNDED",
          "GEODETIC_DATUM_ASSUMED_WGS84",
          "CONTINENT_DERIVED_FROM_COORDINATES",
          "INSTITUTION_MATCH_FUZZY",
          "COLLECTION_MATCH_FUZZY"
        ],
        "media": [
          {
            "url": "http://jbrj-public-img.s3-sa-east-1.amazonaws.com/JPG/rb/0/46/88/49/00468849.jpg",
            "references": null,
            "title": null,
            "creator": null,
            "publisher": null,
            "license": null,
            "rightsHolder": null
          }
        ]
      }
    },
    {
      "type": "Feature",
      "geometry": {
        "type": "Point",
        "coordinates": [
          -39.195556,
          -17.519444
        ]
      },
      "properties": {
        "gbifID": "1304589658",
        "species": "Solanum stagnale",
        "genus": "Solanum",
        "family": "Solanaceae",
        "scientificName": "Solanum stagnale Moric.",
        "coordinateUncertaintyInMeters": "",
        "basisOfRecord": "OCCURRENCE",
        "eventDate": "1993-07-08",
        "country": null,
        "datasetName": "",
        "publisher": "Centro Internacional de Agricultura Tropical - CIAT",
        "license": "CC_BY_4_0",
        "issues": [
          "RECORDED_DATE_INVALID",
          "COORDINATE_ROUNDED",
          "GEODETIC_DATUM_ASSUMED_WGS84",
          "CONTINENT_DERIVED_FROM_COORDINATES"
        ],
        "fallback_media": {
          "url": "https://inaturalist-open-data.s3.amazonaws.com/photos/107493874/original.jpeg",
          "references": "https://www.inaturalist.org/photos/107493874",
          "title": null,
          "creator": "Wagner Nogueira",
          "publisher": "iNaturalist",
          "license": "http://creativecommons.org/licenses/by-nc/4.0/",
          "rightsHolder": "Wagner Nogueira"
        }
      }
    },
    {
      "type": "Feature",
      "geometry": {
        "type": "Point",
        "coordinates": [
          -38.510556,
          -12.971111
        ]
      },
      "properties": {
        "gbifID": "1304591928",
        "species": "Solanum stagnale",
        "genus": "Solanum",
        "family": "Solanaceae",
        "scientificName": "Solanum stagnale Moric.",
        "coordinateUncertaintyInMeters": "",
        "basisOfRecord": "OCCURRENCE",
        "eventDate": "1981-05-22",
        "country": null,
        "datasetName": "",
        "publisher": "Centro Internacional de Agricultura Tropical - CIAT",
        "license": "CC_BY_4_0",
        "issues": [
          "RECORDED_DATE_INVALID",
          "COORDINATE_ROUNDED",
          "GEODETIC_DATUM_ASSUMED_WGS84",
          "CONTINENT_DERIVED_FROM_COORDINATES"
        ],
        "fallback_media": {
          "url": "https://inaturalist-open-data.s3.amazonaws.com/photos/107493874/original.jpeg",
          "references": "https://www.inaturalist.org/photos/107493874",
          "title": null,
          "creator": "Wagner Nogueira",
          "publisher": "iNaturalist",
          "license": "http://creativecommons.org/licenses/by-nc/4.0/",
          "rightsHolder": "Wagner Nogueira"
        }
      }
    },
    {
      "type": "Feature",
      "geometry": {
        "type": "Point",
        "coordinates": [
          -38.299167,
          -12.530556
        ]
      },
      "properties": {
        "gbifID": "1304602070",
        "species": "Solanum stagnale",
        "genus": "Solanum",
        "family": "Solanaceae",
        "scientificName": "Solanum stagnale Moric.",
        "coordinateUncertaintyInMeters": "",
        "basisOfRecord": "OCCURRENCE",
        "eventDate": "1995-08-18",
        "country": null,
        "datasetName": "",
        "publisher": "Centro Internacional de Agricultura Tropical - CIAT",
        "license": "CC_BY_4_0",
        "issues": [
          "RECORDED_DATE_INVALID",
          "COORDINATE_ROUNDED",
          "GEODETIC_DATUM_ASSUMED_WGS84",
          "CONTINENT_DERIVED_FROM_COORDINATES"
        ],
        "fallback_media": {
          "url": "https://inaturalist-open-data.s3.amazonaws.com/photos/107493874/original.jpeg",
          "references": "https://www.inaturalist.org/photos/107493874",
          "title": null,
          "creator": "Wagner Nogueira",
          "publisher": "iNaturalist",
          "license": "http://creativecommons.org/licenses/by-nc/4.0/",
          "rightsHolder": "Wagner Nogueira"
        }
      }
    },
    {
      "type": "Feature",
      "geometry": {
        "type": "Point",
        "coordinates": [
          -39.049087,
          -14.792907
        ]
      },
      "properties": {
        "gbifID": "1927907099",
        "species": "Solanum stagnale",
        "genus": "Solanum",
        "family": "Solanaceae",
        "scientificName": "Solanum stagnale Moric.",
        "coordinateUncertaintyInMeters": "",
        "basisOfRecord": "PRESERVED_SPECIMEN",
        "eventDate": "1821",
        "country": null,
        "datasetName": "Vascular plants",
        "publisher": "The New York Botanical Garden",
        "license": "CC0_1_0",
        "issues": [
          "MODIFIED_DATE_INVALID",
          "COORDINATE_REPROJECTED"
        ],
        "media": [
          {
            "url": "http://sweetgum.nybg.org/images3/209/412/v-287-00770636.jpg",
            "references": null,
            "title": null,
            "creator": "The New York Botanical Garden",
            "publisher": null,
            "license": "http://creativecommons.org/licenses/by/4.0/",
            "rightsHolder": "The New York Botanical Garden"
          }
        ]
      }
    },
    {
      "type": "Feature",
      "geometry": {
        "type": "Point",
        "coordinates": [
          -39.280202,
          -14.789507
        ]
      },
      "properties": {
        "gbifID": "1927966026",
        "species": "Solanum stagnale",
        "genus": "Solanum",
        "family": "Solanaceae",
        "scientificName": "Solanum stagnale Moric.",
        "coordinateUncertaintyInMeters": "30592.0",
        "basisOfRecord": "PRESERVED_SPECIMEN",
        "eventDate": "1983-10-28",
        "country": null,
        "datasetName": "Vascular plants",
        "publisher": "The New York Botanical Garden",
        "license": "CC0_1_0",
        "issues": [
          "MODIFIED_DATE_INVALID",
          "COORDINATE_REPROJECTED"
        ],
        "media": [
          {
            "url": "http://sweetgum.nybg.org/images3/209/411/v-287-00770635.jpg",
            "references": null,
            "title": null,
            "creator": "The New York Botanical Garden",
            "publisher": null,
            "license": "http://creativecommons.org/licenses/by/4.0/",
            "rightsHolder": "The New York Botanical Garden"
          }
        ]
      }
    },
    {
      "type": "Feature",
      "geometry": {
        "type": "Point",
        "coordinates": [
          -38.357405,
          -12.944359
        ]
      },
      "properties": {
        "gbifID": "1928024313",
        "species": "Solanum stagnale",
        "genus": "Solanum",
        "family": "Solanaceae",
        "scientificName": "Solanum stagnale Moric.",
        "coordinateUncertaintyInMeters": "",
        "basisOfRecord": "PRESERVED_SPECIMEN",
        "eventDate": "1981-05-22",
        "country": null,
        "datasetName": "Vascular plants",
        "publisher": "The New York Botanical Garden",
        "license": "CC0_1_0",
        "issues": [
          "MODIFIED_DATE_INVALID"
        ],
        "media": [
          {
            "url": "http://sweetgum.nybg.org/images3/108/090/v-287-00770630.jpg",
            "references": null,
            "title": null,
            "creator": "The New York Botanical Garden",
            "publisher": null,
            "license": "http://creativecommons.org/licenses/by/4.0/",
            "rightsHolder": "The New York Botanical Garden"
          },
          {
            "url": "http://sweetgum.nybg.org/images3/4474/720/00770630.jpg",
            "references": null,
            "title": null,
            "creator": "The New York Botanical Garden",
            "publisher": null,
            "license": "http://creativecommons.org/licenses/by/4.0/",
            "rightsHolder": "The New York Botanical Garden"
          }
        ]
      }
    },
    {
      "type": "Feature",
      "geometry": {
        "type": "Point",
        "coordinates": [
          -39.1956,
          -17.5194
        ]
      },
      "properties": {
        "gbifID": "1928692339",
        "species": "Solanum stagnale",
        "genus": "Solanum",
        "family": "Solanaceae",
        "scientificName": "Solanum stagnale Moric.",
        "coordinateUncertaintyInMeters": "",
        "basisOfRecord": "PRESERVED_SPECIMEN",
        "eventDate": "1993-07-08",
        "country": null,
        "datasetName": "Vascular plants",
        "publisher": "The New York Botanical Garden",
        "license": "CC0_1_0",
        "issues": [
          "MODIFIED_DATE_INVALID",
          "GEODETIC_DATUM_ASSUMED_WGS84"
        ],
        "media": [
          {
            "url": "http://sweetgum.nybg.org/images3/209/409/v-287-00770633.jpg",
            "references": null,
            "title": null,
            "creator": "The New York Botanical Garden",
            "publisher": null,
            "license": "http://creativecommons.org/licenses/by/4.0/",
            "rightsHolder": "The New York Botanical Garden"
          }
        ]
      }
    },
    {
      "type": "Feature",
      "geometry": {
        "type": "Point",
        "coordinates": [
          -38.299039,
          -12.534255
        ]
      },
      "properties": {
        "gbifID": "1929313656",
        "species": "Solanum stagnale",
        "genus": "Solanum",
        "family": "Solanaceae",
        "scientificName": "Solanum stagnale Moric.",
        "coordinateUncertaintyInMeters": "",
        "basisOfRecord": "PRESERVED_SPECIMEN",
        "eventDate": "1995-08-18",
        "country": null,
        "datasetName": "Vascular plants",
        "publisher": "The New York Botanical Garden",
        "license": "CC0_1_0",
        "issues": [
          "MODIFIED_DATE_INVALID",
          "COORDINATE_REPROJECTED"
        ],
        "media": [
          {
            "url": "http://sweetgum.nybg.org/images3/209/407/v-287-00770631.jpg",
            "references": null,
            "title": null,
            "creator": "The New York Botanical Garden",
            "publisher": null,
            "license": "http://creativecommons.org/licenses/by/4.0/",
            "rightsHolder": "The New York Botanical Garden"
          }
        ]
      }
    },
    {
      "type": "Feature",
      "geometry": {
        "type": "Point",
        "coordinates": [
          -39.075188,
          -15.297018
        ]
      },
      "properties": {
        "gbifID": "1930294032",
        "species": "Solanum stagnale",
        "genus": "Solanum",
        "family": "Solanaceae",
        "scientificName": "Solanum stagnale Moric.",
        "coordinateUncertaintyInMeters": "",
        "basisOfRecord": "PRESERVED_SPECIMEN",
        "eventDate": "1965-05-21",
        "country": null,
        "datasetName": "Vascular plants",
        "publisher": "The New York Botanical Garden",
        "license": "CC0_1_0",
        "issues": [
          "MODIFIED_DATE_INVALID",
          "COORDINATE_REPROJECTED"
        ],
        "media": [
          {
            "url": "http://sweetgum.nybg.org/images3/209/408/v-287-00770632.jpg",
            "references": null,
            "title": null,
            "creator": "The New York Botanical Garden",
            "publisher": null,
            "license": "http://creativecommons.org/licenses/by/4.0/",
            "rightsHolder": "The New York Botanical Garden"
          }
        ]
      }
    },
    {
      "type": "Feature",
      "geometry": {
        "type": "Point",
        "coordinates": [
          -38.35,
          -12.933333
        ]
      },
      "properties": {
        "gbifID": "1094761006",
        "species": "Solanum stagnale",
        "genus": "Solanum",
        "family": "Solanaceae",
        "scientificName": "Solanum stagnale Moric.",
        "coordinateUncertaintyInMeters": "",
        "basisOfRecord": "PRESERVED_SPECIMEN",
        "eventDate": "1999-10-02",
        "country": null,
        "datasetName": "",
        "publisher": "Universidade Estadual de Feira de Santana",
        "license": "CC_BY_4_0",
        "issues": [
          "CONTINENT_DERIVED_FROM_COORDINATES",
          "INSTITUTION_MATCH_FUZZY",
          "INSTITUTION_COLLECTION_MISMATCH"
        ],
        "fallback_media": {
          "url": "https://inaturalist-open-data.s3.amazonaws.com/photos/107493874/original.jpeg",
          "references": "https://www.inaturalist.org/photos/107493874",
          "title": null,
          "creator": "Wagner Nogueira",
          "publisher": "iNaturalist",
          "license": "http://creativecommons.org/licenses/by-nc/4.0/",
          "rightsHolder": "Wagner Nogueira"
        }
      }
    },
    {
      "type": "Feature",
      "geometry": {
        "type": "Point",
        "coordinates": [
          -39.564722,
          -15.393056
        ]
      },
      "properties": {
        "gbifID": "1090506955",
        "species": "Solanum stagnale",
        "genus": "Solanum",
        "family": "Solanaceae",
        "scientificName": "Solanum stagnale Moric.",
        "coordinateUncertaintyInMeters": "",
        "basisOfRecord": "PRESERVED_SPECIMEN",
        "eventDate": "2007-05-01",
        "country": null,
        "datasetName": "",
        "publisher": "Comissão Executiva do Plano da Lavoura Cacaueira – Centro de Pesquisas do Cacau",
        "license": "CC_BY_4_0",
        "issues": [
          "CONTINENT_DERIVED_FROM_COORDINATES",
          "INSTITUTION_MATCH_NONE"
        ],
        "fallback_media": {
          "url": "https://inaturalist-open-data.s3.amazonaws.com/photos/107493874/original.jpeg",
          "references": "https://www.inaturalist.org/photos/107493874",
          "title": null,
          "creator": "Wagner Nogueira",
          "publisher": "iNaturalist",
          "license": "http://creativecommons.org/licenses/by-nc/4.0/",
          "rightsHolder": "Wagner Nogueira"
        }
      }
    },
    {
      "type": "Feature",
      "geometry": {
        "type": "Point",
        "coordinates": [
          -39.583333,
          -15.166667
        ]
      },
      "properties": {
        "gbifID": "1090474918",
        "species": "Solanum stagnale",
        "genus": "Solanum",
        "family": "Solanaceae",
        "scientificName": "Solanum stagnale Moric.",
        "coordinateUncertaintyInMeters": "",
        "basisOfRecord": "PRESERVED_SPECIMEN",
        "eventDate": "1998-04-10",
        "country": null,
        "datasetName": "",
        "publisher": "Comissão Executiva do Plano da Lavoura Cacaueira – Centro de Pesquisas do Cacau",
        "license": "CC_BY_4_0",
        "issues": [
          "CONTINENT_DERIVED_FROM_COORDINATES",
          "INSTITUTION_MATCH_NONE"
        ],
        "fallback_media": {
          "url": "https://inaturalist-open-data.s3.amazonaws.com/photos/107493874/original.jpeg",
          "references": "https://www.inaturalist.org/photos/107493874",
          "title": null,
          "creator": "Wagner Nogueira",
          "publisher": "iNaturalist",
          "license": "http://creativecommons.org/licenses/by-nc/4.0/",
          "rightsHolder": "Wagner Nogueira"
        }
      }
    },
    {
      "type": "Feature",
      "geometry": {
        "type": "Point",
        "coordinates": [
          -39.528611,
          -15.158056
        ]
      },
      "properties": {
        "gbifID": "1090475630",
        "species": "Solanum stagnale",
        "genus": "Solanum",
        "family": "Solanaceae",
        "scientificName": "Solanum stagnale Moric.",
        "coordinateUncertaintyInMeters": "",
        "basisOfRecord": "PRESERVED_SPECIMEN",
        "eventDate": "1998-11-21",
        "country": null,
        "datasetName": "",
        "publisher": "Comissão Executiva do Plano da Lavoura Cacaueira – Centro de Pesquisas do Cacau",
        "license": "CC_BY_4_0",
        "issues": [
          "CONTINENT_DERIVED_FROM_COORDINATES",
          "INSTITUTION_MATCH_NONE"
        ],
        "fallback_media": {
          "url": "https://inaturalist-open-data.s3.amazonaws.com/photos/107493874/original.jpeg",
          "references": "https://www.inaturalist.org/photos/107493874",
          "title": null,
          "creator": "Wagner Nogueira",
          "publisher": "iNaturalist",
          "license": "http://creativecommons.org/licenses/by-nc/4.0/",
          "rightsHolder": "Wagner Nogueira"
        }
      }
    },
    {
      "type": "Feature",
      "geometry": {
        "type": "Point",
        "coordinates": [
          -40.030722,
          -16.058278
        ]
      },
      "properties": {
        "gbifID": "1087629002",
        "species": "Solanum stagnale",
        "genus": "Solanum",
        "family": "Solanaceae",
        "scientificName": "Solanum stagnale Moric.",
        "coordinateUncertaintyInMeters": "",
        "basisOfRecord": "PRESERVED_SPECIMEN",
        "eventDate": "2003-02-19",
        "country": null,
        "datasetName": "",
        "publisher": "Universidade Federal de Minas Gerais",
        "license": "CC_BY_4_0",
        "issues": [
          "IDENTIFIED_DATE_INVALID",
          "CONTINENT_DERIVED_FROM_COORDINATES",
          "INSTITUTION_MATCH_NONE"
        ],
        "fallback_media": {
          "url": "https://inaturalist-open-data.s3.amazonaws.com/photos/107493874/original.jpeg",
          "references": "https://www.inaturalist.org/photos/107493874",
          "title": null,
          "creator": "Wagner Nogueira",
          "publisher": "iNaturalist",
          "license": "http://creativecommons.org/licenses/by-nc/4.0/",
          "rightsHolder": "Wagner Nogueira"
        }
      }
    },
    {
      "type": "Feature",
      "geometry": {
        "type": "Point",
        "coordinates": [
          -40.033194,
          -16.05575
        ]
      },
      "properties": {
        "gbifID": "1087630305",
        "species": "Solanum stagnale",
        "genus": "Solanum",
        "family": "Solanaceae",
        "scientificName": "Solanum stagnale Moric.",
        "coordinateUncertaintyInMeters": "",
        "basisOfRecord": "PRESERVED_SPECIMEN",
        "eventDate": "2003-08-21",
        "country": null,
        "datasetName": "",
        "publisher": "Universidade Federal de Minas Gerais",
        "license": "CC_BY_4_0",
        "issues": [
          "IDENTIFIED_DATE_INVALID",
          "CONTINENT_DERIVED_FROM_COORDINATES",
          "INSTITUTION_MATCH_NONE"
        ],
        "fallback_media": {
          "url": "https://inaturalist-open-data.s3.amazonaws.com/photos/107493874/original.jpeg",
          "references": "https://www.inaturalist.org/photos/107493874",
          "title": null,
          "creator": "Wagner Nogueira",
          "publisher": "iNaturalist",
          "license": "http://creativecommons.org/licenses/by-nc/4.0/",
          "rightsHolder": "Wagner Nogueira"
        }
      }
    },
    {
      "type": "Feature",
      "geometry": {
        "type": "Point",
        "coordinates": [
          -39.126,
          -14.616
        ]
      },
      "properties": {
        "gbifID": "1087660912",
        "species": "Solanum stagnale",
        "genus": "Solanum",
        "family": "Solanaceae",
        "scientificName": "Solanum stagnale Moric.",
        "coordinateUncertaintyInMeters": "",
        "basisOfRecord": "PRESERVED_SPECIMEN",
        "eventDate": "",
        "country": null,
        "datasetName": "",
        "publisher": "Universidade Federal de Minas Gerais",
        "license": "CC_BY_4_0",
        "issues": [
          "RECORDED_DATE_INVALID",
          "IDENTIFIED_DATE_INVALID",
          "CONTINENT_DERIVED_FROM_COORDINATES",
          "INSTITUTION_MATCH_NONE"
        ],
        "fallback_media": {
          "url": "https://inaturalist-open-data.s3.amazonaws.com/photos/107493874/original.jpeg",
          "references": "https://www.inaturalist.org/photos/107493874",
          "title": null,
          "creator": "Wagner Nogueira",
          "publisher": "iNaturalist",
          "license": "http://creativecommons.org/licenses/by-nc/4.0/",
          "rightsHolder": "Wagner Nogueira"
        }
      }
    },
    {
      "type": "Feature",
      "geometry": {
        "type": "Point",
        "coordinates": [
          -39.185556,
          -16.099444
        ]
      },
      "properties": {
        "gbifID": "1986483127",
        "species": "Solanum stagnale",
        "genus": "Solanum",
        "family": "Solanaceae",
        "scientificName": "Solanum stagnale Moric.",
        "coordinateUncertaintyInMeters": "",
        "basisOfRecord": "PRESERVED_SPECIMEN",
        "eventDate": "2014-09-17",
        "country": null,
        "datasetName": "",
        "publisher": "Universidade Federal de Minas Gerais",
        "license": "CC_BY_4_0",
        "issues": [
          "CONTINENT_DERIVED_FROM_COORDINATES",
          "INSTITUTION_MATCH_NONE"
        ],
        "fallback_media": {
          "url": "https://inaturalist-open-data.s3.amazonaws.com/photos/107493874/original.jpeg",
          "references": "https://www.inaturalist.org/photos/107493874",
          "title": null,
          "creator": "Wagner Nogueira",
          "publisher": "iNaturalist",
          "license": "http://creativecommons.org/licenses/by-nc/4.0/",
          "rightsHolder": "Wagner Nogueira"
        }
      }
    },
    {
      "type": "Feature",
      "geometry": {
        "type": "Point",
        "coordinates": [
          -39.316667,
          -12.683333
        ]
      },
      "properties": {
        "gbifID": "1077207824",
        "species": "Solanum stagnale",
        "genus": "Solanum",
        "family": "Solanaceae",
        "scientificName": "Solanum stagnale Moric.",
        "coordinateUncertaintyInMeters": "",
        "basisOfRecord": "PRESERVED_SPECIMEN",
        "eventDate": "1999-10-23",
        "country": null,
        "datasetName": "",
        "publisher": "Universidade Federal da Bahia",
        "license": "CC_BY_4_0",
        "issues": [
          "IDENTIFIED_DATE_INVALID",
          "CONTINENT_DERIVED_FROM_COORDINATES",
          "INSTITUTION_MATCH_NONE"
        ],
        "fallback_media": {
          "url": "https://inaturalist-open-data.s3.amazonaws.com/photos/107493874/original.jpeg",
          "references": "https://www.inaturalist.org/photos/107493874",
          "title": null,
          "creator": "Wagner Nogueira",
          "publisher": "iNaturalist",
          "license": "http://creativecommons.org/licenses/by-nc/4.0/",
          "rightsHolder": "Wagner Nogueira"
        }
      }
    },
    {
      "type": "Feature",
      "geometry": {
        "type": "Point",
        "coordinates": [
          -38.5,
          -12.966667
        ]
      },
      "properties": {
        "gbifID": "1077198880",
        "species": "Solanum stagnale",
        "genus": "Solanum",
        "family": "Solanaceae",
        "scientificName": "Solanum stagnale Moric.",
        "coordinateUncertaintyInMeters": "",
        "basisOfRecord": "PRESERVED_SPECIMEN",
        "eventDate": "1995",
        "country": null,
        "datasetName": "",
        "publisher": "Universidade Federal da Bahia",
        "license": "CC_BY_4_0",
        "issues": [
          "RECORDED_DATE_INVALID",
          "IDENTIFIED_DATE_INVALID",
          "CONTINENT_DERIVED_FROM_COORDINATES",
          "INSTITUTION_MATCH_NONE"
        ],
        "fallback_media": {
          "url": "https://inaturalist-open-data.s3.amazonaws.com/photos/107493874/original.jpeg",
          "references": "https://www.inaturalist.org/photos/107493874",
          "title": null,
          "creator": "Wagner Nogueira",
          "publisher": "iNaturalist",
          "license": "http://creativecommons.org/licenses/by-nc/4.0/",
          "rightsHolder": "Wagner Nogueira"
        }
      }
    },
    {
      "type": "Feature",
      "geometry": {
        "type": "Point",
        "coordinates": [
          -38.0125,
          -12.576667
        ]
      },
      "properties": {
        "gbifID": "1077242945",
        "species": "Solanum stagnale",
        "genus": "Solanum",
        "family": "Solanaceae",
        "scientificName": "Solanum stagnale Moric.",
        "coordinateUncertaintyInMeters": "",
        "basisOfRecord": "PRESERVED_SPECIMEN",
        "eventDate": "2013-01-12",
        "country": null,
        "datasetName": "",
        "publisher": "Universidade Federal da Bahia",
        "license": "CC_BY_4_0",
        "issues": [
          "IDENTIFIED_DATE_INVALID",
          "CONTINENT_DERIVED_FROM_COORDINATES",
          "INSTITUTION_MATCH_NONE"
        ],
        "fallback_media": {
          "url": "https://inaturalist-open-data.s3.amazonaws.com/photos/107493874/original.jpeg",
          "references": "https://www.inaturalist.org/photos/107493874",
          "title": null,
          "creator": "Wagner Nogueira",
          "publisher": "iNaturalist",
          "license": "http://creativecommons.org/licenses/by-nc/4.0/",
          "rightsHolder": "Wagner Nogueira"
        }
      }
    },
    {
      "type": "Feature",
      "geometry": {
        "type": "Point",
        "coordinates": [
          -39.153611,
          -13.880556
        ]
      },
      "properties": {
        "gbifID": "5003476265",
        "species": "Solanum stagnale",
        "genus": "Solanum",
        "family": "Solanaceae",
        "scientificName": "Solanum stagnale Moric.",
        "coordinateUncertaintyInMeters": "",
        "basisOfRecord": "PRESERVED_SPECIMEN",
        "eventDate": "2023-11-12",
        "country": null,
        "datasetName": "",
        "publisher": "Universidade Federal da Bahia",
        "license": "CC_BY_4_0",
        "issues": [
          "IDENTIFIED_DATE_INVALID",
          "CONTINENT_DERIVED_FROM_COORDINATES",
          "INSTITUTION_MATCH_NONE"
        ],
        "fallback_media": {
          "url": "https://inaturalist-open-data.s3.amazonaws.com/photos/107493874/original.jpeg",
          "references": "https://www.inaturalist.org/photos/107493874",
          "title": null,
          "creator": "Wagner Nogueira",
          "publisher": "iNaturalist",
          "license": "http://creativecommons.org/licenses/by-nc/4.0/",
          "rightsHolder": "Wagner Nogueira"
        }
      }
    },
    {
      "type": "Feature",
      "geometry": {
        "type": "Point",
        "coordinates": [
          -38.4,
          -12.783333
        ]
      },
      "properties": {
        "gbifID": "1077198043",
        "species": "Solanum stagnale",
        "genus": "Solanum",
        "family": "Solanaceae",
        "scientificName": "Solanum stagnale Moric.",
        "coordinateUncertaintyInMeters": "",
        "basisOfRecord": "PRESERVED_SPECIMEN",
        "eventDate": "1994-09-22",
        "country": null,
        "datasetName": "",
        "publisher": "Universidade Federal da Bahia",
        "license": "CC_BY_4_0",
        "issues": [
          "IDENTIFIED_DATE_INVALID",
          "CONTINENT_DERIVED_FROM_COORDINATES",
          "INSTITUTION_MATCH_NONE"
        ],
        "fallback_media": {
          "url": "https://inaturalist-open-data.s3.amazonaws.com/photos/107493874/original.jpeg",
          "references": "https://www.inaturalist.org/photos/107493874",
          "title": null,
          "creator": "Wagner Nogueira",
          "publisher": "iNaturalist",
          "license": "http://creativecommons.org/licenses/by-nc/4.0/",
          "rightsHolder": "Wagner Nogueira"
        }
      }
    },
    {
      "type": "Feature",
      "geometry": {
        "type": "Point",
        "coordinates": [
          -38.316667,
          -12.683333
        ]
      },
      "properties": {
        "gbifID": "1077227742",
        "species": "Solanum stagnale",
        "genus": "Solanum",
        "family": "Solanaceae",
        "scientificName": "Solanum stagnale Moric.",
        "coordinateUncertaintyInMeters": "",
        "basisOfRecord": "PRESERVED_SPECIMEN",
        "eventDate": "2007-06-02",
        "country": null,
        "datasetName": "",
        "publisher": "Universidade Federal da Bahia",
        "license": "CC_BY_4_0",
        "issues": [
          "IDENTIFIED_DATE_INVALID",
          "CONTINENT_DERIVED_FROM_COORDINATES",
          "INSTITUTION_MATCH_NONE"
        ],
        "fallback_media": {
          "url": "https://inaturalist-open-data.s3.amazonaws.com/photos/107493874/original.jpeg",
          "references": "https://www.inaturalist.org/photos/107493874",
          "title": null,
          "creator": "Wagner Nogueira",
          "publisher": "iNaturalist",
          "license": "http://creativecommons.org/licenses/by-nc/4.0/",
          "rightsHolder": "Wagner Nogueira"
        }
      }
    },
    {
      "type": "Feature",
      "geometry": {
        "type": "Point",
        "coordinates": [
          -38.0,
          -12.0
        ]
      },
      "properties": {
        "gbifID": "437629698",
        "species": "Solanum stagnale",
        "genus": "Solanum",
        "family": "Solanaceae",
        "scientificName": "Solanum stagnale Moric.",
        "coordinateUncertaintyInMeters": "",
        "basisOfRecord": "PRESERVED_SPECIMEN",
        "eventDate": "1993-07-02",
        "country": null,
        "datasetName": "",
        "publisher": "MNHN - Museum national d'Histoire naturelle",
        "license": "CC_BY_4_0",
        "issues": [
          "GEODETIC_DATUM_ASSUMED_WGS84",
          "CONTINENT_DERIVED_FROM_COORDINATES"
        ],
        "media": [
          {
            "url": "http://mediaphoto.mnhn.fr/media/14413685139374hD5e3tKvmy4wUSI",
            "references": null,
            "title": null,
            "creator": null,
            "publisher": null,
            "license": "http://creativecommons.org/licenses/by/4.0/",
            "rightsHolder": null
          }
        ]
      }
    },
    {
      "type": "Feature",
      "geometry": {
        "type": "Point",
        "coordinates": [
          -42.0,
          -11.0
        ]
      },
      "properties": {
        "gbifID": "1228587878",
        "species": "Solanum stagnale",
        "genus": "Solanum",
        "family": "Solanaceae",
        "scientificName": "Solanum stagnale Moric.",
        "coordinateUncertaintyInMeters": "",
        "basisOfRecord": "PRESERVED_SPECIMEN",
        "eventDate": "1983-02-06",
        "country": null,
        "datasetName": "seeds-22-sep-2023",
        "publisher": "Field Museum",
        "license": "CC0_1_0",
        "issues": [
          "GEODETIC_DATUM_ASSUMED_WGS84",
          "INSTITUTION_MATCH_FUZZY",
          "AMBIGUOUS_COLLECTION"
        ],
        "fallback_media": {
          "url": "https://inaturalist-open-data.s3.amazonaws.com/photos/107493874/original.jpeg",
          "references": "https://www.inaturalist.org/photos/107493874",
          "title": null,
          "creator": "Wagner Nogueira",
          "publisher": "iNaturalist",
          "license": "http://creativecommons.org/licenses/by-nc/4.0/",
          "rightsHolder": "Wagner Nogueira"
        }
      }
    },
    {
      "type": "Feature",
      "geometry": {
        "type": "Point",
        "coordinates": [
          -38.488056,
          -13.014722
        ]
      },
      "properties": {
        "gbifID": "4455838697",
        "species": "Solanum stagnale",
        "genus": "Solanum",
        "family": "Solanaceae",
        "scientificName": "Solanum stagnale Moric.",
        "coordinateUncertaintyInMeters": "",
        "basisOfRecord": "PRESERVED_SPECIMEN",
        "eventDate": "1993-04-26",
        "country": null,
        "datasetName": "",
        "publisher": "Instituto de Pesquisas Jardim Botanico do Rio de Janeiro",
        "license": "CC_BY_4_0",
        "issues": [
          "COORDINATE_ROUNDED",
          "GEODETIC_DATUM_ASSUMED_WGS84",
          "CONTINENT_DERIVED_FROM_COORDINATES",
          "INSTITUTION_MATCH_FUZZY",
          "COLLECTION_MATCH_FUZZY"
        ],
        "fallback_media": {
          "url": "https://inaturalist-open-data.s3.amazonaws.com/photos/107493874/original.jpeg",
          "references": "https://www.inaturalist.org/photos/107493874",
          "title": null,
          "creator": "Wagner Nogueira",
          "publisher": "iNaturalist",
          "license": "http://creativecommons.org/licenses/by-nc/4.0/",
          "rightsHolder": "Wagner Nogueira"
        }
      }
    },
    {
      "type": "Feature",
      "geometry": {
        "type": "Point",
        "coordinates": [
          -53.08982,
          -10.773109
        ]
      },
      "properties": {
        "gbifID": "1056536236",
        "species": "Solanum stagnale",
        "genus": "Solanum",
        "family": "Solanaceae",
        "scientificName": "Solanum stagnale Moric.",
        "coordinateUncertaintyInMeters": "4364.0",
        "basisOfRecord": "PRESERVED_SPECIMEN",
        "eventDate": "",
        "country": null,
        "datasetName": "",
        "publisher": "Natural History Museum",
        "license": "CC0_1_0",
        "issues": [
          "GEODETIC_DATUM_ASSUMED_WGS84",
          "INSTITUTION_MATCH_FUZZY",
          "COLLECTION_MATCH_FUZZY"
        ],
        "media": [
          {
            "url": "https://data.nhm.ac.uk/media/d188eb9b-0162-48f7-a83f-f53b605fd7ec",
            "references": null,
            "title": "BM000935626",
            "creator": null,
            "publisher": null,
            "license": "http://creativecommons.org/licenses/by/4.0/",
            "rightsHolder": "The Trustees of the Natural History Museum, London"
          }
        ]
      }
    },
    {
      "type": "Feature",
      "geometry": {
        "type": "Point",
        "coordinates": [
          -38.052297,
          -12.539668
        ]
      },
      "properties": {
        "gbifID": "4014889384",
        "species": "Solanum stagnale",
        "genus": "Solanum",
        "family": "Solanaceae",
        "scientificName": "Solanum stagnale Moric.",
        "coordinateUncertaintyInMeters": "",
        "basisOfRecord": "HUMAN_OBSERVATION",
        "eventDate": "2020-10-29T07:58:20",
        "country": null,
        "datasetName": "iNaturalist research-grade observations",
        "publisher": "iNaturalist.org",
        "license": "CC_BY_NC_4_0",
        "issues": [
          "CONTINENT_DERIVED_FROM_COORDINATES",
          "TAXON_ID_NOT_FOUND"
        ],
        "media": [
          {
            "url": "https://inaturalist-open-data.s3.amazonaws.com/photos/107493874/original.jpeg",
            "references": "https://www.inaturalist.org/photos/107493874",
            "title": null,
            "creator": "Wagner Nogueira",
            "publisher": "iNaturalist",
            "license": "http://creativecommons.org/licenses/by-nc/4.0/",
            "rightsHolder": "Wagner Nogueira"
          },
          {
            "url": "https://inaturalist-open-data.s3.amazonaws.com/photos/107493886/original.jpeg",
            "references": "https://www.inaturalist.org/photos/107493886",
            "title": null,
            "creator": "Wagner Nogueira",
            "publisher": "iNaturalist",
            "license": "http://creativecommons.org/licenses/by-nc/4.0/",
            "rightsHolder": "Wagner Nogueira"
          },
          {
            "url": "https://inaturalist-open-data.s3.amazonaws.com/photos/107493894/original.jpeg",
            "references": "https://www.inaturalist.org/photos/107493894",
            "title": null,
            "creator": "Wagner Nogueira",
            "publisher": "iNaturalist",
            "license": "http://creativecommons.org/licenses/by-nc/4.0/",
            "rightsHolder": "Wagner Nogueira"
          }
        ]
      }
    },
    {
      "type": "Feature",
      "geometry": {
        "type": "Point",
        "coordinates": [
          -54.355206,
          -11.524631
        ]
      },
      "properties": {
        "gbifID": "2250679828",
        "species": "Solanum stagnale",
        "genus": "Solanum",
        "family": "Solanaceae",
        "scientificName": "Solanum stagnale Moric.",
        "coordinateUncertaintyInMeters": "",
        "basisOfRecord": "MATERIAL_SAMPLE",
        "eventDate": "",
        "country": null,
        "datasetName": "",
        "publisher": "The International Barcode of Life Consortium",
        "license": "CC_BY_4_0",
        "issues": [
          "COUNTRY_DERIVED_FROM_COORDINATES",
          "GEODETIC_DATUM_ASSUMED_WGS84",
          "CONTINENT_DERIVED_FROM_COORDINATES",
          "INSTITUTION_MATCH_NONE"
        ],
        "fallback_media": {
          "url": "https://inaturalist-open-data.s3.amazonaws.com/photos/107493874/original.jpeg",
          "references": "https://www.inaturalist.org/photos/107493874",
          "title": null,
          "creator": "Wagner Nogueira",
          "publisher": "iNaturalist",
          "license": "http://creativecommons.org/licenses/by-nc/4.0/",
          "rightsHolder": "Wagner Nogueira"
        }
      }
    },
    {
      "type": "Feature",
      "geometry": {
        "type": "Point",
        "coordinates": [
          -39.415833,
          -18.383333
        ]
      },
      "properties": {
        "gbifID": "5151211305",
        "species": "Solanum stagnale",
        "genus": "Solanum",
        "family": "Solanaceae",
        "scientificName": "Solanum stagnale Moric.",
        "coordinateUncertaintyInMeters": "",
        "basisOfRecord": "PRESERVED_SPECIMEN",
        "eventDate": "2024-05-14",
        "country": null,
        "datasetName": "",
        "publisher": "Universidade Estadual de Campinas",
        "license": "CC_BY_4_0",
        "issues": [
          "INSTITUTION_MATCH_NONE"
        ],
        "fallback_media": {
          "url": "https://inaturalist-open-data.s3.amazonaws.com/photos/107493874/original.jpeg",
          "references": "https://www.inaturalist.org/photos/107493874",
          "title": null,
          "creator": "Wagner Nogueira",
          "publisher": "iNaturalist",
          "license": "http://creativecommons.org/licenses/by-nc/4.0/",
          "rightsHolder": "Wagner Nogueira"
        }
      }
    }
  ]
}
