{
  "type": "FeatureCollection",
  "metadata": {
    "host_taxon": {
      "canonical_name": "Solanum decorum",
      "rank": "species",
      "family": "Solanaceae",
      "genus": "Solanum",
      "species": "Solanum decorum",
      "slug": "species_solanum_decorum",
      "resolvable_to_gbif": true,
      "use_for_default_download": true,
      "association_count": 2,
      "butterfly_taxa": [
        "Hypothyris ninonia"
      ],
      "confidence_counts": {
        "medium": 1,
        "high": 1
      },
      "occurrence_file": "occurrences/species_solanum_decorum.geojson",
      "gbif_resolution": {
        "query": "Solanum decorum",
        "rank": "species",
        "status": "resolved",
        "gbif_taxon_key": 2931180,
        "accepted_usage_key": null,
        "scientific_name": "Solanum decorum Sendtn.",
        "canonical_name": "Solanum decorum",
        "gbif_rank": "SPECIES",
        "taxonomic_status": "ACCEPTED",
        "match_type": "EXACT",
        "confidence": 100,
        "kingdom": "Plantae",
        "family": "Solanaceae",
        "genus": "Solanum",
        "resolved_at": "2026-05-21T03:59:42+00:00"
      },
      "gbif_taxon_key": 2931180,
      "gbif_status": "resolved",
      "occurrence_count": 0,
      "occurrence_mode": "not_generated",
      "occurrence_cap": null
    },
    "gbif_resolution": {
      "query": "Solanum decorum",
      "rank": "species",
      "status": "resolved",
      "gbif_taxon_key": 2931180,
      "accepted_usage_key": null,
      "scientific_name": "Solanum decorum Sendtn.",
      "canonical_name": "Solanum decorum",
      "gbif_rank": "SPECIES",
      "taxonomic_status": "ACCEPTED",
      "match_type": "EXACT",
      "confidence": 100,
      "kingdom": "Plantae",
      "family": "Solanaceae",
      "genus": "Solanum",
      "resolved_at": "2026-05-21T03:59:42+00:00"
    },
    "occurrence_query": {
      "method": "gbif_download_api",
      "download_key": "0004690-260519110011954",
      "download_doi": "10.15468/dl.s2gcc3",
      "download_doi_url": "https://doi.org/10.15468/dl.s2gcc3",
      "limit": null,
      "dedupe": "Exact duplicate coordinates removed per taxon after DWCA download.",
      "filters": "GBIF Download API DWCA with TAXON_KEY, HAS_COORDINATE=true, HAS_GEOSPATIAL_ISSUE=false, OCCURRENCE_STATUS=PRESENT; app study extent and coordinate uncertainty <=100km applied locally.",
      "returned_unique_coordinate_records": 42
    },
    "scientific_caveat": "GBIF plant occurrences are sampling-biased context records and do not prove local host use or ecological availability for the butterfly.",
    "generated_at": "2026-05-21T15:57:22+00:00"
  },
  "features": [
    {
      "type": "Feature",
      "geometry": {
        "type": "Point",
        "coordinates": [
          -41.466944,
          -20.339167
        ]
      },
      "properties": {
        "gbifID": "6133646378",
        "species": "Solanum decorum",
        "genus": "Solanum",
        "family": "Solanaceae",
        "scientificName": "Solanum decorum Sendtn.",
        "coordinateUncertaintyInMeters": "",
        "basisOfRecord": "PRESERVED_SPECIMEN",
        "eventDate": "2026-01-03",
        "country": null,
        "datasetName": "",
        "publisher": "Universidade Federal do Espírito Santo",
        "license": "CC_BY_4_0",
        "issues": [
          "COORDINATE_ROUNDED",
          "CONTINENT_DERIVED_FROM_COORDINATES",
          "INSTITUTION_MATCH_NONE"
        ],
        "fallback_media": {
          "url": "https://data.nhm.ac.uk/media/a6115660-a3e6-4842-8ba7-b6cea08586c2",
          "references": null,
          "title": "BM000099881",
          "creator": null,
          "publisher": null,
          "license": "http://creativecommons.org/licenses/by/4.0/",
          "rightsHolder": "The Trustees of the Natural History Museum, London"
        }
      }
    },
    {
      "type": "Feature",
      "geometry": {
        "type": "Point",
        "coordinates": [
          -43.491667,
          -20.100556
        ]
      },
      "properties": {
        "gbifID": "4162766950",
        "species": "Solanum decorum",
        "genus": "Solanum",
        "family": "Solanaceae",
        "scientificName": "Solanum decorum Sendtn.",
        "coordinateUncertaintyInMeters": "",
        "basisOfRecord": "PRESERVED_SPECIMEN",
        "eventDate": "2014-12-12",
        "country": null,
        "datasetName": "",
        "publisher": "Instituto de Pesquisas Jardim Botanico do Rio de Janeiro",
        "license": "CC_BY_4_0",
        "issues": [
          "IDENTIFIED_DATE_INVALID",
          "COORDINATE_ROUNDED",
          "GEODETIC_DATUM_ASSUMED_WGS84",
          "CONTINENT_DERIVED_FROM_COORDINATES",
          "INSTITUTION_MATCH_FUZZY",
          "COLLECTION_MATCH_FUZZY"
        ],
        "fallback_media": {
          "url": "https://data.nhm.ac.uk/media/a6115660-a3e6-4842-8ba7-b6cea08586c2",
          "references": null,
          "title": "BM000099881",
          "creator": null,
          "publisher": null,
          "license": "http://creativecommons.org/licenses/by/4.0/",
          "rightsHolder": "The Trustees of the Natural History Museum, London"
        }
      }
    },
    {
      "type": "Feature",
      "geometry": {
        "type": "Point",
        "coordinates": [
          -43.415278,
          -19.959444
        ]
      },
      "properties": {
        "gbifID": "2997525522",
        "species": "Solanum decorum",
        "genus": "Solanum",
        "family": "Solanaceae",
        "scientificName": "Solanum decorum Sendtn.",
        "coordinateUncertaintyInMeters": "",
        "basisOfRecord": "PRESERVED_SPECIMEN",
        "eventDate": "",
        "country": null,
        "datasetName": "",
        "publisher": "Instituto de Pesquisas Jardim Botanico do Rio de Janeiro",
        "license": "CC_BY_4_0",
        "issues": [
          "IDENTIFIED_DATE_INVALID",
          "COORDINATE_ROUNDED",
          "GEODETIC_DATUM_ASSUMED_WGS84",
          "CONTINENT_DERIVED_FROM_COORDINATES",
          "INSTITUTION_MATCH_FUZZY",
          "COLLECTION_MATCH_FUZZY"
        ],
        "fallback_media": {
          "url": "https://data.nhm.ac.uk/media/a6115660-a3e6-4842-8ba7-b6cea08586c2",
          "references": null,
          "title": "BM000099881",
          "creator": null,
          "publisher": null,
          "license": "http://creativecommons.org/licenses/by/4.0/",
          "rightsHolder": "The Trustees of the Natural History Museum, London"
        }
      }
    },
    {
      "type": "Feature",
      "geometry": {
        "type": "Point",
        "coordinates": [
          -42.889444,
          -22.286944
        ]
      },
      "properties": {
        "gbifID": "1424269158",
        "species": "Solanum decorum",
        "genus": "Solanum",
        "family": "Solanaceae",
        "scientificName": "Solanum decorum Sendtn.",
        "coordinateUncertaintyInMeters": "",
        "basisOfRecord": "PRESERVED_SPECIMEN",
        "eventDate": "2004-06-18",
        "country": null,
        "datasetName": "RB - Rio de Janeiro Botanical Garden Herbarium Collection",
        "publisher": "Instituto de Pesquisas Jardim Botanico do Rio de Janeiro",
        "license": "CC_BY_4_0",
        "issues": [
          "COORDINATE_ROUNDED",
          "GEODETIC_DATUM_ASSUMED_WGS84",
          "CONTINENT_DERIVED_FROM_COORDINATES",
          "INSTITUTION_MATCH_FUZZY",
          "COLLECTION_MATCH_FUZZY"
        ],
        "media": [
          {
            "url": "http://jbrj-public-img.s3-sa-east-1.amazonaws.com/JPG/rb/0/55/54/93/00555493.jpg",
            "references": null,
            "title": null,
            "creator": null,
            "publisher": null,
            "license": null,
            "rightsHolder": null
          }
        ]
      }
    },
    {
      "type": "Feature",
      "geometry": {
        "type": "Point",
        "coordinates": [
          -42.05,
          -22.0
        ]
      },
      "properties": {
        "gbifID": "1424193568",
        "species": "Solanum decorum",
        "genus": "Solanum",
        "family": "Solanaceae",
        "scientificName": "Solanum decorum Sendtn.",
        "coordinateUncertaintyInMeters": "",
        "basisOfRecord": "PRESERVED_SPECIMEN",
        "eventDate": "1991-12-17",
        "country": null,
        "datasetName": "RB - Rio de Janeiro Botanical Garden Herbarium Collection",
        "publisher": "Instituto de Pesquisas Jardim Botanico do Rio de Janeiro",
        "license": "CC_BY_4_0",
        "issues": [
          "GEODETIC_DATUM_ASSUMED_WGS84",
          "CONTINENT_DERIVED_FROM_COORDINATES",
          "INSTITUTION_MATCH_FUZZY",
          "COLLECTION_MATCH_FUZZY",
          "MULTIMEDIA_URI_INVALID"
        ],
        "media": [
          {
            "url": "http://jbrj-public-img.s3-sa-east-1.amazonaws.com/JPG/rb/0/46/52/0/00465200.jpg",
            "references": null,
            "title": null,
            "creator": null,
            "publisher": null,
            "license": null,
            "rightsHolder": null
          },
          {
            "url": "http://jbrj-public-img.s3-sa-east-1.amazonaws.com/JPG/rb/0/46/52/0/00465200-1.jpg",
            "references": null,
            "title": null,
            "creator": null,
            "publisher": null,
            "license": null,
            "rightsHolder": null
          }
        ]
      }
    },
    {
      "type": "Feature",
      "geometry": {
        "type": "Point",
        "coordinates": [
          -43.483333,
          -20.1
        ]
      },
      "properties": {
        "gbifID": "1424484839",
        "species": "Solanum decorum",
        "genus": "Solanum",
        "family": "Solanaceae",
        "scientificName": "Solanum decorum Sendtn.",
        "coordinateUncertaintyInMeters": "",
        "basisOfRecord": "PRESERVED_SPECIMEN",
        "eventDate": "2008-10-27",
        "country": null,
        "datasetName": "RB - Rio de Janeiro Botanical Garden Herbarium Collection",
        "publisher": "Instituto de Pesquisas Jardim Botanico do Rio de Janeiro",
        "license": "CC_BY_4_0",
        "issues": [
          "COORDINATE_ROUNDED",
          "GEODETIC_DATUM_ASSUMED_WGS84",
          "CONTINENT_DERIVED_FROM_COORDINATES",
          "INSTITUTION_MATCH_FUZZY",
          "COLLECTION_MATCH_FUZZY"
        ],
        "media": [
          {
            "url": "http://jbrj-public-img.s3-sa-east-1.amazonaws.com/JPG/rb/0/86/22/99/00862299.jpg",
            "references": null,
            "title": null,
            "creator": null,
            "publisher": null,
            "license": null,
            "rightsHolder": null
          }
        ]
      }
    },
    {
      "type": "Feature",
      "geometry": {
        "type": "Point",
        "coordinates": [
          -42.6,
          -17.7
        ]
      },
      "properties": {
        "gbifID": "1424193445",
        "species": "Solanum decorum",
        "genus": "Solanum",
        "family": "Solanaceae",
        "scientificName": "Solanum decorum Sendtn.",
        "coordinateUncertaintyInMeters": "",
        "basisOfRecord": "PRESERVED_SPECIMEN",
        "eventDate": "1981-11-07",
        "country": null,
        "datasetName": "RB - Rio de Janeiro Botanical Garden Herbarium Collection",
        "publisher": "Instituto de Pesquisas Jardim Botanico do Rio de Janeiro",
        "license": "CC_BY_4_0",
        "issues": [
          "GEODETIC_DATUM_ASSUMED_WGS84",
          "CONTINENT_DERIVED_FROM_COORDINATES",
          "INSTITUTION_MATCH_FUZZY",
          "COLLECTION_MATCH_FUZZY"
        ],
        "media": [
          {
            "url": "http://jbrj-public-img.s3-sa-east-1.amazonaws.com/JPG/rb/0/46/51/92/00465192.jpg",
            "references": null,
            "title": null,
            "creator": null,
            "publisher": null,
            "license": null,
            "rightsHolder": null
          }
        ]
      }
    },
    {
      "type": "Feature",
      "geometry": {
        "type": "Point",
        "coordinates": [
          -43.154167,
          -22.537222
        ]
      },
      "properties": {
        "gbifID": "4428565316",
        "species": "Solanum decorum",
        "genus": "Solanum",
        "family": "Solanaceae",
        "scientificName": "Solanum decorum Sendtn.",
        "coordinateUncertaintyInMeters": "",
        "basisOfRecord": "PRESERVED_SPECIMEN",
        "eventDate": "2019-11",
        "country": null,
        "datasetName": "RB - Rio de Janeiro Botanical Garden Herbarium Collection",
        "publisher": "Instituto de Pesquisas Jardim Botanico do Rio de Janeiro",
        "license": "CC_BY_4_0",
        "issues": [
          "COORDINATE_ROUNDED",
          "GEODETIC_DATUM_ASSUMED_WGS84",
          "CONTINENT_DERIVED_FROM_COORDINATES",
          "INSTITUTION_MATCH_FUZZY",
          "COLLECTION_MATCH_FUZZY"
        ],
        "media": [
          {
            "url": "http://jbrj-public-img.s3-sa-east-1.amazonaws.com/JPG/rb/1/50/7/33/01500733.jpg",
            "references": null,
            "title": null,
            "creator": null,
            "publisher": null,
            "license": null,
            "rightsHolder": null
          }
        ]
      }
    },
    {
      "type": "Feature",
      "geometry": {
        "type": "Point",
        "coordinates": [
          -40.553333,
          -14.832222
        ]
      },
      "properties": {
        "gbifID": "4435952307",
        "species": "Solanum decorum",
        "genus": "Solanum",
        "family": "Solanaceae",
        "scientificName": "Solanum decorum Sendtn.",
        "coordinateUncertaintyInMeters": "",
        "basisOfRecord": "PRESERVED_SPECIMEN",
        "eventDate": "2022-01",
        "country": null,
        "datasetName": "RB - Rio de Janeiro Botanical Garden Herbarium Collection",
        "publisher": "Instituto de Pesquisas Jardim Botanico do Rio de Janeiro",
        "license": "CC_BY_4_0",
        "issues": [
          "COORDINATE_ROUNDED",
          "GEODETIC_DATUM_ASSUMED_WGS84",
          "CONTINENT_DERIVED_FROM_COORDINATES",
          "INSTITUTION_MATCH_FUZZY",
          "COLLECTION_MATCH_FUZZY"
        ],
        "media": [
          {
            "url": "http://jbrj-public-img.s3-sa-east-1.amazonaws.com/JPG/rb/1/50/31/56/01503156.jpg",
            "references": null,
            "title": null,
            "creator": null,
            "publisher": null,
            "license": null,
            "rightsHolder": null
          }
        ]
      }
    },
    {
      "type": "Feature",
      "geometry": {
        "type": "Point",
        "coordinates": [
          -52.8731,
          -10.8339
        ]
      },
      "properties": {
        "gbifID": "1302646610",
        "species": "Solanum decorum",
        "genus": "Solanum",
        "family": "Solanaceae",
        "scientificName": "Solanum decorum Sendtn.",
        "coordinateUncertaintyInMeters": "",
        "basisOfRecord": "OCCURRENCE",
        "eventDate": "",
        "country": null,
        "datasetName": "",
        "publisher": "Centro Internacional de Agricultura Tropical - CIAT",
        "license": "CC_BY_4_0",
        "issues": [
          "GEODETIC_DATUM_ASSUMED_WGS84",
          "CONTINENT_DERIVED_FROM_COORDINATES"
        ],
        "fallback_media": {
          "url": "https://data.nhm.ac.uk/media/a6115660-a3e6-4842-8ba7-b6cea08586c2",
          "references": null,
          "title": "BM000099881",
          "creator": null,
          "publisher": null,
          "license": "http://creativecommons.org/licenses/by/4.0/",
          "rightsHolder": "The Trustees of the Natural History Museum, London"
        }
      }
    },
    {
      "type": "Feature",
      "geometry": {
        "type": "Point",
        "coordinates": [
          -45.02,
          -23.124444
        ]
      },
      "properties": {
        "gbifID": "2997858321",
        "species": "Solanum decorum",
        "genus": "Solanum",
        "family": "Solanaceae",
        "scientificName": "Solanum decorum Sendtn.",
        "coordinateUncertaintyInMeters": "",
        "basisOfRecord": "PRESERVED_SPECIMEN",
        "eventDate": "",
        "country": null,
        "datasetName": "",
        "publisher": "Instituto de Pesquisas Jardim Botanico do Rio de Janeiro",
        "license": "CC_BY_4_0",
        "issues": [
          "RECORDED_DATE_INVALID",
          "IDENTIFIED_DATE_INVALID",
          "COORDINATE_ROUNDED",
          "GEODETIC_DATUM_ASSUMED_WGS84",
          "CONTINENT_DERIVED_FROM_COORDINATES",
          "INSTITUTION_MATCH_FUZZY",
          "COLLECTION_MATCH_FUZZY"
        ],
        "fallback_media": {
          "url": "https://data.nhm.ac.uk/media/a6115660-a3e6-4842-8ba7-b6cea08586c2",
          "references": null,
          "title": "BM000099881",
          "creator": null,
          "publisher": null,
          "license": "http://creativecommons.org/licenses/by/4.0/",
          "rightsHolder": "The Trustees of the Natural History Museum, London"
        }
      }
    },
    {
      "type": "Feature",
      "geometry": {
        "type": "Point",
        "coordinates": [
          -43.415479,
          -19.96321
        ]
      },
      "properties": {
        "gbifID": "1929715871",
        "species": "Solanum decorum",
        "genus": "Solanum",
        "family": "Solanaceae",
        "scientificName": "Solanum decorum Sendtn.",
        "coordinateUncertaintyInMeters": "33136.0",
        "basisOfRecord": "PRESERVED_SPECIMEN",
        "eventDate": "1997-04-19",
        "country": null,
        "datasetName": "Vascular plants",
        "publisher": "The New York Botanical Garden",
        "license": "CC0_1_0",
        "issues": [
          "MODIFIED_DATE_INVALID",
          "COORDINATE_REPROJECTED"
        ],
        "media": [
          {
            "url": "http://sweetgum.nybg.org/images3/1609/419/00829050.jpg",
            "references": null,
            "title": null,
            "creator": "The New York Botanical Garden",
            "publisher": null,
            "license": "http://creativecommons.org/licenses/by/4.0/",
            "rightsHolder": "The New York Botanical Garden"
          }
        ]
      }
    },
    {
      "type": "Feature",
      "geometry": {
        "type": "Point",
        "coordinates": [
          -43.678889,
          -20.097222
        ]
      },
      "properties": {
        "gbifID": "4953443833",
        "species": "Solanum decorum",
        "genus": "Solanum",
        "family": "Solanaceae",
        "scientificName": "Solanum decorum Sendtn.",
        "coordinateUncertaintyInMeters": "",
        "basisOfRecord": "PRESERVED_SPECIMEN",
        "eventDate": "2022-08-02",
        "country": null,
        "datasetName": "",
        "publisher": "Universidade de Brasília",
        "license": "CC_BY_4_0",
        "issues": [
          "COORDINATE_ROUNDED",
          "CONTINENT_DERIVED_FROM_COORDINATES",
          "INSTITUTION_MATCH_FUZZY",
          "INSTITUTION_COLLECTION_MISMATCH"
        ],
        "fallback_media": {
          "url": "https://data.nhm.ac.uk/media/a6115660-a3e6-4842-8ba7-b6cea08586c2",
          "references": null,
          "title": "BM000099881",
          "creator": null,
          "publisher": null,
          "license": "http://creativecommons.org/licenses/by/4.0/",
          "rightsHolder": "The Trustees of the Natural History Museum, London"
        }
      }
    },
    {
      "type": "Feature",
      "geometry": {
        "type": "Point",
        "coordinates": [
          -45.033611,
          -23.215111
        ]
      },
      "properties": {
        "gbifID": "2565919847",
        "species": "Solanum decorum",
        "genus": "Solanum",
        "family": "Solanaceae",
        "scientificName": "Solanum decorum Sendtn.",
        "coordinateUncertaintyInMeters": "",
        "basisOfRecord": "PRESERVED_SPECIMEN",
        "eventDate": "",
        "country": null,
        "datasetName": "",
        "publisher": "Instituto de Botânica, São Paulo",
        "license": "CC_BY_4_0",
        "issues": [
          "CONTINENT_DERIVED_FROM_COORDINATES",
          "INSTITUTION_MATCH_NONE"
        ],
        "fallback_media": {
          "url": "https://data.nhm.ac.uk/media/a6115660-a3e6-4842-8ba7-b6cea08586c2",
          "references": null,
          "title": "BM000099881",
          "creator": null,
          "publisher": null,
          "license": "http://creativecommons.org/licenses/by/4.0/",
          "rightsHolder": "The Trustees of the Natural History Museum, London"
        }
      }
    },
    {
      "type": "Feature",
      "geometry": {
        "type": "Point",
        "coordinates": [
          -45.033611,
          -23.212222
        ]
      },
      "properties": {
        "gbifID": "1978402393",
        "species": "Solanum decorum",
        "genus": "Solanum",
        "family": "Solanaceae",
        "scientificName": "Solanum decorum Sendtn.",
        "coordinateUncertaintyInMeters": "",
        "basisOfRecord": "PRESERVED_SPECIMEN",
        "eventDate": "",
        "country": null,
        "datasetName": "",
        "publisher": "Universidade de São Paulo",
        "license": "CC_BY_4_0",
        "issues": [
          "CONTINENT_DERIVED_FROM_COORDINATES",
          "INSTITUTION_MATCH_NONE"
        ],
        "fallback_media": {
          "url": "https://data.nhm.ac.uk/media/a6115660-a3e6-4842-8ba7-b6cea08586c2",
          "references": null,
          "title": "BM000099881",
          "creator": null,
          "publisher": null,
          "license": "http://creativecommons.org/licenses/by/4.0/",
          "rightsHolder": "The Trustees of the Natural History Museum, London"
        }
      }
    },
    {
      "type": "Feature",
      "geometry": {
        "type": "Point",
        "coordinates": [
          -44.96,
          -23.07
        ]
      },
      "properties": {
        "gbifID": "1086890491",
        "species": "Solanum decorum",
        "genus": "Solanum",
        "family": "Solanaceae",
        "scientificName": "Solanum decorum Sendtn.",
        "coordinateUncertaintyInMeters": "",
        "basisOfRecord": "PRESERVED_SPECIMEN",
        "eventDate": "",
        "country": null,
        "datasetName": "",
        "publisher": "Instituto Florestal",
        "license": "CC_BY_4_0",
        "issues": [
          "CONTINENT_DERIVED_FROM_COORDINATES",
          "INSTITUTION_MATCH_FUZZY",
          "INSTITUTION_COLLECTION_MISMATCH"
        ],
        "fallback_media": {
          "url": "https://data.nhm.ac.uk/media/a6115660-a3e6-4842-8ba7-b6cea08586c2",
          "references": null,
          "title": "BM000099881",
          "creator": null,
          "publisher": null,
          "license": "http://creativecommons.org/licenses/by/4.0/",
          "rightsHolder": "The Trustees of the Natural History Museum, London"
        }
      }
    },
    {
      "type": "Feature",
      "geometry": {
        "type": "Point",
        "coordinates": [
          -46.630001,
          -23.540001
        ]
      },
      "properties": {
        "gbifID": "4955154362",
        "species": "Solanum decorum",
        "genus": "Solanum",
        "family": "Solanaceae",
        "scientificName": "Solanum decorum Sendtn.",
        "coordinateUncertaintyInMeters": "",
        "basisOfRecord": "PRESERVED_SPECIMEN",
        "eventDate": "2018-11-24",
        "country": null,
        "datasetName": "",
        "publisher": "Universidade Federal do ABC",
        "license": "CC_BY_4_0",
        "issues": [
          "CONTINENT_DERIVED_FROM_COORDINATES",
          "INSTITUTION_MATCH_NONE"
        ],
        "fallback_media": {
          "url": "https://data.nhm.ac.uk/media/a6115660-a3e6-4842-8ba7-b6cea08586c2",
          "references": null,
          "title": "BM000099881",
          "creator": null,
          "publisher": null,
          "license": "http://creativecommons.org/licenses/by/4.0/",
          "rightsHolder": "The Trustees of the Natural History Museum, London"
        }
      }
    },
    {
      "type": "Feature",
      "geometry": {
        "type": "Point",
        "coordinates": [
          -44.296944,
          -22.102778
        ]
      },
      "properties": {
        "gbifID": "1090143827",
        "species": "Solanum decorum",
        "genus": "Solanum",
        "family": "Solanaceae",
        "scientificName": "Solanum decorum Sendtn.",
        "coordinateUncertaintyInMeters": "",
        "basisOfRecord": "PRESERVED_SPECIMEN",
        "eventDate": "2011-12-29",
        "country": null,
        "datasetName": "",
        "publisher": "Universidade Federal de São João del-Rei",
        "license": "CC_BY_4_0",
        "issues": [
          "CONTINENT_DERIVED_FROM_COORDINATES",
          "INSTITUTION_MATCH_NONE"
        ],
        "fallback_media": {
          "url": "https://data.nhm.ac.uk/media/a6115660-a3e6-4842-8ba7-b6cea08586c2",
          "references": null,
          "title": "BM000099881",
          "creator": null,
          "publisher": null,
          "license": "http://creativecommons.org/licenses/by/4.0/",
          "rightsHolder": "The Trustees of the Natural History Museum, London"
        }
      }
    },
    {
      "type": "Feature",
      "geometry": {
        "type": "Point",
        "coordinates": [
          -43.906361,
          -21.662222
        ]
      },
      "properties": {
        "gbifID": "1090143583",
        "species": "Solanum decorum",
        "genus": "Solanum",
        "family": "Solanaceae",
        "scientificName": "Solanum decorum Sendtn.",
        "coordinateUncertaintyInMeters": "",
        "basisOfRecord": "PRESERVED_SPECIMEN",
        "eventDate": "2011-11-12",
        "country": null,
        "datasetName": "",
        "publisher": "Universidade Federal de São João del-Rei",
        "license": "CC_BY_4_0",
        "issues": [
          "CONTINENT_DERIVED_FROM_COORDINATES",
          "INSTITUTION_MATCH_NONE"
        ],
        "fallback_media": {
          "url": "https://data.nhm.ac.uk/media/a6115660-a3e6-4842-8ba7-b6cea08586c2",
          "references": null,
          "title": "BM000099881",
          "creator": null,
          "publisher": null,
          "license": "http://creativecommons.org/licenses/by/4.0/",
          "rightsHolder": "The Trustees of the Natural History Museum, London"
        }
      }
    },
    {
      "type": "Feature",
      "geometry": {
        "type": "Point",
        "coordinates": [
          -43.688333,
          -20.085555
        ]
      },
      "properties": {
        "gbifID": "5209102391",
        "species": "Solanum decorum",
        "genus": "Solanum",
        "family": "Solanaceae",
        "scientificName": "Solanum decorum Sendtn.",
        "coordinateUncertaintyInMeters": "",
        "basisOfRecord": "PRESERVED_SPECIMEN",
        "eventDate": "2025-04-15",
        "country": null,
        "datasetName": "",
        "publisher": "Universidade Federal de Ouro Preto",
        "license": "CC_BY_4_0",
        "issues": [
          "COORDINATE_ROUNDED",
          "CONTINENT_DERIVED_FROM_COORDINATES",
          "INSTITUTION_MATCH_NONE"
        ],
        "fallback_media": {
          "url": "https://data.nhm.ac.uk/media/a6115660-a3e6-4842-8ba7-b6cea08586c2",
          "references": null,
          "title": "BM000099881",
          "creator": null,
          "publisher": null,
          "license": "http://creativecommons.org/licenses/by/4.0/",
          "rightsHolder": "The Trustees of the Natural History Museum, London"
        }
      }
    },
    {
      "type": "Feature",
      "geometry": {
        "type": "Point",
        "coordinates": [
          -49.680556,
          -20.042778
        ]
      },
      "properties": {
        "gbifID": "3868111555",
        "species": "Solanum decorum",
        "genus": "Solanum",
        "family": "Solanaceae",
        "scientificName": "Solanum decorum Sendtn.",
        "coordinateUncertaintyInMeters": "",
        "basisOfRecord": "PRESERVED_SPECIMEN",
        "eventDate": "2011-01-20",
        "country": null,
        "datasetName": "",
        "publisher": "Universidade Federal de Ouro Preto",
        "license": "CC_BY_4_0",
        "issues": [
          "COORDINATE_ROUNDED",
          "CONTINENT_DERIVED_FROM_COORDINATES",
          "INSTITUTION_MATCH_NONE"
        ],
        "fallback_media": {
          "url": "https://data.nhm.ac.uk/media/a6115660-a3e6-4842-8ba7-b6cea08586c2",
          "references": null,
          "title": "BM000099881",
          "creator": null,
          "publisher": null,
          "license": "http://creativecommons.org/licenses/by/4.0/",
          "rightsHolder": "The Trustees of the Natural History Museum, London"
        }
      }
    },
    {
      "type": "Feature",
      "geometry": {
        "type": "Point",
        "coordinates": [
          -43.4875,
          -20.259444
        ]
      },
      "properties": {
        "gbifID": "4952062930",
        "species": "Solanum decorum",
        "genus": "Solanum",
        "family": "Solanaceae",
        "scientificName": "Solanum decorum Sendtn.",
        "coordinateUncertaintyInMeters": "",
        "basisOfRecord": "PRESERVED_SPECIMEN",
        "eventDate": "2023-03-25",
        "country": null,
        "datasetName": "",
        "publisher": "Universidade Federal de Ouro Preto",
        "license": "CC_BY_4_0",
        "issues": [
          "COORDINATE_ROUNDED",
          "CONTINENT_DERIVED_FROM_COORDINATES",
          "INSTITUTION_MATCH_NONE"
        ],
        "fallback_media": {
          "url": "https://data.nhm.ac.uk/media/a6115660-a3e6-4842-8ba7-b6cea08586c2",
          "references": null,
          "title": "BM000099881",
          "creator": null,
          "publisher": null,
          "license": "http://creativecommons.org/licenses/by/4.0/",
          "rightsHolder": "The Trustees of the Natural History Museum, London"
        }
      }
    },
    {
      "type": "Feature",
      "geometry": {
        "type": "Point",
        "coordinates": [
          -43.683111,
          -20.093806
        ]
      },
      "properties": {
        "gbifID": "1087644075",
        "species": "Solanum decorum",
        "genus": "Solanum",
        "family": "Solanaceae",
        "scientificName": "Solanum decorum Sendtn.",
        "coordinateUncertaintyInMeters": "",
        "basisOfRecord": "PRESERVED_SPECIMEN",
        "eventDate": "2008-05-26",
        "country": null,
        "datasetName": "",
        "publisher": "Universidade Federal de Minas Gerais",
        "license": "CC_BY_4_0",
        "issues": [
          "CONTINENT_DERIVED_FROM_COORDINATES",
          "INSTITUTION_MATCH_NONE"
        ],
        "fallback_media": {
          "url": "https://data.nhm.ac.uk/media/a6115660-a3e6-4842-8ba7-b6cea08586c2",
          "references": null,
          "title": "BM000099881",
          "creator": null,
          "publisher": null,
          "license": "http://creativecommons.org/licenses/by/4.0/",
          "rightsHolder": "The Trustees of the Natural History Museum, London"
        }
      }
    },
    {
      "type": "Feature",
      "geometry": {
        "type": "Point",
        "coordinates": [
          -43.493139,
          -20.101778
        ]
      },
      "properties": {
        "gbifID": "1087653845",
        "species": "Solanum decorum",
        "genus": "Solanum",
        "family": "Solanaceae",
        "scientificName": "Solanum decorum Sendtn.",
        "coordinateUncertaintyInMeters": "",
        "basisOfRecord": "PRESERVED_SPECIMEN",
        "eventDate": "2010-04-26",
        "country": null,
        "datasetName": "",
        "publisher": "Universidade Federal de Minas Gerais",
        "license": "CC_BY_4_0",
        "issues": [
          "IDENTIFIED_DATE_INVALID",
          "CONTINENT_DERIVED_FROM_COORDINATES",
          "INSTITUTION_MATCH_NONE"
        ],
        "fallback_media": {
          "url": "https://data.nhm.ac.uk/media/a6115660-a3e6-4842-8ba7-b6cea08586c2",
          "references": null,
          "title": "BM000099881",
          "creator": null,
          "publisher": null,
          "license": "http://creativecommons.org/licenses/by/4.0/",
          "rightsHolder": "The Trustees of the Natural History Museum, London"
        }
      }
    },
    {
      "type": "Feature",
      "geometry": {
        "type": "Point",
        "coordinates": [
          -35.324444,
          -7.783056
        ]
      },
      "properties": {
        "gbifID": "1993816076",
        "species": "Solanum decorum",
        "genus": "Solanum",
        "family": "Solanaceae",
        "scientificName": "Solanum decorum Sendtn.",
        "coordinateUncertaintyInMeters": "",
        "basisOfRecord": "PRESERVED_SPECIMEN",
        "eventDate": "2018-05-09",
        "country": null,
        "datasetName": "",
        "publisher": "Universidade Federal de Minas Gerais",
        "license": "CC_BY_4_0",
        "issues": [
          "IDENTIFIED_DATE_INVALID",
          "CONTINENT_DERIVED_FROM_COORDINATES",
          "INSTITUTION_MATCH_NONE"
        ],
        "fallback_media": {
          "url": "https://data.nhm.ac.uk/media/a6115660-a3e6-4842-8ba7-b6cea08586c2",
          "references": null,
          "title": "BM000099881",
          "creator": null,
          "publisher": null,
          "license": "http://creativecommons.org/licenses/by/4.0/",
          "rightsHolder": "The Trustees of the Natural History Museum, London"
        }
      }
    },
    {
      "type": "Feature",
      "geometry": {
        "type": "Point",
        "coordinates": [
          -42.875,
          -16.555
        ]
      },
      "properties": {
        "gbifID": "1087615685",
        "species": "Solanum decorum",
        "genus": "Solanum",
        "family": "Solanaceae",
        "scientificName": "Solanum decorum Sendtn.",
        "coordinateUncertaintyInMeters": "",
        "basisOfRecord": "PRESERVED_SPECIMEN",
        "eventDate": "1987-11-05",
        "country": null,
        "datasetName": "",
        "publisher": "Universidade Federal de Minas Gerais",
        "license": "CC_BY_4_0",
        "issues": [
          "IDENTIFIED_DATE_INVALID",
          "CONTINENT_DERIVED_FROM_COORDINATES",
          "INSTITUTION_MATCH_NONE"
        ],
        "fallback_media": {
          "url": "https://data.nhm.ac.uk/media/a6115660-a3e6-4842-8ba7-b6cea08586c2",
          "references": null,
          "title": "BM000099881",
          "creator": null,
          "publisher": null,
          "license": "http://creativecommons.org/licenses/by/4.0/",
          "rightsHolder": "The Trustees of the Natural History Museum, London"
        }
      }
    },
    {
      "type": "Feature",
      "geometry": {
        "type": "Point",
        "coordinates": [
          -43.493333,
          -20.102778
        ]
      },
      "properties": {
        "gbifID": "1087650012",
        "species": "Solanum decorum",
        "genus": "Solanum",
        "family": "Solanaceae",
        "scientificName": "Solanum decorum Sendtn.",
        "coordinateUncertaintyInMeters": "",
        "basisOfRecord": "PRESERVED_SPECIMEN",
        "eventDate": "2008-10-27",
        "country": null,
        "datasetName": "",
        "publisher": "Universidade Federal de Minas Gerais",
        "license": "CC_BY_4_0",
        "issues": [
          "IDENTIFIED_DATE_INVALID",
          "CONTINENT_DERIVED_FROM_COORDINATES",
          "INSTITUTION_MATCH_NONE"
        ],
        "fallback_media": {
          "url": "https://data.nhm.ac.uk/media/a6115660-a3e6-4842-8ba7-b6cea08586c2",
          "references": null,
          "title": "BM000099881",
          "creator": null,
          "publisher": null,
          "license": "http://creativecommons.org/licenses/by/4.0/",
          "rightsHolder": "The Trustees of the Natural History Museum, London"
        }
      }
    },
    {
      "type": "Feature",
      "geometry": {
        "type": "Point",
        "coordinates": [
          -43.489925,
          -20.098428
        ]
      },
      "properties": {
        "gbifID": "1087657601",
        "species": "Solanum decorum",
        "genus": "Solanum",
        "family": "Solanaceae",
        "scientificName": "Solanum decorum Sendtn.",
        "coordinateUncertaintyInMeters": "",
        "basisOfRecord": "PRESERVED_SPECIMEN",
        "eventDate": "2012-09-30",
        "country": null,
        "datasetName": "",
        "publisher": "Universidade Federal de Minas Gerais",
        "license": "CC_BY_4_0",
        "issues": [
          "CONTINENT_DERIVED_FROM_COORDINATES",
          "INSTITUTION_MATCH_NONE"
        ],
        "fallback_media": {
          "url": "https://data.nhm.ac.uk/media/a6115660-a3e6-4842-8ba7-b6cea08586c2",
          "references": null,
          "title": "BM000099881",
          "creator": null,
          "publisher": null,
          "license": "http://creativecommons.org/licenses/by/4.0/",
          "rightsHolder": "The Trustees of the Natural History Museum, London"
        }
      }
    },
    {
      "type": "Feature",
      "geometry": {
        "type": "Point",
        "coordinates": [
          -43.681111,
          -20.036111
        ]
      },
      "properties": {
        "gbifID": "2382968395",
        "species": "Solanum decorum",
        "genus": "Solanum",
        "family": "Solanaceae",
        "scientificName": "Solanum decorum Sendtn.",
        "coordinateUncertaintyInMeters": "",
        "basisOfRecord": "PRESERVED_SPECIMEN",
        "eventDate": "2018-08-28",
        "country": null,
        "datasetName": "",
        "publisher": "Universidade Federal de Minas Gerais",
        "license": "CC_BY_4_0",
        "issues": [
          "IDENTIFIED_DATE_INVALID",
          "CONTINENT_DERIVED_FROM_COORDINATES",
          "INSTITUTION_MATCH_NONE"
        ],
        "fallback_media": {
          "url": "https://data.nhm.ac.uk/media/a6115660-a3e6-4842-8ba7-b6cea08586c2",
          "references": null,
          "title": "BM000099881",
          "creator": null,
          "publisher": null,
          "license": "http://creativecommons.org/licenses/by/4.0/",
          "rightsHolder": "The Trustees of the Natural History Museum, London"
        }
      }
    },
    {
      "type": "Feature",
      "geometry": {
        "type": "Point",
        "coordinates": [
          -43.506028,
          -20.36925
        ]
      },
      "properties": {
        "gbifID": "1087653740",
        "species": "Solanum decorum",
        "genus": "Solanum",
        "family": "Solanaceae",
        "scientificName": "Solanum decorum Sendtn.",
        "coordinateUncertaintyInMeters": "",
        "basisOfRecord": "PRESERVED_SPECIMEN",
        "eventDate": "2010-11-10",
        "country": null,
        "datasetName": "",
        "publisher": "Universidade Federal de Minas Gerais",
        "license": "CC_BY_4_0",
        "issues": [
          "IDENTIFIED_DATE_INVALID",
          "CONTINENT_DERIVED_FROM_COORDINATES",
          "INSTITUTION_MATCH_NONE"
        ],
        "fallback_media": {
          "url": "https://data.nhm.ac.uk/media/a6115660-a3e6-4842-8ba7-b6cea08586c2",
          "references": null,
          "title": "BM000099881",
          "creator": null,
          "publisher": null,
          "license": "http://creativecommons.org/licenses/by/4.0/",
          "rightsHolder": "The Trustees of the Natural History Museum, London"
        }
      }
    },
    {
      "type": "Feature",
      "geometry": {
        "type": "Point",
        "coordinates": [
          -43.4925,
          -20.101361
        ]
      },
      "properties": {
        "gbifID": "1135820473",
        "species": "Solanum decorum",
        "genus": "Solanum",
        "family": "Solanaceae",
        "scientificName": "Solanum decorum Sendtn.",
        "coordinateUncertaintyInMeters": "",
        "basisOfRecord": "PRESERVED_SPECIMEN",
        "eventDate": "2014-10-26",
        "country": null,
        "datasetName": "",
        "publisher": "Universidade Federal de Minas Gerais",
        "license": "CC_BY_4_0",
        "issues": [
          "CONTINENT_DERIVED_FROM_COORDINATES",
          "INSTITUTION_MATCH_NONE"
        ],
        "fallback_media": {
          "url": "https://data.nhm.ac.uk/media/a6115660-a3e6-4842-8ba7-b6cea08586c2",
          "references": null,
          "title": "BM000099881",
          "creator": null,
          "publisher": null,
          "license": "http://creativecommons.org/licenses/by/4.0/",
          "rightsHolder": "The Trustees of the Natural History Museum, London"
        }
      }
    },
    {
      "type": "Feature",
      "geometry": {
        "type": "Point",
        "coordinates": [
          -43.681389,
          -20.039444
        ]
      },
      "properties": {
        "gbifID": "2382968702",
        "species": "Solanum decorum",
        "genus": "Solanum",
        "family": "Solanaceae",
        "scientificName": "Solanum decorum Sendtn.",
        "coordinateUncertaintyInMeters": "",
        "basisOfRecord": "PRESERVED_SPECIMEN",
        "eventDate": "2018-09-05",
        "country": null,
        "datasetName": "",
        "publisher": "Universidade Federal de Minas Gerais",
        "license": "CC_BY_4_0",
        "issues": [
          "IDENTIFIED_DATE_INVALID",
          "CONTINENT_DERIVED_FROM_COORDINATES",
          "INSTITUTION_MATCH_NONE"
        ],
        "fallback_media": {
          "url": "https://data.nhm.ac.uk/media/a6115660-a3e6-4842-8ba7-b6cea08586c2",
          "references": null,
          "title": "BM000099881",
          "creator": null,
          "publisher": null,
          "license": "http://creativecommons.org/licenses/by/4.0/",
          "rightsHolder": "The Trustees of the Natural History Museum, London"
        }
      }
    },
    {
      "type": "Feature",
      "geometry": {
        "type": "Point",
        "coordinates": [
          -43.677778,
          -20.028056
        ]
      },
      "properties": {
        "gbifID": "3948562386",
        "species": "Solanum decorum",
        "genus": "Solanum",
        "family": "Solanaceae",
        "scientificName": "Solanum decorum Sendtn.",
        "coordinateUncertaintyInMeters": "",
        "basisOfRecord": "PRESERVED_SPECIMEN",
        "eventDate": "2020-10-01",
        "country": null,
        "datasetName": "",
        "publisher": "Universidade Federal de Minas Gerais",
        "license": "CC_BY_4_0",
        "issues": [
          "IDENTIFIED_DATE_INVALID",
          "CONTINENT_DERIVED_FROM_COORDINATES",
          "INSTITUTION_MATCH_NONE"
        ],
        "fallback_media": {
          "url": "https://data.nhm.ac.uk/media/a6115660-a3e6-4842-8ba7-b6cea08586c2",
          "references": null,
          "title": "BM000099881",
          "creator": null,
          "publisher": null,
          "license": "http://creativecommons.org/licenses/by/4.0/",
          "rightsHolder": "The Trustees of the Natural History Museum, London"
        }
      }
    },
    {
      "type": "Feature",
      "geometry": {
        "type": "Point",
        "coordinates": [
          -43.684722,
          -20.062778
        ]
      },
      "properties": {
        "gbifID": "1087652987",
        "species": "Solanum decorum",
        "genus": "Solanum",
        "family": "Solanaceae",
        "scientificName": "Solanum decorum Sendtn.",
        "coordinateUncertaintyInMeters": "",
        "basisOfRecord": "PRESERVED_SPECIMEN",
        "eventDate": "2011-01-20",
        "country": null,
        "datasetName": "",
        "publisher": "Universidade Federal de Minas Gerais",
        "license": "CC_BY_4_0",
        "issues": [
          "IDENTIFIED_DATE_INVALID",
          "CONTINENT_DERIVED_FROM_COORDINATES",
          "INSTITUTION_MATCH_NONE"
        ],
        "fallback_media": {
          "url": "https://data.nhm.ac.uk/media/a6115660-a3e6-4842-8ba7-b6cea08586c2",
          "references": null,
          "title": "BM000099881",
          "creator": null,
          "publisher": null,
          "license": "http://creativecommons.org/licenses/by/4.0/",
          "rightsHolder": "The Trustees of the Natural History Museum, London"
        }
      }
    },
    {
      "type": "Feature",
      "geometry": {
        "type": "Point",
        "coordinates": [
          -43.691278,
          -20.056667
        ]
      },
      "properties": {
        "gbifID": "1087649539",
        "species": "Solanum decorum",
        "genus": "Solanum",
        "family": "Solanaceae",
        "scientificName": "Solanum decorum Sendtn.",
        "coordinateUncertaintyInMeters": "",
        "basisOfRecord": "PRESERVED_SPECIMEN",
        "eventDate": "2010-02-17",
        "country": null,
        "datasetName": "",
        "publisher": "Universidade Federal de Minas Gerais",
        "license": "CC_BY_4_0",
        "issues": [
          "IDENTIFIED_DATE_INVALID",
          "CONTINENT_DERIVED_FROM_COORDINATES",
          "INSTITUTION_MATCH_NONE"
        ],
        "fallback_media": {
          "url": "https://data.nhm.ac.uk/media/a6115660-a3e6-4842-8ba7-b6cea08586c2",
          "references": null,
          "title": "BM000099881",
          "creator": null,
          "publisher": null,
          "license": "http://creativecommons.org/licenses/by/4.0/",
          "rightsHolder": "The Trustees of the Natural History Museum, London"
        }
      }
    },
    {
      "type": "Feature",
      "geometry": {
        "type": "Point",
        "coordinates": [
          -43.906389,
          -21.662222
        ]
      },
      "properties": {
        "gbifID": "1087663006",
        "species": "Solanum decorum",
        "genus": "Solanum",
        "family": "Solanaceae",
        "scientificName": "Solanum decorum Sendtn.",
        "coordinateUncertaintyInMeters": "",
        "basisOfRecord": "PRESERVED_SPECIMEN",
        "eventDate": "2012-11-12",
        "country": null,
        "datasetName": "",
        "publisher": "Universidade Federal de Minas Gerais",
        "license": "CC_BY_4_0",
        "issues": [
          "CONTINENT_DERIVED_FROM_COORDINATES",
          "INSTITUTION_MATCH_NONE"
        ],
        "fallback_media": {
          "url": "https://data.nhm.ac.uk/media/a6115660-a3e6-4842-8ba7-b6cea08586c2",
          "references": null,
          "title": "BM000099881",
          "creator": null,
          "publisher": null,
          "license": "http://creativecommons.org/licenses/by/4.0/",
          "rightsHolder": "The Trustees of the Natural History Museum, London"
        }
      }
    },
    {
      "type": "Feature",
      "geometry": {
        "type": "Point",
        "coordinates": [
          -42.0,
          -11.0
        ]
      },
      "properties": {
        "gbifID": "1228264234",
        "species": "Solanum decorum",
        "genus": "Solanum",
        "family": "Solanaceae",
        "scientificName": "Solanum decorum Sendtn.",
        "coordinateUncertaintyInMeters": "",
        "basisOfRecord": "PRESERVED_SPECIMEN",
        "eventDate": "1971-02-23",
        "country": null,
        "datasetName": "seeds-22-sep-2023",
        "publisher": "Field Museum",
        "license": "CC0_1_0",
        "issues": [
          "GEODETIC_DATUM_ASSUMED_WGS84",
          "INSTITUTION_MATCH_FUZZY",
          "AMBIGUOUS_COLLECTION"
        ],
        "fallback_media": {
          "url": "https://data.nhm.ac.uk/media/a6115660-a3e6-4842-8ba7-b6cea08586c2",
          "references": null,
          "title": "BM000099881",
          "creator": null,
          "publisher": null,
          "license": "http://creativecommons.org/licenses/by/4.0/",
          "rightsHolder": "The Trustees of the Natural History Museum, London"
        }
      }
    },
    {
      "type": "Feature",
      "geometry": {
        "type": "Point",
        "coordinates": [
          -49.0,
          -22.0
        ]
      },
      "properties": {
        "gbifID": "1228609027",
        "species": "Solanum decorum",
        "genus": "Solanum",
        "family": "Solanaceae",
        "scientificName": "Solanum decorum Sendtn.",
        "coordinateUncertaintyInMeters": "",
        "basisOfRecord": "PRESERVED_SPECIMEN",
        "eventDate": "1879-09-09",
        "country": null,
        "datasetName": "seeds-22-sep-2023",
        "publisher": "Field Museum",
        "license": "CC0_1_0",
        "issues": [
          "GEODETIC_DATUM_ASSUMED_WGS84",
          "INSTITUTION_MATCH_FUZZY",
          "AMBIGUOUS_COLLECTION"
        ],
        "fallback_media": {
          "url": "https://data.nhm.ac.uk/media/a6115660-a3e6-4842-8ba7-b6cea08586c2",
          "references": null,
          "title": "BM000099881",
          "creator": null,
          "publisher": null,
          "license": "http://creativecommons.org/licenses/by/4.0/",
          "rightsHolder": "The Trustees of the Natural History Museum, London"
        }
      }
    },
    {
      "type": "Feature",
      "geometry": {
        "type": "Point",
        "coordinates": [
          -42.5,
          -22.0
        ]
      },
      "properties": {
        "gbifID": "1228274304",
        "species": "Solanum decorum",
        "genus": "Solanum",
        "family": "Solanaceae",
        "scientificName": "Solanum decorum Sendtn.",
        "coordinateUncertaintyInMeters": "",
        "basisOfRecord": "PRESERVED_SPECIMEN",
        "eventDate": "1989-10-25",
        "country": null,
        "datasetName": "seeds-22-sep-2023",
        "publisher": "Field Museum",
        "license": "CC0_1_0",
        "issues": [
          "GEODETIC_DATUM_ASSUMED_WGS84",
          "INSTITUTION_MATCH_FUZZY",
          "AMBIGUOUS_COLLECTION"
        ],
        "fallback_media": {
          "url": "https://data.nhm.ac.uk/media/a6115660-a3e6-4842-8ba7-b6cea08586c2",
          "references": null,
          "title": "BM000099881",
          "creator": null,
          "publisher": null,
          "license": "http://creativecommons.org/licenses/by/4.0/",
          "rightsHolder": "The Trustees of the Natural History Museum, London"
        }
      }
    },
    {
      "type": "Feature",
      "geometry": {
        "type": "Point",
        "coordinates": [
          -45.310989,
          -23.223581
        ]
      },
      "properties": {
        "gbifID": "3967815347",
        "species": "Solanum decorum",
        "genus": "Solanum",
        "family": "Solanaceae",
        "scientificName": "Solanum decorum Sendtn.",
        "coordinateUncertaintyInMeters": "",
        "basisOfRecord": "OCCURRENCE",
        "eventDate": "",
        "country": null,
        "datasetName": "SinBIOTA",
        "publisher": "Programa BIOTA/FAPESP - The Virtual Institute of Biodiversity",
        "license": "CC_BY_NC_4_0",
        "issues": [
          "RECORDED_DATE_MISMATCH",
          "COORDINATE_REPROJECTED",
          "TAXON_ID_NOT_FOUND"
        ],
        "fallback_media": {
          "url": "https://data.nhm.ac.uk/media/a6115660-a3e6-4842-8ba7-b6cea08586c2",
          "references": null,
          "title": "BM000099881",
          "creator": null,
          "publisher": null,
          "license": "http://creativecommons.org/licenses/by/4.0/",
          "rightsHolder": "The Trustees of the Natural History Museum, London"
        }
      }
    },
    {
      "type": "Feature",
      "geometry": {
        "type": "Point",
        "coordinates": [
          -53.08982,
          -10.773109
        ]
      },
      "properties": {
        "gbifID": "1055383184",
        "species": "Solanum decorum",
        "genus": "Solanum",
        "family": "Solanaceae",
        "scientificName": "Solanum decorum Sendtn.",
        "coordinateUncertaintyInMeters": "4364.0",
        "basisOfRecord": "PRESERVED_SPECIMEN",
        "eventDate": "",
        "country": null,
        "datasetName": "",
        "publisher": "Natural History Museum",
        "license": "CC0_1_0",
        "issues": [
          "GEODETIC_DATUM_ASSUMED_WGS84",
          "INSTITUTION_MATCH_FUZZY",
          "COLLECTION_MATCH_FUZZY"
        ],
        "media": [
          {
            "url": "https://data.nhm.ac.uk/media/a6115660-a3e6-4842-8ba7-b6cea08586c2",
            "references": null,
            "title": "BM000099881",
            "creator": null,
            "publisher": null,
            "license": "http://creativecommons.org/licenses/by/4.0/",
            "rightsHolder": "The Trustees of the Natural History Museum, London"
          }
        ]
      }
    },
    {
      "type": "Feature",
      "geometry": {
        "type": "Point",
        "coordinates": [
          -54.355206,
          -11.524631
        ]
      },
      "properties": {
        "gbifID": "2250685295",
        "species": "Solanum decorum",
        "genus": "Solanum",
        "family": "Solanaceae",
        "scientificName": "Solanum decorum Sendtn.",
        "coordinateUncertaintyInMeters": "",
        "basisOfRecord": "MATERIAL_SAMPLE",
        "eventDate": "",
        "country": null,
        "datasetName": "",
        "publisher": "The International Barcode of Life Consortium",
        "license": "CC_BY_4_0",
        "issues": [
          "COUNTRY_DERIVED_FROM_COORDINATES",
          "GEODETIC_DATUM_ASSUMED_WGS84",
          "CONTINENT_DERIVED_FROM_COORDINATES",
          "INSTITUTION_MATCH_NONE"
        ],
        "fallback_media": {
          "url": "https://data.nhm.ac.uk/media/a6115660-a3e6-4842-8ba7-b6cea08586c2",
          "references": null,
          "title": "BM000099881",
          "creator": null,
          "publisher": null,
          "license": "http://creativecommons.org/licenses/by/4.0/",
          "rightsHolder": "The Trustees of the Natural History Museum, London"
        }
      }
    }
  ]
}
