{
  "type": "FeatureCollection",
  "metadata": {
    "host_taxon": {
      "canonical_name": "Cestrum sendtnerianum",
      "rank": "species",
      "family": "Solanaceae",
      "genus": "Cestrum",
      "species": "Cestrum sendtnerianum",
      "slug": "species_cestrum_sendtnerianum",
      "resolvable_to_gbif": true,
      "use_for_default_download": true,
      "association_count": 3,
      "butterfly_taxa": [
        "Episcada hymenaea",
        "Mcclungia cymo",
        "Mcclungia salonina"
      ],
      "confidence_counts": {
        "medium": 3
      },
      "occurrence_file": "occurrences/species_cestrum_sendtnerianum.geojson",
      "gbif_resolution": {
        "query": "Cestrum sendtnerianum",
        "rank": "species",
        "status": "resolved",
        "gbif_taxon_key": 3801287,
        "accepted_usage_key": 7300035,
        "scientific_name": "Cestrum sendtnerianum Mart. ex Sendtn.",
        "canonical_name": "Cestrum sendtnerianum",
        "gbif_rank": "SPECIES",
        "taxonomic_status": "SYNONYM",
        "match_type": "EXACT",
        "confidence": 99,
        "kingdom": "Plantae",
        "family": "Solanaceae",
        "genus": "Cestrum",
        "resolved_at": "2026-05-21T03:57:23+00:00"
      },
      "gbif_taxon_key": 3801287,
      "gbif_status": "resolved",
      "occurrence_count": 0,
      "occurrence_mode": "not_generated",
      "occurrence_cap": null
    },
    "gbif_resolution": {
      "query": "Cestrum sendtnerianum",
      "rank": "species",
      "status": "resolved",
      "gbif_taxon_key": 3801287,
      "accepted_usage_key": 7300035,
      "scientific_name": "Cestrum sendtnerianum Mart. ex Sendtn.",
      "canonical_name": "Cestrum sendtnerianum",
      "gbif_rank": "SPECIES",
      "taxonomic_status": "SYNONYM",
      "match_type": "EXACT",
      "confidence": 99,
      "kingdom": "Plantae",
      "family": "Solanaceae",
      "genus": "Cestrum",
      "resolved_at": "2026-05-21T03:57:23+00:00"
    },
    "occurrence_query": {
      "method": "gbif_download_api",
      "download_key": "0004690-260519110011954",
      "download_doi": "10.15468/dl.s2gcc3",
      "download_doi_url": "https://doi.org/10.15468/dl.s2gcc3",
      "limit": null,
      "dedupe": "Exact duplicate coordinates removed per taxon after DWCA download.",
      "filters": "GBIF Download API DWCA with TAXON_KEY, HAS_COORDINATE=true, HAS_GEOSPATIAL_ISSUE=false, OCCURRENCE_STATUS=PRESENT; app study extent and coordinate uncertainty <=100km applied locally.",
      "returned_unique_coordinate_records": 65
    },
    "scientific_caveat": "GBIF plant occurrences are sampling-biased context records and do not prove local host use or ecological availability for the butterfly.",
    "generated_at": "2026-05-21T15:57:19+00:00"
  },
  "features": [
    {
      "type": "Feature",
      "geometry": {
        "type": "Point",
        "coordinates": [
          -79.701144,
          -3.365218
        ]
      },
      "properties": {
        "gbifID": "1978518431",
        "species": "Cestrum mariquitense",
        "genus": "Cestrum",
        "family": "Solanaceae",
        "scientificName": "Cestrum sendtnerianum Mart. ex Sendtn.",
        "coordinateUncertaintyInMeters": "30.0",
        "basisOfRecord": "HUMAN_OBSERVATION",
        "eventDate": "",
        "country": null,
        "datasetName": "Información florística del Proyecto Mapa de Vegetación para la Clasificación de Ecosistemas del Ecuador Continental",
        "publisher": "Ministerio de Ambiente y Energía de Ecuador - MAE",
        "license": "CC_BY_4_0",
        "issues": [
          "RECORDED_DATE_INVALID",
          "TAXON_ID_NOT_FOUND"
        ],
        "fallback_media": {
          "url": "https://d2jcv3kl45hlgi.cloudfront.net/85e8ca9264aa3d145b2ebc3623536c70.jpg",
          "references": "http://specimens.kew.org/Herbarium/K001484830",
          "title": null,
          "creator": null,
          "publisher": null,
          "license": "http://creativecommons.org/licenses/by/4.0/",
          "rightsHolder": "Royal Botanic Gardens, Kew"
        }
      }
    },
    {
      "type": "Feature",
      "geometry": {
        "type": "Point",
        "coordinates": [
          -63.12,
          -17.57
        ]
      },
      "properties": {
        "gbifID": "1852105990",
        "species": "Cestrum mariquitense",
        "genus": "Cestrum",
        "family": "Solanaceae",
        "scientificName": "Cestrum sendtnerianum Mart. ex Sendtn.",
        "coordinateUncertaintyInMeters": "",
        "basisOfRecord": "PRESERVED_SPECIMEN",
        "eventDate": "1987-01-22",
        "country": null,
        "datasetName": "NMNH Extant Biology",
        "publisher": "National Museum of Natural History, Smithsonian Institution",
        "license": "CC0_1_0",
        "issues": [
          "OCCURRENCE_STATUS_INFERRED_FROM_INDIVIDUAL_COUNT",
          "GEODETIC_DATUM_ASSUMED_WGS84"
        ],
        "media": [
          {
            "url": "https://collections.nmnh.si.edu/media/?i=12640079&h=2000",
            "references": null,
            "title": "02845169.tif",
            "creator": "Conveyor Belt",
            "publisher": "Smithsonian Institution, NMNH, Botany",
            "license": "http://creativecommons.org/publicdomain/zero/1.0/",
            "rightsHolder": null
          }
        ]
      }
    },
    {
      "type": "Feature",
      "geometry": {
        "type": "Point",
        "coordinates": [
          -63.07,
          -17.77
        ]
      },
      "properties": {
        "gbifID": "1852145467",
        "species": "Cestrum mariquitense",
        "genus": "Cestrum",
        "family": "Solanaceae",
        "scientificName": "Cestrum sendtnerianum Mart. ex Sendtn.",
        "coordinateUncertaintyInMeters": "",
        "basisOfRecord": "PRESERVED_SPECIMEN",
        "eventDate": "1988-02-18",
        "country": null,
        "datasetName": "NMNH Extant Biology",
        "publisher": "National Museum of Natural History, Smithsonian Institution",
        "license": "CC0_1_0",
        "issues": [
          "OCCURRENCE_STATUS_INFERRED_FROM_INDIVIDUAL_COUNT",
          "GEODETIC_DATUM_ASSUMED_WGS84"
        ],
        "media": [
          {
            "url": "https://collections.nmnh.si.edu/media/?i=12649741&h=2000",
            "references": null,
            "title": "02845165.tif",
            "creator": "Conveyor Belt",
            "publisher": "Smithsonian Institution, NMNH, Botany",
            "license": "http://creativecommons.org/publicdomain/zero/1.0/",
            "rightsHolder": null
          }
        ]
      }
    },
    {
      "type": "Feature",
      "geometry": {
        "type": "Point",
        "coordinates": [
          -63.18,
          -17.87
        ]
      },
      "properties": {
        "gbifID": "1852154853",
        "species": "Cestrum mariquitense",
        "genus": "Cestrum",
        "family": "Solanaceae",
        "scientificName": "Cestrum sendtnerianum Mart. ex Sendtn.",
        "coordinateUncertaintyInMeters": "",
        "basisOfRecord": "PRESERVED_SPECIMEN",
        "eventDate": "1988-04-17",
        "country": null,
        "datasetName": "NMNH Extant Biology",
        "publisher": "National Museum of Natural History, Smithsonian Institution",
        "license": "CC0_1_0",
        "issues": [
          "OCCURRENCE_STATUS_INFERRED_FROM_INDIVIDUAL_COUNT",
          "GEODETIC_DATUM_ASSUMED_WGS84"
        ],
        "media": [
          {
            "url": "https://collections.nmnh.si.edu/media/?i=12648304&h=2000",
            "references": null,
            "title": "02845164.tif",
            "creator": "Conveyor Belt",
            "publisher": "Smithsonian Institution, NMNH, Botany",
            "license": "http://creativecommons.org/publicdomain/zero/1.0/",
            "rightsHolder": null
          }
        ]
      }
    },
    {
      "type": "Feature",
      "geometry": {
        "type": "Point",
        "coordinates": [
          -63.35,
          -17.93
        ]
      },
      "properties": {
        "gbifID": "1852154141",
        "species": "Cestrum mariquitense",
        "genus": "Cestrum",
        "family": "Solanaceae",
        "scientificName": "Cestrum sendtnerianum Mart. ex Sendtn.",
        "coordinateUncertaintyInMeters": "",
        "basisOfRecord": "PRESERVED_SPECIMEN",
        "eventDate": "1987-02-21",
        "country": null,
        "datasetName": "NMNH Extant Biology",
        "publisher": "National Museum of Natural History, Smithsonian Institution",
        "license": "CC0_1_0",
        "issues": [
          "OCCURRENCE_STATUS_INFERRED_FROM_INDIVIDUAL_COUNT",
          "GEODETIC_DATUM_ASSUMED_WGS84"
        ],
        "media": [
          {
            "url": "https://collections.nmnh.si.edu/media/?i=12658959&h=2000",
            "references": null,
            "title": "02845168.tif",
            "creator": "Conveyor Belt",
            "publisher": "Smithsonian Institution, NMNH, Botany",
            "license": "http://creativecommons.org/publicdomain/zero/1.0/",
            "rightsHolder": null
          }
        ]
      }
    },
    {
      "type": "Feature",
      "geometry": {
        "type": "Point",
        "coordinates": [
          -63.2,
          -17.78
        ]
      },
      "properties": {
        "gbifID": "1852133734",
        "species": "Cestrum mariquitense",
        "genus": "Cestrum",
        "family": "Solanaceae",
        "scientificName": "Cestrum sendtnerianum Mart. ex Sendtn.",
        "coordinateUncertaintyInMeters": "",
        "basisOfRecord": "PRESERVED_SPECIMEN",
        "eventDate": "1987-01-22",
        "country": null,
        "datasetName": "NMNH Extant Biology",
        "publisher": "National Museum of Natural History, Smithsonian Institution",
        "license": "CC0_1_0",
        "issues": [
          "OCCURRENCE_STATUS_INFERRED_FROM_INDIVIDUAL_COUNT",
          "GEODETIC_DATUM_ASSUMED_WGS84"
        ],
        "media": [
          {
            "url": "https://collections.nmnh.si.edu/media/?i=12661713&h=2000",
            "references": null,
            "title": "02845170.tif",
            "creator": "Conveyor Belt",
            "publisher": "Smithsonian Institution, NMNH, Botany",
            "license": "http://creativecommons.org/publicdomain/zero/1.0/",
            "rightsHolder": null
          }
        ]
      }
    },
    {
      "type": "Feature",
      "geometry": {
        "type": "Point",
        "coordinates": [
          -63.57,
          -17.4
        ]
      },
      "properties": {
        "gbifID": "1852133755",
        "species": "Cestrum mariquitense",
        "genus": "Cestrum",
        "family": "Solanaceae",
        "scientificName": "Cestrum sendtnerianum Mart. ex Sendtn.",
        "coordinateUncertaintyInMeters": "",
        "basisOfRecord": "PRESERVED_SPECIMEN",
        "eventDate": "1991-05-21",
        "country": null,
        "datasetName": "NMNH Extant Biology",
        "publisher": "National Museum of Natural History, Smithsonian Institution",
        "license": "CC0_1_0",
        "issues": [
          "OCCURRENCE_STATUS_INFERRED_FROM_INDIVIDUAL_COUNT",
          "GEODETIC_DATUM_ASSUMED_WGS84"
        ],
        "media": [
          {
            "url": "https://collections.nmnh.si.edu/media/?i=12647854&h=2000",
            "references": null,
            "title": "02845163.tif",
            "creator": "Conveyor Belt",
            "publisher": "Smithsonian Institution, NMNH, Botany",
            "license": "http://creativecommons.org/publicdomain/zero/1.0/",
            "rightsHolder": null
          }
        ]
      }
    },
    {
      "type": "Feature",
      "geometry": {
        "type": "Point",
        "coordinates": [
          -67.92,
          -14.15
        ]
      },
      "properties": {
        "gbifID": "1852116134",
        "species": "Cestrum mariquitense",
        "genus": "Cestrum",
        "family": "Solanaceae",
        "scientificName": "Cestrum sendtnerianum Mart. ex Sendtn.",
        "coordinateUncertaintyInMeters": "",
        "basisOfRecord": "PRESERVED_SPECIMEN",
        "eventDate": "1901-12-13",
        "country": null,
        "datasetName": "NMNH Extant Biology",
        "publisher": "National Museum of Natural History, Smithsonian Institution",
        "license": "CC0_1_0",
        "issues": [
          "OCCURRENCE_STATUS_INFERRED_FROM_INDIVIDUAL_COUNT",
          "GEODETIC_DATUM_ASSUMED_WGS84"
        ],
        "media": [
          {
            "url": "https://collections.nmnh.si.edu/media/?i=12647491&h=2000",
            "references": null,
            "title": "02845172.tif",
            "creator": "Conveyor Belt",
            "publisher": "Smithsonian Institution, NMNH, Botany",
            "license": "http://creativecommons.org/publicdomain/zero/1.0/",
            "rightsHolder": null
          }
        ]
      }
    },
    {
      "type": "Feature",
      "geometry": {
        "type": "Point",
        "coordinates": [
          -63.38,
          -17.98
        ]
      },
      "properties": {
        "gbifID": "1852109176",
        "species": "Cestrum mariquitense",
        "genus": "Cestrum",
        "family": "Solanaceae",
        "scientificName": "Cestrum sendtnerianum Mart. ex Sendtn.",
        "coordinateUncertaintyInMeters": "",
        "basisOfRecord": "PRESERVED_SPECIMEN",
        "eventDate": "1987-01-17",
        "country": null,
        "datasetName": "NMNH Extant Biology",
        "publisher": "National Museum of Natural History, Smithsonian Institution",
        "license": "CC0_1_0",
        "issues": [
          "OCCURRENCE_STATUS_INFERRED_FROM_INDIVIDUAL_COUNT",
          "GEODETIC_DATUM_ASSUMED_WGS84"
        ],
        "media": [
          {
            "url": "https://collections.nmnh.si.edu/media/?i=12653843&h=2000",
            "references": null,
            "title": "02845171.tif",
            "creator": "Conveyor Belt",
            "publisher": "Smithsonian Institution, NMNH, Botany",
            "license": "http://creativecommons.org/publicdomain/zero/1.0/",
            "rightsHolder": null
          }
        ]
      }
    },
    {
      "type": "Feature",
      "geometry": {
        "type": "Point",
        "coordinates": [
          -63.6,
          -17.4
        ]
      },
      "properties": {
        "gbifID": "1852140701",
        "species": "Cestrum mariquitense",
        "genus": "Cestrum",
        "family": "Solanaceae",
        "scientificName": "Cestrum sendtnerianum Mart. ex Sendtn.",
        "coordinateUncertaintyInMeters": "",
        "basisOfRecord": "PRESERVED_SPECIMEN",
        "eventDate": "1988-01-30",
        "country": null,
        "datasetName": "NMNH Extant Biology",
        "publisher": "National Museum of Natural History, Smithsonian Institution",
        "license": "CC0_1_0",
        "issues": [
          "OCCURRENCE_STATUS_INFERRED_FROM_INDIVIDUAL_COUNT",
          "GEODETIC_DATUM_ASSUMED_WGS84"
        ],
        "media": [
          {
            "url": "https://collections.nmnh.si.edu/media/?i=12648816&h=2000",
            "references": null,
            "title": "02845167.tif",
            "creator": "Conveyor Belt",
            "publisher": "Smithsonian Institution, NMNH, Botany",
            "license": "http://creativecommons.org/publicdomain/zero/1.0/",
            "rightsHolder": null
          }
        ]
      }
    },
    {
      "type": "Feature",
      "geometry": {
        "type": "Point",
        "coordinates": [
          -63.67,
          -17.47
        ]
      },
      "properties": {
        "gbifID": "1852149368",
        "species": "Cestrum mariquitense",
        "genus": "Cestrum",
        "family": "Solanaceae",
        "scientificName": "Cestrum sendtnerianum Mart. ex Sendtn.",
        "coordinateUncertaintyInMeters": "",
        "basisOfRecord": "PRESERVED_SPECIMEN",
        "eventDate": "1991-06-05",
        "country": null,
        "datasetName": "NMNH Extant Biology",
        "publisher": "National Museum of Natural History, Smithsonian Institution",
        "license": "CC0_1_0",
        "issues": [
          "OCCURRENCE_STATUS_INFERRED_FROM_INDIVIDUAL_COUNT",
          "GEODETIC_DATUM_ASSUMED_WGS84"
        ],
        "media": [
          {
            "url": "https://collections.nmnh.si.edu/media/?i=12641665&h=2000",
            "references": null,
            "title": "02845162.tif",
            "creator": "Conveyor Belt",
            "publisher": "Smithsonian Institution, NMNH, Botany",
            "license": "http://creativecommons.org/publicdomain/zero/1.0/",
            "rightsHolder": null
          }
        ]
      }
    },
    {
      "type": "Feature",
      "geometry": {
        "type": "Point",
        "coordinates": [
          -63.18,
          -17.875
        ]
      },
      "properties": {
        "gbifID": "1852135955",
        "species": "Cestrum mariquitense",
        "genus": "Cestrum",
        "family": "Solanaceae",
        "scientificName": "Cestrum sendtnerianum Mart. ex Sendtn.",
        "coordinateUncertaintyInMeters": "",
        "basisOfRecord": "PRESERVED_SPECIMEN",
        "eventDate": "1988-02-15",
        "country": null,
        "datasetName": "NMNH Extant Biology",
        "publisher": "National Museum of Natural History, Smithsonian Institution",
        "license": "CC0_1_0",
        "issues": [
          "OCCURRENCE_STATUS_INFERRED_FROM_INDIVIDUAL_COUNT",
          "GEODETIC_DATUM_ASSUMED_WGS84"
        ],
        "media": [
          {
            "url": "https://collections.nmnh.si.edu/media/?i=12662143&h=2000",
            "references": null,
            "title": "02845166.tif",
            "creator": "Conveyor Belt",
            "publisher": "Smithsonian Institution, NMNH, Botany",
            "license": "http://creativecommons.org/publicdomain/zero/1.0/",
            "rightsHolder": null
          }
        ]
      }
    },
    {
      "type": "Feature",
      "geometry": {
        "type": "Point",
        "coordinates": [
          -69.938611,
          -4.253333
        ]
      },
      "properties": {
        "gbifID": "2997354742",
        "species": "Cestrum mariquitense",
        "genus": "Cestrum",
        "family": "Solanaceae",
        "scientificName": "Cestrum sendtnerianum Mart. ex Sendtn.",
        "coordinateUncertaintyInMeters": "",
        "basisOfRecord": "PRESERVED_SPECIMEN",
        "eventDate": "1973-07-24",
        "country": null,
        "datasetName": "",
        "publisher": "Instituto de Pesquisas Jardim Botanico do Rio de Janeiro",
        "license": "CC_BY_4_0",
        "issues": [
          "IDENTIFIED_DATE_INVALID",
          "COORDINATE_ROUNDED",
          "GEODETIC_DATUM_ASSUMED_WGS84",
          "CONTINENT_DERIVED_FROM_COORDINATES",
          "INSTITUTION_MATCH_FUZZY",
          "COLLECTION_MATCH_FUZZY"
        ],
        "fallback_media": {
          "url": "https://d2jcv3kl45hlgi.cloudfront.net/85e8ca9264aa3d145b2ebc3623536c70.jpg",
          "references": "http://specimens.kew.org/Herbarium/K001484830",
          "title": null,
          "creator": null,
          "publisher": null,
          "license": "http://creativecommons.org/licenses/by/4.0/",
          "rightsHolder": "Royal Botanic Gardens, Kew"
        }
      }
    },
    {
      "type": "Feature",
      "geometry": {
        "type": "Point",
        "coordinates": [
          -62.8,
          1.53
        ]
      },
      "properties": {
        "gbifID": "2997879738",
        "species": "Cestrum mariquitense",
        "genus": "Cestrum",
        "family": "Solanaceae",
        "scientificName": "Cestrum sendtnerianum Mart. ex Sendtn.",
        "coordinateUncertaintyInMeters": "",
        "basisOfRecord": "PRESERVED_SPECIMEN",
        "eventDate": "1984-02-04",
        "country": null,
        "datasetName": "",
        "publisher": "Instituto de Pesquisas Jardim Botanico do Rio de Janeiro",
        "license": "CC_BY_4_0",
        "issues": [
          "RECORDED_DATE_INVALID",
          "IDENTIFIED_DATE_INVALID",
          "GEODETIC_DATUM_ASSUMED_WGS84",
          "CONTINENT_DERIVED_FROM_COORDINATES",
          "INSTITUTION_MATCH_FUZZY",
          "COLLECTION_MATCH_FUZZY"
        ],
        "fallback_media": {
          "url": "https://d2jcv3kl45hlgi.cloudfront.net/85e8ca9264aa3d145b2ebc3623536c70.jpg",
          "references": "http://specimens.kew.org/Herbarium/K001484830",
          "title": null,
          "creator": null,
          "publisher": null,
          "license": "http://creativecommons.org/licenses/by/4.0/",
          "rightsHolder": "Royal Botanic Gardens, Kew"
        }
      }
    },
    {
      "type": "Feature",
      "geometry": {
        "type": "Point",
        "coordinates": [
          -50.496111,
          -22.5825
        ]
      },
      "properties": {
        "gbifID": "1424506429",
        "species": "Cestrum mariquitense",
        "genus": "Cestrum",
        "family": "Solanaceae",
        "scientificName": "Cestrum sendtnerianum Mart. ex Sendtn.",
        "coordinateUncertaintyInMeters": "",
        "basisOfRecord": "PRESERVED_SPECIMEN",
        "eventDate": "1996-02-13",
        "country": null,
        "datasetName": "RB - Rio de Janeiro Botanical Garden Herbarium Collection",
        "publisher": "Instituto de Pesquisas Jardim Botanico do Rio de Janeiro",
        "license": "CC_BY_4_0",
        "issues": [
          "COORDINATE_ROUNDED",
          "GEODETIC_DATUM_ASSUMED_WGS84",
          "CONTINENT_DERIVED_FROM_COORDINATES",
          "INSTITUTION_MATCH_FUZZY",
          "COLLECTION_MATCH_FUZZY"
        ],
        "media": [
          {
            "url": "http://jbrj-public-img.s3-sa-east-1.amazonaws.com/JPG/rb/0/93/72/44/00937244.jpg",
            "references": null,
            "title": null,
            "creator": null,
            "publisher": null,
            "license": null,
            "rightsHolder": null
          }
        ]
      }
    },
    {
      "type": "Feature",
      "geometry": {
        "type": "Point",
        "coordinates": [
          -42.836944,
          -22.076667
        ]
      },
      "properties": {
        "gbifID": "1424403008",
        "species": "Cestrum mariquitense",
        "genus": "Cestrum",
        "family": "Solanaceae",
        "scientificName": "Cestrum sendtnerianum Mart. ex Sendtn.",
        "coordinateUncertaintyInMeters": "",
        "basisOfRecord": "PRESERVED_SPECIMEN",
        "eventDate": "2000-12-28",
        "country": null,
        "datasetName": "RB - Rio de Janeiro Botanical Garden Herbarium Collection",
        "publisher": "Instituto de Pesquisas Jardim Botanico do Rio de Janeiro",
        "license": "CC_BY_4_0",
        "issues": [
          "COORDINATE_ROUNDED",
          "GEODETIC_DATUM_ASSUMED_WGS84",
          "CONTINENT_DERIVED_FROM_COORDINATES",
          "INSTITUTION_MATCH_FUZZY",
          "COLLECTION_MATCH_FUZZY"
        ],
        "media": [
          {
            "url": "http://jbrj-public-img.s3-sa-east-1.amazonaws.com/JPG/rb/0/70/4/99/00700499.jpg",
            "references": null,
            "title": null,
            "creator": null,
            "publisher": null,
            "license": null,
            "rightsHolder": null
          }
        ]
      }
    },
    {
      "type": "Feature",
      "geometry": {
        "type": "Point",
        "coordinates": [
          -41.663333,
          -13.249722
        ]
      },
      "properties": {
        "gbifID": "2997446716",
        "species": "Cestrum mariquitense",
        "genus": "Cestrum",
        "family": "Solanaceae",
        "scientificName": "Cestrum sendtnerianum Mart. ex Sendtn.",
        "coordinateUncertaintyInMeters": "",
        "basisOfRecord": "PRESERVED_SPECIMEN",
        "eventDate": "",
        "country": null,
        "datasetName": "",
        "publisher": "Instituto de Pesquisas Jardim Botanico do Rio de Janeiro",
        "license": "CC_BY_4_0",
        "issues": [
          "COORDINATE_ROUNDED",
          "GEODETIC_DATUM_ASSUMED_WGS84",
          "CONTINENT_DERIVED_FROM_COORDINATES",
          "INSTITUTION_MATCH_FUZZY",
          "COLLECTION_MATCH_FUZZY"
        ],
        "fallback_media": {
          "url": "https://d2jcv3kl45hlgi.cloudfront.net/85e8ca9264aa3d145b2ebc3623536c70.jpg",
          "references": "http://specimens.kew.org/Herbarium/K001484830",
          "title": null,
          "creator": null,
          "publisher": null,
          "license": "http://creativecommons.org/licenses/by/4.0/",
          "rightsHolder": "Royal Botanic Gardens, Kew"
        }
      }
    },
    {
      "type": "Feature",
      "geometry": {
        "type": "Point",
        "coordinates": [
          -63.58,
          -10.583333
        ]
      },
      "properties": {
        "gbifID": "2997877745",
        "species": "Cestrum mariquitense",
        "genus": "Cestrum",
        "family": "Solanaceae",
        "scientificName": "Cestrum sendtnerianum Mart. ex Sendtn.",
        "coordinateUncertaintyInMeters": "",
        "basisOfRecord": "PRESERVED_SPECIMEN",
        "eventDate": "1982-05-13",
        "country": null,
        "datasetName": "",
        "publisher": "Instituto de Pesquisas Jardim Botanico do Rio de Janeiro",
        "license": "CC_BY_4_0",
        "issues": [
          "IDENTIFIED_DATE_INVALID",
          "COORDINATE_ROUNDED",
          "GEODETIC_DATUM_ASSUMED_WGS84",
          "CONTINENT_DERIVED_FROM_COORDINATES",
          "INSTITUTION_MATCH_FUZZY",
          "COLLECTION_MATCH_FUZZY"
        ],
        "fallback_media": {
          "url": "https://d2jcv3kl45hlgi.cloudfront.net/85e8ca9264aa3d145b2ebc3623536c70.jpg",
          "references": "http://specimens.kew.org/Herbarium/K001484830",
          "title": null,
          "creator": null,
          "publisher": null,
          "license": "http://creativecommons.org/licenses/by/4.0/",
          "rightsHolder": "Royal Botanic Gardens, Kew"
        }
      }
    },
    {
      "type": "Feature",
      "geometry": {
        "type": "Point",
        "coordinates": [
          -46.357778,
          -23.1425
        ]
      },
      "properties": {
        "gbifID": "1424505040",
        "species": "Cestrum mariquitense",
        "genus": "Cestrum",
        "family": "Solanaceae",
        "scientificName": "Cestrum sendtnerianum Mart. ex Sendtn.",
        "coordinateUncertaintyInMeters": "",
        "basisOfRecord": "PRESERVED_SPECIMEN",
        "eventDate": "1996-06-01",
        "country": null,
        "datasetName": "RB - Rio de Janeiro Botanical Garden Herbarium Collection",
        "publisher": "Instituto de Pesquisas Jardim Botanico do Rio de Janeiro",
        "license": "CC_BY_4_0",
        "issues": [
          "COORDINATE_ROUNDED",
          "GEODETIC_DATUM_ASSUMED_WGS84",
          "CONTINENT_DERIVED_FROM_COORDINATES",
          "INSTITUTION_MATCH_FUZZY",
          "COLLECTION_MATCH_FUZZY"
        ],
        "media": [
          {
            "url": "http://jbrj-public-img.s3-sa-east-1.amazonaws.com/JPG/rb/0/93/40/12/00934012.jpg",
            "references": null,
            "title": null,
            "creator": null,
            "publisher": null,
            "license": null,
            "rightsHolder": null
          }
        ]
      }
    },
    {
      "type": "Feature",
      "geometry": {
        "type": "Point",
        "coordinates": [
          -49.06,
          -22.31
        ]
      },
      "properties": {
        "gbifID": "2998189688",
        "species": "Cestrum mariquitense",
        "genus": "Cestrum",
        "family": "Solanaceae",
        "scientificName": "Cestrum sendtnerianum Mart. ex Sendtn.",
        "coordinateUncertaintyInMeters": "",
        "basisOfRecord": "PRESERVED_SPECIMEN",
        "eventDate": "1996-09-24",
        "country": null,
        "datasetName": "",
        "publisher": "Instituto de Pesquisas Jardim Botanico do Rio de Janeiro",
        "license": "CC_BY_4_0",
        "issues": [
          "IDENTIFIED_DATE_INVALID",
          "GEODETIC_DATUM_ASSUMED_WGS84",
          "CONTINENT_DERIVED_FROM_COORDINATES",
          "INSTITUTION_MATCH_FUZZY",
          "COLLECTION_MATCH_FUZZY"
        ],
        "fallback_media": {
          "url": "https://d2jcv3kl45hlgi.cloudfront.net/85e8ca9264aa3d145b2ebc3623536c70.jpg",
          "references": "http://specimens.kew.org/Herbarium/K001484830",
          "title": null,
          "creator": null,
          "publisher": null,
          "license": "http://creativecommons.org/licenses/by/4.0/",
          "rightsHolder": "Royal Botanic Gardens, Kew"
        }
      }
    },
    {
      "type": "Feature",
      "geometry": {
        "type": "Point",
        "coordinates": [
          -69.9386,
          -4.2533
        ]
      },
      "properties": {
        "gbifID": "1928263306",
        "species": "Cestrum mariquitense",
        "genus": "Cestrum",
        "family": "Solanaceae",
        "scientificName": "Cestrum sendtnerianum Mart. ex Sendtn.",
        "coordinateUncertaintyInMeters": "",
        "basisOfRecord": "PRESERVED_SPECIMEN",
        "eventDate": "1973-07-24",
        "country": null,
        "datasetName": "Vascular plants",
        "publisher": "The New York Botanical Garden",
        "license": "CC0_1_0",
        "issues": [
          "MODIFIED_DATE_INVALID"
        ],
        "media": [
          {
            "url": "http://sweetgum.nybg.org/images3/602/788/01291219.jpg",
            "references": null,
            "title": null,
            "creator": "The New York Botanical Garden",
            "publisher": null,
            "license": "http://creativecommons.org/licenses/by/4.0/",
            "rightsHolder": "The New York Botanical Garden"
          }
        ]
      }
    },
    {
      "type": "Feature",
      "geometry": {
        "type": "Point",
        "coordinates": [
          -41.663359,
          -13.253372
        ]
      },
      "properties": {
        "gbifID": "1928235863",
        "species": "Cestrum mariquitense",
        "genus": "Cestrum",
        "family": "Solanaceae",
        "scientificName": "Cestrum sendtnerianum Mart. ex Sendtn.",
        "coordinateUncertaintyInMeters": "26531.0",
        "basisOfRecord": "PRESERVED_SPECIMEN",
        "eventDate": "1992-03-12",
        "country": null,
        "datasetName": "Vascular plants",
        "publisher": "The New York Botanical Garden",
        "license": "CC0_1_0",
        "issues": [
          "MODIFIED_DATE_INVALID",
          "COORDINATE_REPROJECTED"
        ],
        "media": [
          {
            "url": "http://sweetgum.nybg.org/images3/1618/320/01145192.jpg",
            "references": null,
            "title": null,
            "creator": "The New York Botanical Garden",
            "publisher": null,
            "license": "http://creativecommons.org/licenses/by/4.0/",
            "rightsHolder": "The New York Botanical Garden"
          }
        ]
      }
    },
    {
      "type": "Feature",
      "geometry": {
        "type": "Point",
        "coordinates": [
          -46.63,
          -23.54
        ]
      },
      "properties": {
        "gbifID": "1086894932",
        "species": "Cestrum mariquitense",
        "genus": "Cestrum",
        "family": "Solanaceae",
        "scientificName": "Cestrum sendtnerianum Mart. ex Sendtn.",
        "coordinateUncertaintyInMeters": "",
        "basisOfRecord": "PRESERVED_SPECIMEN",
        "eventDate": "1939-08-09",
        "country": null,
        "datasetName": "",
        "publisher": "Instituto Florestal",
        "license": "CC_BY_4_0",
        "issues": [
          "CONTINENT_DERIVED_FROM_COORDINATES",
          "INSTITUTION_MATCH_FUZZY",
          "INSTITUTION_COLLECTION_MISMATCH",
          "TAXON_MATCH_FUZZY"
        ],
        "fallback_media": {
          "url": "https://d2jcv3kl45hlgi.cloudfront.net/85e8ca9264aa3d145b2ebc3623536c70.jpg",
          "references": "http://specimens.kew.org/Herbarium/K001484830",
          "title": null,
          "creator": null,
          "publisher": null,
          "license": "http://creativecommons.org/licenses/by/4.0/",
          "rightsHolder": "Royal Botanic Gardens, Kew"
        }
      }
    },
    {
      "type": "Feature",
      "geometry": {
        "type": "Point",
        "coordinates": [
          -49.4,
          -22.41
        ]
      },
      "properties": {
        "gbifID": "4953425979",
        "species": "Cestrum mariquitense",
        "genus": "Cestrum",
        "family": "Solanaceae",
        "scientificName": "Cestrum sendtnerianum Mart. ex Sendtn.",
        "coordinateUncertaintyInMeters": "",
        "basisOfRecord": "PRESERVED_SPECIMEN",
        "eventDate": "1956-07-10",
        "country": null,
        "datasetName": "",
        "publisher": "Instituto Florestal",
        "license": "CC_BY_4_0",
        "issues": [
          "CONTINENT_DERIVED_FROM_COORDINATES",
          "INSTITUTION_MATCH_FUZZY",
          "INSTITUTION_COLLECTION_MISMATCH",
          "TAXON_MATCH_FUZZY"
        ],
        "fallback_media": {
          "url": "https://d2jcv3kl45hlgi.cloudfront.net/85e8ca9264aa3d145b2ebc3623536c70.jpg",
          "references": "http://specimens.kew.org/Herbarium/K001484830",
          "title": null,
          "creator": null,
          "publisher": null,
          "license": "http://creativecommons.org/licenses/by/4.0/",
          "rightsHolder": "Royal Botanic Gardens, Kew"
        }
      }
    },
    {
      "type": "Feature",
      "geometry": {
        "type": "Point",
        "coordinates": [
          -46.97,
          -23.03
        ]
      },
      "properties": {
        "gbifID": "1086898085",
        "species": "Cestrum mariquitense",
        "genus": "Cestrum",
        "family": "Solanaceae",
        "scientificName": "Cestrum sendtnerianum Mart. ex Sendtn.",
        "coordinateUncertaintyInMeters": "",
        "basisOfRecord": "PRESERVED_SPECIMEN",
        "eventDate": "2002-01-20",
        "country": null,
        "datasetName": "",
        "publisher": "Instituto Florestal",
        "license": "CC_BY_4_0",
        "issues": [
          "CONTINENT_DERIVED_FROM_COORDINATES",
          "INSTITUTION_MATCH_FUZZY",
          "INSTITUTION_COLLECTION_MISMATCH",
          "TAXON_MATCH_FUZZY"
        ],
        "fallback_media": {
          "url": "https://d2jcv3kl45hlgi.cloudfront.net/85e8ca9264aa3d145b2ebc3623536c70.jpg",
          "references": "http://specimens.kew.org/Herbarium/K001484830",
          "title": null,
          "creator": null,
          "publisher": null,
          "license": "http://creativecommons.org/licenses/by/4.0/",
          "rightsHolder": "Royal Botanic Gardens, Kew"
        }
      }
    },
    {
      "type": "Feature",
      "geometry": {
        "type": "Point",
        "coordinates": [
          -39.075278,
          -15.293333
        ]
      },
      "properties": {
        "gbifID": "1086879984",
        "species": "Cestrum mariquitense",
        "genus": "Cestrum",
        "family": "Solanaceae",
        "scientificName": "Cestrum sendtnerianum Mart. ex Sendtn.",
        "coordinateUncertaintyInMeters": "",
        "basisOfRecord": "PRESERVED_SPECIMEN",
        "eventDate": "1986-12-30",
        "country": null,
        "datasetName": "",
        "publisher": "Instituto Florestal",
        "license": "CC_BY_4_0",
        "issues": [
          "COORDINATE_ROUNDED",
          "CONTINENT_DERIVED_FROM_COORDINATES",
          "INSTITUTION_MATCH_FUZZY",
          "INSTITUTION_COLLECTION_MISMATCH",
          "TAXON_MATCH_FUZZY"
        ],
        "fallback_media": {
          "url": "https://d2jcv3kl45hlgi.cloudfront.net/85e8ca9264aa3d145b2ebc3623536c70.jpg",
          "references": "http://specimens.kew.org/Herbarium/K001484830",
          "title": null,
          "creator": null,
          "publisher": null,
          "license": "http://creativecommons.org/licenses/by/4.0/",
          "rightsHolder": "Royal Botanic Gardens, Kew"
        }
      }
    },
    {
      "type": "Feature",
      "geometry": {
        "type": "Point",
        "coordinates": [
          -47.47,
          -20.25
        ]
      },
      "properties": {
        "gbifID": "1086905888",
        "species": "Cestrum mariquitense",
        "genus": "Cestrum",
        "family": "Solanaceae",
        "scientificName": "Cestrum sendtnerianum Mart. ex Sendtn.",
        "coordinateUncertaintyInMeters": "",
        "basisOfRecord": "PRESERVED_SPECIMEN",
        "eventDate": "2006-08-17",
        "country": null,
        "datasetName": "",
        "publisher": "Instituto Florestal",
        "license": "CC_BY_4_0",
        "issues": [
          "CONTINENT_DERIVED_FROM_COORDINATES",
          "INSTITUTION_MATCH_FUZZY",
          "INSTITUTION_COLLECTION_MISMATCH",
          "TAXON_MATCH_FUZZY"
        ],
        "fallback_media": {
          "url": "https://d2jcv3kl45hlgi.cloudfront.net/85e8ca9264aa3d145b2ebc3623536c70.jpg",
          "references": "http://specimens.kew.org/Herbarium/K001484830",
          "title": null,
          "creator": null,
          "publisher": null,
          "license": "http://creativecommons.org/licenses/by/4.0/",
          "rightsHolder": "Royal Botanic Gardens, Kew"
        }
      }
    },
    {
      "type": "Feature",
      "geometry": {
        "type": "Point",
        "coordinates": [
          -48.08,
          -21.68
        ]
      },
      "properties": {
        "gbifID": "4953428898",
        "species": "Cestrum mariquitense",
        "genus": "Cestrum",
        "family": "Solanaceae",
        "scientificName": "Cestrum sendtnerianum Mart. ex Sendtn.",
        "coordinateUncertaintyInMeters": "",
        "basisOfRecord": "PRESERVED_SPECIMEN",
        "eventDate": "1946-12-15",
        "country": null,
        "datasetName": "",
        "publisher": "Instituto Florestal",
        "license": "CC_BY_4_0",
        "issues": [
          "CONTINENT_DERIVED_FROM_COORDINATES",
          "INSTITUTION_MATCH_FUZZY",
          "INSTITUTION_COLLECTION_MISMATCH",
          "TAXON_MATCH_FUZZY"
        ],
        "fallback_media": {
          "url": "https://d2jcv3kl45hlgi.cloudfront.net/85e8ca9264aa3d145b2ebc3623536c70.jpg",
          "references": "http://specimens.kew.org/Herbarium/K001484830",
          "title": null,
          "creator": null,
          "publisher": null,
          "license": "http://creativecommons.org/licenses/by/4.0/",
          "rightsHolder": "Royal Botanic Gardens, Kew"
        }
      }
    },
    {
      "type": "Feature",
      "geometry": {
        "type": "Point",
        "coordinates": [
          -50.41,
          -22.66
        ]
      },
      "properties": {
        "gbifID": "1086904587",
        "species": "Cestrum mariquitense",
        "genus": "Cestrum",
        "family": "Solanaceae",
        "scientificName": "Cestrum sendtnerianum Mart. ex Sendtn.",
        "coordinateUncertaintyInMeters": "",
        "basisOfRecord": "PRESERVED_SPECIMEN",
        "eventDate": "2005-09-20",
        "country": null,
        "datasetName": "",
        "publisher": "Instituto Florestal",
        "license": "CC_BY_4_0",
        "issues": [
          "CONTINENT_DERIVED_FROM_COORDINATES",
          "INSTITUTION_MATCH_FUZZY",
          "INSTITUTION_COLLECTION_MISMATCH",
          "TAXON_MATCH_FUZZY"
        ],
        "fallback_media": {
          "url": "https://d2jcv3kl45hlgi.cloudfront.net/85e8ca9264aa3d145b2ebc3623536c70.jpg",
          "references": "http://specimens.kew.org/Herbarium/K001484830",
          "title": null,
          "creator": null,
          "publisher": null,
          "license": "http://creativecommons.org/licenses/by/4.0/",
          "rightsHolder": "Royal Botanic Gardens, Kew"
        }
      }
    },
    {
      "type": "Feature",
      "geometry": {
        "type": "Point",
        "coordinates": [
          -47.42,
          -21.99
        ]
      },
      "properties": {
        "gbifID": "4953424989",
        "species": "Cestrum mariquitense",
        "genus": "Cestrum",
        "family": "Solanaceae",
        "scientificName": "Cestrum sendtnerianum Mart. ex Sendtn.",
        "coordinateUncertaintyInMeters": "",
        "basisOfRecord": "PRESERVED_SPECIMEN",
        "eventDate": "1944-07-07",
        "country": null,
        "datasetName": "",
        "publisher": "Instituto Florestal",
        "license": "CC_BY_4_0",
        "issues": [
          "CONTINENT_DERIVED_FROM_COORDINATES",
          "INSTITUTION_MATCH_FUZZY",
          "INSTITUTION_COLLECTION_MISMATCH",
          "TAXON_MATCH_FUZZY"
        ],
        "fallback_media": {
          "url": "https://d2jcv3kl45hlgi.cloudfront.net/85e8ca9264aa3d145b2ebc3623536c70.jpg",
          "references": "http://specimens.kew.org/Herbarium/K001484830",
          "title": null,
          "creator": null,
          "publisher": null,
          "license": "http://creativecommons.org/licenses/by/4.0/",
          "rightsHolder": "Royal Botanic Gardens, Kew"
        }
      }
    },
    {
      "type": "Feature",
      "geometry": {
        "type": "Point",
        "coordinates": [
          -38.7667,
          -11.8667
        ]
      },
      "properties": {
        "gbifID": "1090553166",
        "species": "Cestrum mariquitense",
        "genus": "Cestrum",
        "family": "Solanaceae",
        "scientificName": "Cestrum sendtnerianum Mart. ex Sendtn.",
        "coordinateUncertaintyInMeters": "",
        "basisOfRecord": "PRESERVED_SPECIMEN",
        "eventDate": "1976-07-08",
        "country": null,
        "datasetName": "",
        "publisher": "Instituto Agronômico (IAC)",
        "license": "CC_BY_4_0",
        "issues": [
          "CONTINENT_DERIVED_FROM_COORDINATES",
          "INSTITUTION_MATCH_FUZZY",
          "COLLECTION_MATCH_FUZZY"
        ],
        "fallback_media": {
          "url": "https://d2jcv3kl45hlgi.cloudfront.net/85e8ca9264aa3d145b2ebc3623536c70.jpg",
          "references": "http://specimens.kew.org/Herbarium/K001484830",
          "title": null,
          "creator": null,
          "publisher": null,
          "license": "http://creativecommons.org/licenses/by/4.0/",
          "rightsHolder": "Royal Botanic Gardens, Kew"
        }
      }
    },
    {
      "type": "Feature",
      "geometry": {
        "type": "Point",
        "coordinates": [
          -47.0608,
          -22.9056
        ]
      },
      "properties": {
        "gbifID": "1090531591",
        "species": "Cestrum mariquitense",
        "genus": "Cestrum",
        "family": "Solanaceae",
        "scientificName": "Cestrum sendtnerianum Mart. ex Sendtn.",
        "coordinateUncertaintyInMeters": "",
        "basisOfRecord": "PRESERVED_SPECIMEN",
        "eventDate": "1936-08-20",
        "country": null,
        "datasetName": "",
        "publisher": "Instituto Agronômico (IAC)",
        "license": "CC_BY_4_0",
        "issues": [
          "CONTINENT_DERIVED_FROM_COORDINATES",
          "INSTITUTION_MATCH_FUZZY",
          "COLLECTION_MATCH_FUZZY"
        ],
        "fallback_media": {
          "url": "https://d2jcv3kl45hlgi.cloudfront.net/85e8ca9264aa3d145b2ebc3623536c70.jpg",
          "references": "http://specimens.kew.org/Herbarium/K001484830",
          "title": null,
          "creator": null,
          "publisher": null,
          "license": "http://creativecommons.org/licenses/by/4.0/",
          "rightsHolder": "Royal Botanic Gardens, Kew"
        }
      }
    },
    {
      "type": "Feature",
      "geometry": {
        "type": "Point",
        "coordinates": [
          -48.901072,
          -21.220292
        ]
      },
      "properties": {
        "gbifID": "1090532978",
        "species": "Cestrum mariquitense",
        "genus": "Cestrum",
        "family": "Solanaceae",
        "scientificName": "Cestrum sendtnerianum Mart. ex Sendtn.",
        "coordinateUncertaintyInMeters": "",
        "basisOfRecord": "PRESERVED_SPECIMEN",
        "eventDate": "1937-10-11",
        "country": null,
        "datasetName": "",
        "publisher": "Instituto Agronômico (IAC)",
        "license": "CC_BY_4_0",
        "issues": [
          "CONTINENT_DERIVED_FROM_COORDINATES",
          "INSTITUTION_MATCH_FUZZY",
          "COLLECTION_MATCH_FUZZY"
        ],
        "fallback_media": {
          "url": "https://d2jcv3kl45hlgi.cloudfront.net/85e8ca9264aa3d145b2ebc3623536c70.jpg",
          "references": "http://specimens.kew.org/Herbarium/K001484830",
          "title": null,
          "creator": null,
          "publisher": null,
          "license": "http://creativecommons.org/licenses/by/4.0/",
          "rightsHolder": "Royal Botanic Gardens, Kew"
        }
      }
    },
    {
      "type": "Feature",
      "geometry": {
        "type": "Point",
        "coordinates": [
          -45.8869,
          -23.1794
        ]
      },
      "properties": {
        "gbifID": "1090574128",
        "species": "Cestrum mariquitense",
        "genus": "Cestrum",
        "family": "Solanaceae",
        "scientificName": "Cestrum sendtnerianum Mart. ex Sendtn.",
        "coordinateUncertaintyInMeters": "",
        "basisOfRecord": "PRESERVED_SPECIMEN",
        "eventDate": "2002-06-22",
        "country": null,
        "datasetName": "",
        "publisher": "Instituto Agronômico (IAC)",
        "license": "CC_BY_4_0",
        "issues": [
          "CONTINENT_DERIVED_FROM_COORDINATES",
          "INSTITUTION_MATCH_FUZZY",
          "COLLECTION_MATCH_FUZZY"
        ],
        "fallback_media": {
          "url": "https://d2jcv3kl45hlgi.cloudfront.net/85e8ca9264aa3d145b2ebc3623536c70.jpg",
          "references": "http://specimens.kew.org/Herbarium/K001484830",
          "title": null,
          "creator": null,
          "publisher": null,
          "license": "http://creativecommons.org/licenses/by/4.0/",
          "rightsHolder": "Royal Botanic Gardens, Kew"
        }
      }
    },
    {
      "type": "Feature",
      "geometry": {
        "type": "Point",
        "coordinates": [
          -48.35056,
          -23.423889
        ]
      },
      "properties": {
        "gbifID": "1090578432",
        "species": "Cestrum mariquitense",
        "genus": "Cestrum",
        "family": "Solanaceae",
        "scientificName": "Cestrum sendtnerianum Mart. ex Sendtn.",
        "coordinateUncertaintyInMeters": "",
        "basisOfRecord": "PRESERVED_SPECIMEN",
        "eventDate": "1987-06-10",
        "country": null,
        "datasetName": "",
        "publisher": "Instituto Agronômico (IAC)",
        "license": "CC_BY_4_0",
        "issues": [
          "CONTINENT_DERIVED_FROM_COORDINATES",
          "INSTITUTION_MATCH_FUZZY",
          "COLLECTION_MATCH_FUZZY"
        ],
        "fallback_media": {
          "url": "https://d2jcv3kl45hlgi.cloudfront.net/85e8ca9264aa3d145b2ebc3623536c70.jpg",
          "references": "http://specimens.kew.org/Herbarium/K001484830",
          "title": null,
          "creator": null,
          "publisher": null,
          "license": "http://creativecommons.org/licenses/by/4.0/",
          "rightsHolder": "Royal Botanic Gardens, Kew"
        }
      }
    },
    {
      "type": "Feature",
      "geometry": {
        "type": "Point",
        "coordinates": [
          -53.282333,
          -22.702603
        ]
      },
      "properties": {
        "gbifID": "5053875350",
        "species": "Cestrum mariquitense",
        "genus": "Cestrum",
        "family": "Solanaceae",
        "scientificName": "Cestrum sendtnerianum Mart. ex Sendtn.",
        "coordinateUncertaintyInMeters": "",
        "basisOfRecord": "PRESERVED_SPECIMEN",
        "eventDate": "1992-08-22",
        "country": null,
        "datasetName": "",
        "publisher": "Universidade Estadual de Maringá",
        "license": "CC_BY_4_0",
        "issues": [
          "CONTINENT_DERIVED_FROM_COORDINATES",
          "INSTITUTION_MATCH_NONE"
        ],
        "fallback_media": {
          "url": "https://d2jcv3kl45hlgi.cloudfront.net/85e8ca9264aa3d145b2ebc3623536c70.jpg",
          "references": "http://specimens.kew.org/Herbarium/K001484830",
          "title": null,
          "creator": null,
          "publisher": null,
          "license": "http://creativecommons.org/licenses/by/4.0/",
          "rightsHolder": "Royal Botanic Gardens, Kew"
        }
      }
    },
    {
      "type": "Feature",
      "geometry": {
        "type": "Point",
        "coordinates": [
          -53.220833,
          -22.756667
        ]
      },
      "properties": {
        "gbifID": "5053875778",
        "species": "Cestrum mariquitense",
        "genus": "Cestrum",
        "family": "Solanaceae",
        "scientificName": "Cestrum sendtnerianum Mart. ex Sendtn.",
        "coordinateUncertaintyInMeters": "",
        "basisOfRecord": "PRESERVED_SPECIMEN",
        "eventDate": "2002-03-03",
        "country": null,
        "datasetName": "",
        "publisher": "Universidade Estadual de Maringá",
        "license": "CC_BY_4_0",
        "issues": [
          "CONTINENT_DERIVED_FROM_COORDINATES",
          "INSTITUTION_MATCH_NONE"
        ],
        "fallback_media": {
          "url": "https://d2jcv3kl45hlgi.cloudfront.net/85e8ca9264aa3d145b2ebc3623536c70.jpg",
          "references": "http://specimens.kew.org/Herbarium/K001484830",
          "title": null,
          "creator": null,
          "publisher": null,
          "license": "http://creativecommons.org/licenses/by/4.0/",
          "rightsHolder": "Royal Botanic Gardens, Kew"
        }
      }
    },
    {
      "type": "Feature",
      "geometry": {
        "type": "Point",
        "coordinates": [
          -53.256944,
          -22.766667
        ]
      },
      "properties": {
        "gbifID": "5053875949",
        "species": "Cestrum mariquitense",
        "genus": "Cestrum",
        "family": "Solanaceae",
        "scientificName": "Cestrum sendtnerianum Mart. ex Sendtn.",
        "coordinateUncertaintyInMeters": "",
        "basisOfRecord": "PRESERVED_SPECIMEN",
        "eventDate": "2005-02-20",
        "country": null,
        "datasetName": "",
        "publisher": "Universidade Estadual de Maringá",
        "license": "CC_BY_4_0",
        "issues": [
          "CONTINENT_DERIVED_FROM_COORDINATES",
          "INSTITUTION_MATCH_NONE"
        ],
        "fallback_media": {
          "url": "https://d2jcv3kl45hlgi.cloudfront.net/85e8ca9264aa3d145b2ebc3623536c70.jpg",
          "references": "http://specimens.kew.org/Herbarium/K001484830",
          "title": null,
          "creator": null,
          "publisher": null,
          "license": "http://creativecommons.org/licenses/by/4.0/",
          "rightsHolder": "Royal Botanic Gardens, Kew"
        }
      }
    },
    {
      "type": "Feature",
      "geometry": {
        "type": "Point",
        "coordinates": [
          -53.266944,
          -22.768333
        ]
      },
      "properties": {
        "gbifID": "5053876025",
        "species": "Cestrum mariquitense",
        "genus": "Cestrum",
        "family": "Solanaceae",
        "scientificName": "Cestrum sendtnerianum Mart. ex Sendtn.",
        "coordinateUncertaintyInMeters": "",
        "basisOfRecord": "PRESERVED_SPECIMEN",
        "eventDate": "2005-08-21",
        "country": null,
        "datasetName": "",
        "publisher": "Universidade Estadual de Maringá",
        "license": "CC_BY_4_0",
        "issues": [
          "CONTINENT_DERIVED_FROM_COORDINATES",
          "INSTITUTION_MATCH_NONE"
        ],
        "fallback_media": {
          "url": "https://d2jcv3kl45hlgi.cloudfront.net/85e8ca9264aa3d145b2ebc3623536c70.jpg",
          "references": "http://specimens.kew.org/Herbarium/K001484830",
          "title": null,
          "creator": null,
          "publisher": null,
          "license": "http://creativecommons.org/licenses/by/4.0/",
          "rightsHolder": "Royal Botanic Gardens, Kew"
        }
      }
    },
    {
      "type": "Feature",
      "geometry": {
        "type": "Point",
        "coordinates": [
          -53.257778,
          -22.766111
        ]
      },
      "properties": {
        "gbifID": "5053875952",
        "species": "Cestrum mariquitense",
        "genus": "Cestrum",
        "family": "Solanaceae",
        "scientificName": "Cestrum sendtnerianum Mart. ex Sendtn.",
        "coordinateUncertaintyInMeters": "",
        "basisOfRecord": "PRESERVED_SPECIMEN",
        "eventDate": "2005",
        "country": null,
        "datasetName": "",
        "publisher": "Universidade Estadual de Maringá",
        "license": "CC_BY_4_0",
        "issues": [
          "CONTINENT_DERIVED_FROM_COORDINATES",
          "INSTITUTION_MATCH_NONE"
        ],
        "fallback_media": {
          "url": "https://d2jcv3kl45hlgi.cloudfront.net/85e8ca9264aa3d145b2ebc3623536c70.jpg",
          "references": "http://specimens.kew.org/Herbarium/K001484830",
          "title": null,
          "creator": null,
          "publisher": null,
          "license": "http://creativecommons.org/licenses/by/4.0/",
          "rightsHolder": "Royal Botanic Gardens, Kew"
        }
      }
    },
    {
      "type": "Feature",
      "geometry": {
        "type": "Point",
        "coordinates": [
          -53.223714,
          -22.753278
        ]
      },
      "properties": {
        "gbifID": "5053875779",
        "species": "Cestrum mariquitense",
        "genus": "Cestrum",
        "family": "Solanaceae",
        "scientificName": "Cestrum sendtnerianum Mart. ex Sendtn.",
        "coordinateUncertaintyInMeters": "",
        "basisOfRecord": "PRESERVED_SPECIMEN",
        "eventDate": "2000-09-28",
        "country": null,
        "datasetName": "",
        "publisher": "Universidade Estadual de Maringá",
        "license": "CC_BY_4_0",
        "issues": [
          "CONTINENT_DERIVED_FROM_COORDINATES",
          "INSTITUTION_MATCH_NONE"
        ],
        "fallback_media": {
          "url": "https://d2jcv3kl45hlgi.cloudfront.net/85e8ca9264aa3d145b2ebc3623536c70.jpg",
          "references": "http://specimens.kew.org/Herbarium/K001484830",
          "title": null,
          "creator": null,
          "publisher": null,
          "license": "http://creativecommons.org/licenses/by/4.0/",
          "rightsHolder": "Royal Botanic Gardens, Kew"
        }
      }
    },
    {
      "type": "Feature",
      "geometry": {
        "type": "Point",
        "coordinates": [
          -53.353056,
          -22.846361
        ]
      },
      "properties": {
        "gbifID": "5053876015",
        "species": "Cestrum mariquitense",
        "genus": "Cestrum",
        "family": "Solanaceae",
        "scientificName": "Cestrum sendtnerianum Mart. ex Sendtn.",
        "coordinateUncertaintyInMeters": "",
        "basisOfRecord": "PRESERVED_SPECIMEN",
        "eventDate": "2003-10-22",
        "country": null,
        "datasetName": "",
        "publisher": "Universidade Estadual de Maringá",
        "license": "CC_BY_4_0",
        "issues": [
          "CONTINENT_DERIVED_FROM_COORDINATES",
          "INSTITUTION_MATCH_NONE"
        ],
        "fallback_media": {
          "url": "https://d2jcv3kl45hlgi.cloudfront.net/85e8ca9264aa3d145b2ebc3623536c70.jpg",
          "references": "http://specimens.kew.org/Herbarium/K001484830",
          "title": null,
          "creator": null,
          "publisher": null,
          "license": "http://creativecommons.org/licenses/by/4.0/",
          "rightsHolder": "Royal Botanic Gardens, Kew"
        }
      }
    },
    {
      "type": "Feature",
      "geometry": {
        "type": "Point",
        "coordinates": [
          -53.2575,
          -22.768333
        ]
      },
      "properties": {
        "gbifID": "5053876017",
        "species": "Cestrum mariquitense",
        "genus": "Cestrum",
        "family": "Solanaceae",
        "scientificName": "Cestrum sendtnerianum Mart. ex Sendtn.",
        "coordinateUncertaintyInMeters": "",
        "basisOfRecord": "PRESERVED_SPECIMEN",
        "eventDate": "2005-02-21",
        "country": null,
        "datasetName": "",
        "publisher": "Universidade Estadual de Maringá",
        "license": "CC_BY_4_0",
        "issues": [
          "CONTINENT_DERIVED_FROM_COORDINATES",
          "INSTITUTION_MATCH_NONE"
        ],
        "fallback_media": {
          "url": "https://d2jcv3kl45hlgi.cloudfront.net/85e8ca9264aa3d145b2ebc3623536c70.jpg",
          "references": "http://specimens.kew.org/Herbarium/K001484830",
          "title": null,
          "creator": null,
          "publisher": null,
          "license": "http://creativecommons.org/licenses/by/4.0/",
          "rightsHolder": "Royal Botanic Gardens, Kew"
        }
      }
    },
    {
      "type": "Feature",
      "geometry": {
        "type": "Point",
        "coordinates": [
          -53.275,
          -22.770556
        ]
      },
      "properties": {
        "gbifID": "5053875951",
        "species": "Cestrum mariquitense",
        "genus": "Cestrum",
        "family": "Solanaceae",
        "scientificName": "Cestrum sendtnerianum Mart. ex Sendtn.",
        "coordinateUncertaintyInMeters": "",
        "basisOfRecord": "PRESERVED_SPECIMEN",
        "eventDate": "2005",
        "country": null,
        "datasetName": "",
        "publisher": "Universidade Estadual de Maringá",
        "license": "CC_BY_4_0",
        "issues": [
          "CONTINENT_DERIVED_FROM_COORDINATES",
          "INSTITUTION_MATCH_NONE"
        ],
        "fallback_media": {
          "url": "https://d2jcv3kl45hlgi.cloudfront.net/85e8ca9264aa3d145b2ebc3623536c70.jpg",
          "references": "http://specimens.kew.org/Herbarium/K001484830",
          "title": null,
          "creator": null,
          "publisher": null,
          "license": "http://creativecommons.org/licenses/by/4.0/",
          "rightsHolder": "Royal Botanic Gardens, Kew"
        }
      }
    },
    {
      "type": "Feature",
      "geometry": {
        "type": "Point",
        "coordinates": [
          -53.275,
          -22.772222
        ]
      },
      "properties": {
        "gbifID": "5053875953",
        "species": "Cestrum mariquitense",
        "genus": "Cestrum",
        "family": "Solanaceae",
        "scientificName": "Cestrum sendtnerianum Mart. ex Sendtn.",
        "coordinateUncertaintyInMeters": "",
        "basisOfRecord": "PRESERVED_SPECIMEN",
        "eventDate": "2005-02-21",
        "country": null,
        "datasetName": "",
        "publisher": "Universidade Estadual de Maringá",
        "license": "CC_BY_4_0",
        "issues": [
          "CONTINENT_DERIVED_FROM_COORDINATES",
          "INSTITUTION_MATCH_NONE"
        ],
        "fallback_media": {
          "url": "https://d2jcv3kl45hlgi.cloudfront.net/85e8ca9264aa3d145b2ebc3623536c70.jpg",
          "references": "http://specimens.kew.org/Herbarium/K001484830",
          "title": null,
          "creator": null,
          "publisher": null,
          "license": "http://creativecommons.org/licenses/by/4.0/",
          "rightsHolder": "Royal Botanic Gardens, Kew"
        }
      }
    },
    {
      "type": "Feature",
      "geometry": {
        "type": "Point",
        "coordinates": [
          -53.266944,
          -22.771944
        ]
      },
      "properties": {
        "gbifID": "5053879012",
        "species": "Cestrum mariquitense",
        "genus": "Cestrum",
        "family": "Solanaceae",
        "scientificName": "Cestrum sendtnerianum Mart. ex Sendtn.",
        "coordinateUncertaintyInMeters": "",
        "basisOfRecord": "PRESERVED_SPECIMEN",
        "eventDate": "2006-02-15",
        "country": null,
        "datasetName": "",
        "publisher": "Universidade Estadual de Maringá",
        "license": "CC_BY_4_0",
        "issues": [
          "CONTINENT_DERIVED_FROM_COORDINATES",
          "INSTITUTION_MATCH_NONE"
        ],
        "fallback_media": {
          "url": "https://d2jcv3kl45hlgi.cloudfront.net/85e8ca9264aa3d145b2ebc3623536c70.jpg",
          "references": "http://specimens.kew.org/Herbarium/K001484830",
          "title": null,
          "creator": null,
          "publisher": null,
          "license": "http://creativecommons.org/licenses/by/4.0/",
          "rightsHolder": "Royal Botanic Gardens, Kew"
        }
      }
    },
    {
      "type": "Feature",
      "geometry": {
        "type": "Point",
        "coordinates": [
          -79.269151,
          -3.707268
        ]
      },
      "properties": {
        "gbifID": "4067888775",
        "species": "Cestrum mariquitense",
        "genus": "Cestrum",
        "family": "Solanaceae",
        "scientificName": "Cestrum sendtnerianum Mart. ex Sendtn.",
        "coordinateUncertaintyInMeters": "",
        "basisOfRecord": "PRESERVED_SPECIMEN",
        "eventDate": "2007-08-09",
        "country": null,
        "datasetName": "Vascular",
        "publisher": "Herbario HUTPL de la Universidad Técnica Particular de Loja",
        "license": "CC_BY_NC_4_0",
        "issues": [
          "GEODETIC_DATUM_ASSUMED_WGS84",
          "CONTINENT_DERIVED_FROM_COORDINATES",
          "INSTITUTION_MATCH_NONE",
          "TAXON_ID_NOT_FOUND"
        ],
        "fallback_media": {
          "url": "https://d2jcv3kl45hlgi.cloudfront.net/85e8ca9264aa3d145b2ebc3623536c70.jpg",
          "references": "http://specimens.kew.org/Herbarium/K001484830",
          "title": null,
          "creator": null,
          "publisher": null,
          "license": "http://creativecommons.org/licenses/by/4.0/",
          "rightsHolder": "Royal Botanic Gardens, Kew"
        }
      }
    },
    {
      "type": "Feature",
      "geometry": {
        "type": "Point",
        "coordinates": [
          -80.098314,
          -4.125253
        ]
      },
      "properties": {
        "gbifID": "4067898737",
        "species": "Cestrum mariquitense",
        "genus": "Cestrum",
        "family": "Solanaceae",
        "scientificName": "Cestrum sendtnerianum Mart. ex Sendtn.",
        "coordinateUncertaintyInMeters": "",
        "basisOfRecord": "PRESERVED_SPECIMEN",
        "eventDate": "2010-10-14",
        "country": null,
        "datasetName": "Vascular",
        "publisher": "Herbario HUTPL de la Universidad Técnica Particular de Loja",
        "license": "CC_BY_NC_4_0",
        "issues": [
          "GEODETIC_DATUM_ASSUMED_WGS84",
          "CONTINENT_DERIVED_FROM_COORDINATES",
          "INSTITUTION_MATCH_NONE",
          "TAXON_ID_NOT_FOUND"
        ],
        "fallback_media": {
          "url": "https://d2jcv3kl45hlgi.cloudfront.net/85e8ca9264aa3d145b2ebc3623536c70.jpg",
          "references": "http://specimens.kew.org/Herbarium/K001484830",
          "title": null,
          "creator": null,
          "publisher": null,
          "license": "http://creativecommons.org/licenses/by/4.0/",
          "rightsHolder": "Royal Botanic Gardens, Kew"
        }
      }
    },
    {
      "type": "Feature",
      "geometry": {
        "type": "Point",
        "coordinates": [
          -79.216667,
          -4.25
        ]
      },
      "properties": {
        "gbifID": "4067899023",
        "species": "Cestrum mariquitense",
        "genus": "Cestrum",
        "family": "Solanaceae",
        "scientificName": "Cestrum sendtnerianum Mart. ex Sendtn.",
        "coordinateUncertaintyInMeters": "",
        "basisOfRecord": "PRESERVED_SPECIMEN",
        "eventDate": "2004-02-12",
        "country": null,
        "datasetName": "Vascular",
        "publisher": "Herbario HUTPL de la Universidad Técnica Particular de Loja",
        "license": "CC_BY_NC_4_0",
        "issues": [
          "GEODETIC_DATUM_ASSUMED_WGS84",
          "CONTINENT_DERIVED_FROM_COORDINATES",
          "INSTITUTION_MATCH_NONE",
          "TAXON_ID_NOT_FOUND"
        ],
        "fallback_media": {
          "url": "https://d2jcv3kl45hlgi.cloudfront.net/85e8ca9264aa3d145b2ebc3623536c70.jpg",
          "references": "http://specimens.kew.org/Herbarium/K001484830",
          "title": null,
          "creator": null,
          "publisher": null,
          "license": "http://creativecommons.org/licenses/by/4.0/",
          "rightsHolder": "Royal Botanic Gardens, Kew"
        }
      }
    },
    {
      "type": "Feature",
      "geometry": {
        "type": "Point",
        "coordinates": [
          -79.622065,
          -4.076833
        ]
      },
      "properties": {
        "gbifID": "4067893625",
        "species": "Cestrum mariquitense",
        "genus": "Cestrum",
        "family": "Solanaceae",
        "scientificName": "Cestrum sendtnerianum Mart. ex Sendtn.",
        "coordinateUncertaintyInMeters": "",
        "basisOfRecord": "PRESERVED_SPECIMEN",
        "eventDate": "2011-10-11",
        "country": null,
        "datasetName": "Vascular",
        "publisher": "Herbario HUTPL de la Universidad Técnica Particular de Loja",
        "license": "CC_BY_NC_4_0",
        "issues": [
          "GEODETIC_DATUM_ASSUMED_WGS84",
          "CONTINENT_DERIVED_FROM_COORDINATES",
          "INSTITUTION_MATCH_NONE",
          "TAXON_ID_NOT_FOUND"
        ],
        "fallback_media": {
          "url": "https://d2jcv3kl45hlgi.cloudfront.net/85e8ca9264aa3d145b2ebc3623536c70.jpg",
          "references": "http://specimens.kew.org/Herbarium/K001484830",
          "title": null,
          "creator": null,
          "publisher": null,
          "license": "http://creativecommons.org/licenses/by/4.0/",
          "rightsHolder": "Royal Botanic Gardens, Kew"
        }
      }
    },
    {
      "type": "Feature",
      "geometry": {
        "type": "Point",
        "coordinates": [
          -79.198406,
          -3.990139
        ]
      },
      "properties": {
        "gbifID": "4067892685",
        "species": "Cestrum mariquitense",
        "genus": "Cestrum",
        "family": "Solanaceae",
        "scientificName": "Cestrum sendtnerianum Mart. ex Sendtn.",
        "coordinateUncertaintyInMeters": "",
        "basisOfRecord": "PRESERVED_SPECIMEN",
        "eventDate": "2008-01-12",
        "country": null,
        "datasetName": "Vascular",
        "publisher": "Herbario HUTPL de la Universidad Técnica Particular de Loja",
        "license": "CC_BY_NC_4_0",
        "issues": [
          "GEODETIC_DATUM_ASSUMED_WGS84",
          "CONTINENT_DERIVED_FROM_COORDINATES",
          "INSTITUTION_MATCH_NONE",
          "TAXON_ID_NOT_FOUND"
        ],
        "fallback_media": {
          "url": "https://d2jcv3kl45hlgi.cloudfront.net/85e8ca9264aa3d145b2ebc3623536c70.jpg",
          "references": "http://specimens.kew.org/Herbarium/K001484830",
          "title": null,
          "creator": null,
          "publisher": null,
          "license": "http://creativecommons.org/licenses/by/4.0/",
          "rightsHolder": "Royal Botanic Gardens, Kew"
        }
      }
    },
    {
      "type": "Feature",
      "geometry": {
        "type": "Point",
        "coordinates": [
          -79.426813,
          -4.123745
        ]
      },
      "properties": {
        "gbifID": "4067893676",
        "species": "Cestrum mariquitense",
        "genus": "Cestrum",
        "family": "Solanaceae",
        "scientificName": "Cestrum sendtnerianum Mart. ex Sendtn.",
        "coordinateUncertaintyInMeters": "",
        "basisOfRecord": "PRESERVED_SPECIMEN",
        "eventDate": "2011-09-28",
        "country": null,
        "datasetName": "Vascular",
        "publisher": "Herbario HUTPL de la Universidad Técnica Particular de Loja",
        "license": "CC_BY_NC_4_0",
        "issues": [
          "GEODETIC_DATUM_ASSUMED_WGS84",
          "CONTINENT_DERIVED_FROM_COORDINATES",
          "INSTITUTION_MATCH_NONE",
          "TAXON_ID_NOT_FOUND"
        ],
        "fallback_media": {
          "url": "https://d2jcv3kl45hlgi.cloudfront.net/85e8ca9264aa3d145b2ebc3623536c70.jpg",
          "references": "http://specimens.kew.org/Herbarium/K001484830",
          "title": null,
          "creator": null,
          "publisher": null,
          "license": "http://creativecommons.org/licenses/by/4.0/",
          "rightsHolder": "Royal Botanic Gardens, Kew"
        }
      }
    },
    {
      "type": "Feature",
      "geometry": {
        "type": "Point",
        "coordinates": [
          -79.119472,
          -3.847194
        ]
      },
      "properties": {
        "gbifID": "4067892725",
        "species": "Cestrum mariquitense",
        "genus": "Cestrum",
        "family": "Solanaceae",
        "scientificName": "Cestrum sendtnerianum Mart. ex Sendtn.",
        "coordinateUncertaintyInMeters": "",
        "basisOfRecord": "PRESERVED_SPECIMEN",
        "eventDate": "2015-07-28",
        "country": null,
        "datasetName": "Vascular",
        "publisher": "Herbario HUTPL de la Universidad Técnica Particular de Loja",
        "license": "CC_BY_NC_4_0",
        "issues": [
          "GEODETIC_DATUM_ASSUMED_WGS84",
          "CONTINENT_DERIVED_FROM_COORDINATES",
          "INSTITUTION_MATCH_NONE",
          "TAXON_ID_NOT_FOUND"
        ],
        "fallback_media": {
          "url": "https://d2jcv3kl45hlgi.cloudfront.net/85e8ca9264aa3d145b2ebc3623536c70.jpg",
          "references": "http://specimens.kew.org/Herbarium/K001484830",
          "title": null,
          "creator": null,
          "publisher": null,
          "license": "http://creativecommons.org/licenses/by/4.0/",
          "rightsHolder": "Royal Botanic Gardens, Kew"
        }
      }
    },
    {
      "type": "Feature",
      "geometry": {
        "type": "Point",
        "coordinates": [
          -73.66667,
          -3.0
        ]
      },
      "properties": {
        "gbifID": "1230516619",
        "species": "Cestrum mariquitense",
        "genus": "Cestrum",
        "family": "Solanaceae",
        "scientificName": "Cestrum sendtnerianum Mart. ex Sendtn.",
        "coordinateUncertaintyInMeters": "",
        "basisOfRecord": "PRESERVED_SPECIMEN",
        "eventDate": "1831",
        "country": null,
        "datasetName": "",
        "publisher": "Natural History Museum, Vienna",
        "license": "CC_BY_4_0",
        "issues": [
          "CONTINENT_DERIVED_FROM_COORDINATES",
          "INSTITUTION_MATCH_FUZZY",
          "COLLECTION_MATCH_FUZZY"
        ],
        "media": [
          {
            "url": "https://object.jacq.org/europeana/W/96204.jpg",
            "references": "https://api.jacq.org/v1/images/show/96204?withredirect=1",
            "title": null,
            "creator": null,
            "publisher": null,
            "license": "http://creativecommons.org/licenses/by/4.0/",
            "rightsHolder": null
          }
        ]
      }
    },
    {
      "type": "Feature",
      "geometry": {
        "type": "Point",
        "coordinates": [
          -57.4833,
          -18.1
        ]
      },
      "properties": {
        "gbifID": "2270552200",
        "species": "Cestrum mariquitense",
        "genus": "Cestrum",
        "family": "Solanaceae",
        "scientificName": "Cestrum sendtnerianum Mart. ex Sendtn.",
        "coordinateUncertaintyInMeters": "100000.0",
        "basisOfRecord": "PRESERVED_SPECIMEN",
        "eventDate": "1982-12-12",
        "country": null,
        "datasetName": "",
        "publisher": "Arizona State University Biocollections",
        "license": "CC_BY_4_0",
        "issues": [
          "GEODETIC_DATUM_ASSUMED_WGS84",
          "CONTINENT_DERIVED_FROM_COORDINATES",
          "INSTITUTION_MATCH_FUZZY",
          "COLLECTION_MATCH_FUZZY",
          "TAXON_ID_NOT_FOUND"
        ],
        "media": [
          {
            "url": "https://media01.symbiota.org/media/h_seinet/seinet/ASU/ASU0058/ASU0058799_lg.jpg",
            "references": null,
            "title": null,
            "creator": null,
            "publisher": null,
            "license": null,
            "rightsHolder": "Arizona State University Vascular Plant Herbarium"
          },
          {
            "url": "https://media01.symbiota.org/media/h_seinet/seinet/ASU/ASU0058/ASU0058799a_lg.jpg",
            "references": null,
            "title": null,
            "creator": null,
            "publisher": null,
            "license": null,
            "rightsHolder": "Arizona State University Vascular Plant Herbarium"
          }
        ]
      }
    },
    {
      "type": "Feature",
      "geometry": {
        "type": "Point",
        "coordinates": [
          -55.5517,
          -27.2663
        ]
      },
      "properties": {
        "gbifID": "2270553573",
        "species": "Cestrum mariquitense",
        "genus": "Cestrum",
        "family": "Solanaceae",
        "scientificName": "Cestrum sendtnerianum Mart. ex Sendtn.",
        "coordinateUncertaintyInMeters": "",
        "basisOfRecord": "PRESERVED_SPECIMEN",
        "eventDate": "2007-01-15",
        "country": null,
        "datasetName": "",
        "publisher": "Arizona State University Biocollections",
        "license": "CC_BY_4_0",
        "issues": [
          "GEODETIC_DATUM_ASSUMED_WGS84",
          "CONTINENT_DERIVED_FROM_COORDINATES",
          "INSTITUTION_MATCH_FUZZY",
          "COLLECTION_MATCH_FUZZY",
          "TAXON_ID_NOT_FOUND"
        ],
        "media": [
          {
            "url": "https://media01.symbiota.org/media/h_seinet/seinet/ASU/ASU0049/ASU0049096_lg.jpg",
            "references": null,
            "title": null,
            "creator": null,
            "publisher": null,
            "license": null,
            "rightsHolder": "Arizona State University Vascular Plant Herbarium"
          },
          {
            "url": "https://media01.symbiota.org/media/h_seinet/seinet/ASU/ASU0049/ASU0049096a_lg.jpg",
            "references": null,
            "title": null,
            "creator": null,
            "publisher": null,
            "license": null,
            "rightsHolder": "Arizona State University Vascular Plant Herbarium"
          }
        ]
      }
    },
    {
      "type": "Feature",
      "geometry": {
        "type": "Point",
        "coordinates": [
          -57.588829,
          -27.993261
        ]
      },
      "properties": {
        "gbifID": "2270553818",
        "species": "Cestrum mariquitense",
        "genus": "Cestrum",
        "family": "Solanaceae",
        "scientificName": "Cestrum sendtnerianum Mart. ex Sendtn.",
        "coordinateUncertaintyInMeters": "12000.0",
        "basisOfRecord": "PRESERVED_SPECIMEN",
        "eventDate": "1990-11-27",
        "country": null,
        "datasetName": "",
        "publisher": "Arizona State University Biocollections",
        "license": "CC_BY_4_0",
        "issues": [
          "GEODETIC_DATUM_ASSUMED_WGS84",
          "CONTINENT_DERIVED_FROM_COORDINATES",
          "INSTITUTION_MATCH_FUZZY",
          "COLLECTION_MATCH_FUZZY",
          "TAXON_ID_NOT_FOUND"
        ],
        "media": [
          {
            "url": "https://media01.symbiota.org/media/h_seinet/seinet/ASU/ASU0049/ASU0049097_lg.jpg",
            "references": null,
            "title": null,
            "creator": null,
            "publisher": null,
            "license": null,
            "rightsHolder": "Arizona State University Vascular Plant Herbarium"
          }
        ]
      }
    },
    {
      "type": "Feature",
      "geometry": {
        "type": "Point",
        "coordinates": [
          -63.183333,
          -17.875
        ]
      },
      "properties": {
        "gbifID": "6115626343",
        "species": "Cestrum mariquitense",
        "genus": "Cestrum",
        "family": "Solanaceae",
        "scientificName": "Cestrum sendtnerianum Mart. ex Sendtn.",
        "coordinateUncertaintyInMeters": "",
        "basisOfRecord": "PRESERVED_SPECIMEN",
        "eventDate": "1988-02-15T00:00",
        "country": null,
        "datasetName": "",
        "publisher": "Royal Botanic Gardens, Kew",
        "license": "CC_BY_4_0",
        "issues": [
          "COORDINATE_ROUNDED",
          "GEODETIC_DATUM_ASSUMED_WGS84",
          "CONTINENT_DERIVED_FROM_COORDINATES",
          "INSTITUTION_MATCH_FUZZY",
          "INSTITUTION_COLLECTION_MISMATCH"
        ],
        "media": [
          {
            "url": "https://d2jcv3kl45hlgi.cloudfront.net/7beca9316e2a6d03c055b083fc8ddec5.jpg",
            "references": "http://specimens.kew.org/Herbarium/K001484831",
            "title": null,
            "creator": null,
            "publisher": null,
            "license": "http://creativecommons.org/licenses/by/4.0/",
            "rightsHolder": "Royal Botanic Gardens, Kew"
          }
        ]
      }
    },
    {
      "type": "Feature",
      "geometry": {
        "type": "Point",
        "coordinates": [
          -73.75,
          -4.916667
        ]
      },
      "properties": {
        "gbifID": "6115631958",
        "species": "Cestrum mariquitense",
        "genus": "Cestrum",
        "family": "Solanaceae",
        "scientificName": "Cestrum sendtnerianum Mart. ex Sendtn.",
        "coordinateUncertaintyInMeters": "",
        "basisOfRecord": "PRESERVED_SPECIMEN",
        "eventDate": "1986-06-01T00:00",
        "country": null,
        "datasetName": "",
        "publisher": "Royal Botanic Gardens, Kew",
        "license": "CC_BY_4_0",
        "issues": [
          "COORDINATE_ROUNDED",
          "GEODETIC_DATUM_ASSUMED_WGS84",
          "CONTINENT_DERIVED_FROM_COORDINATES",
          "INSTITUTION_MATCH_FUZZY",
          "INSTITUTION_COLLECTION_MISMATCH"
        ],
        "media": [
          {
            "url": "https://d2jcv3kl45hlgi.cloudfront.net/83ad5d3d2040b3eab459828a3cba1125.jpg",
            "references": "http://specimens.kew.org/Herbarium/K001484823",
            "title": null,
            "creator": null,
            "publisher": null,
            "license": "http://creativecommons.org/licenses/by/4.0/",
            "rightsHolder": "Royal Botanic Gardens, Kew"
          }
        ]
      }
    },
    {
      "type": "Feature",
      "geometry": {
        "type": "Point",
        "coordinates": [
          -42.071944,
          -22.949166
        ]
      },
      "properties": {
        "gbifID": "5082964033",
        "species": "Cestrum mariquitense",
        "genus": "Cestrum",
        "family": "Solanaceae",
        "scientificName": "Cestrum sendtnerianum Mart. ex Sendtn.",
        "coordinateUncertaintyInMeters": "",
        "basisOfRecord": "PRESERVED_SPECIMEN",
        "eventDate": "2001-01-15T00:00",
        "country": null,
        "datasetName": "",
        "publisher": "Royal Botanic Gardens, Kew",
        "license": "CC_BY_4_0",
        "issues": [
          "COORDINATE_ROUNDED",
          "GEODETIC_DATUM_ASSUMED_WGS84",
          "CONTINENT_DERIVED_FROM_COORDINATES",
          "INSTITUTION_MATCH_FUZZY",
          "INSTITUTION_COLLECTION_MISMATCH"
        ],
        "media": [
          {
            "url": "https://d2jcv3kl45hlgi.cloudfront.net/a8a7fc9696dc6262c2e121344982b67b.jpg",
            "references": "http://specimens.kew.org/Herbarium/K001822105",
            "title": null,
            "creator": null,
            "publisher": null,
            "license": "http://creativecommons.org/licenses/by/4.0/",
            "rightsHolder": "Royal Botanic Gardens, Kew"
          }
        ]
      }
    },
    {
      "type": "Feature",
      "geometry": {
        "type": "Point",
        "coordinates": [
          -66.616667,
          -14.5
        ]
      },
      "properties": {
        "gbifID": "6115618890",
        "species": "Cestrum mariquitense",
        "genus": "Cestrum",
        "family": "Solanaceae",
        "scientificName": "Cestrum sendtnerianum Mart. ex Sendtn.",
        "coordinateUncertaintyInMeters": "",
        "basisOfRecord": "PRESERVED_SPECIMEN",
        "eventDate": "1995-04-21T00:00",
        "country": null,
        "datasetName": "",
        "publisher": "Royal Botanic Gardens, Kew",
        "license": "CC_BY_4_0",
        "issues": [
          "COORDINATE_ROUNDED",
          "GEODETIC_DATUM_ASSUMED_WGS84",
          "CONTINENT_DERIVED_FROM_COORDINATES",
          "INSTITUTION_MATCH_FUZZY",
          "INSTITUTION_COLLECTION_MISMATCH"
        ],
        "media": [
          {
            "url": "https://d2jcv3kl45hlgi.cloudfront.net/8e49a29f847a2f0edef882770bf147a3.jpg",
            "references": "http://specimens.kew.org/Herbarium/K001484871",
            "title": null,
            "creator": null,
            "publisher": null,
            "license": "http://creativecommons.org/licenses/by/4.0/",
            "rightsHolder": "Royal Botanic Gardens, Kew"
          }
        ]
      }
    },
    {
      "type": "Feature",
      "geometry": {
        "type": "Point",
        "coordinates": [
          -63.066667,
          -17.766667
        ]
      },
      "properties": {
        "gbifID": "6115626835",
        "species": "Cestrum mariquitense",
        "genus": "Cestrum",
        "family": "Solanaceae",
        "scientificName": "Cestrum sendtnerianum Mart. ex Sendtn.",
        "coordinateUncertaintyInMeters": "",
        "basisOfRecord": "PRESERVED_SPECIMEN",
        "eventDate": "1988-02-18T00:00",
        "country": null,
        "datasetName": "",
        "publisher": "Royal Botanic Gardens, Kew",
        "license": "CC_BY_4_0",
        "issues": [
          "COORDINATE_ROUNDED",
          "GEODETIC_DATUM_ASSUMED_WGS84",
          "CONTINENT_DERIVED_FROM_COORDINATES",
          "INSTITUTION_MATCH_FUZZY",
          "INSTITUTION_COLLECTION_MISMATCH"
        ],
        "media": [
          {
            "url": "https://d2jcv3kl45hlgi.cloudfront.net/85e8ca9264aa3d145b2ebc3623536c70.jpg",
            "references": "http://specimens.kew.org/Herbarium/K001484830",
            "title": null,
            "creator": null,
            "publisher": null,
            "license": "http://creativecommons.org/licenses/by/4.0/",
            "rightsHolder": "Royal Botanic Gardens, Kew"
          }
        ]
      }
    },
    {
      "type": "Feature",
      "geometry": {
        "type": "Point",
        "coordinates": [
          -76.5,
          -8.183333
        ]
      },
      "properties": {
        "gbifID": "6115622272",
        "species": "Cestrum mariquitense",
        "genus": "Cestrum",
        "family": "Solanaceae",
        "scientificName": "Cestrum sendtnerianum Mart. ex Sendtn.",
        "coordinateUncertaintyInMeters": "",
        "basisOfRecord": "PRESERVED_SPECIMEN",
        "eventDate": "1981-12-24T00:00",
        "country": null,
        "datasetName": "",
        "publisher": "Royal Botanic Gardens, Kew",
        "license": "CC_BY_4_0",
        "issues": [
          "COORDINATE_ROUNDED",
          "GEODETIC_DATUM_ASSUMED_WGS84",
          "CONTINENT_DERIVED_FROM_COORDINATES",
          "INSTITUTION_MATCH_FUZZY",
          "INSTITUTION_COLLECTION_MISMATCH"
        ],
        "media": [
          {
            "url": "https://d2jcv3kl45hlgi.cloudfront.net/3dbe63349891a2177b8a78cbe52d958d.jpg",
            "references": "http://specimens.kew.org/Herbarium/K001484825",
            "title": null,
            "creator": null,
            "publisher": null,
            "license": "http://creativecommons.org/licenses/by/4.0/",
            "rightsHolder": "Royal Botanic Gardens, Kew"
          }
        ]
      }
    },
    {
      "type": "Feature",
      "geometry": {
        "type": "Point",
        "coordinates": [
          -63.35,
          -17.933334
        ]
      },
      "properties": {
        "gbifID": "6115626502",
        "species": "Cestrum mariquitense",
        "genus": "Cestrum",
        "family": "Solanaceae",
        "scientificName": "Cestrum sendtnerianum Mart. ex Sendtn.",
        "coordinateUncertaintyInMeters": "",
        "basisOfRecord": "PRESERVED_SPECIMEN",
        "eventDate": "1987-02-21T00:00",
        "country": null,
        "datasetName": "",
        "publisher": "Royal Botanic Gardens, Kew",
        "license": "CC_BY_4_0",
        "issues": [
          "COORDINATE_ROUNDED",
          "GEODETIC_DATUM_ASSUMED_WGS84",
          "CONTINENT_DERIVED_FROM_COORDINATES",
          "INSTITUTION_MATCH_FUZZY",
          "INSTITUTION_COLLECTION_MISMATCH"
        ],
        "media": [
          {
            "url": "https://d2jcv3kl45hlgi.cloudfront.net/31319fa976f6f7e880d26dc5ed8da60c.jpg",
            "references": "http://specimens.kew.org/Herbarium/K001484832",
            "title": null,
            "creator": null,
            "publisher": null,
            "license": "http://creativecommons.org/licenses/by/4.0/",
            "rightsHolder": "Royal Botanic Gardens, Kew"
          }
        ]
      }
    },
    {
      "type": "Feature",
      "geometry": {
        "type": "Point",
        "coordinates": [
          -73.333333,
          -4.166667
        ]
      },
      "properties": {
        "gbifID": "6115632593",
        "species": "Cestrum mariquitense",
        "genus": "Cestrum",
        "family": "Solanaceae",
        "scientificName": "Cestrum sendtnerianum Mart. ex Sendtn.",
        "coordinateUncertaintyInMeters": "",
        "basisOfRecord": "PRESERVED_SPECIMEN",
        "eventDate": "1982-12-12T00:00",
        "country": null,
        "datasetName": "",
        "publisher": "Royal Botanic Gardens, Kew",
        "license": "CC_BY_4_0",
        "issues": [
          "COORDINATE_ROUNDED",
          "GEODETIC_DATUM_ASSUMED_WGS84",
          "CONTINENT_DERIVED_FROM_COORDINATES",
          "INSTITUTION_MATCH_FUZZY",
          "INSTITUTION_COLLECTION_MISMATCH"
        ],
        "media": [
          {
            "url": "https://d2jcv3kl45hlgi.cloudfront.net/a94ebd5d0b51009b3f03150a211b1069.jpg",
            "references": "http://specimens.kew.org/Herbarium/K001484835",
            "title": null,
            "creator": null,
            "publisher": null,
            "license": "http://creativecommons.org/licenses/by/4.0/",
            "rightsHolder": "Royal Botanic Gardens, Kew"
          }
        ]
      }
    }
  ]
}
