{
  "type": "FeatureCollection",
  "metadata": {
    "host_taxon": {
      "canonical_name": "Brunfelsia amazonica",
      "rank": "species",
      "family": "Solanaceae",
      "genus": "Brunfelsia",
      "species": "Brunfelsia amazonica",
      "slug": "species_brunfelsia_amazonica",
      "resolvable_to_gbif": true,
      "use_for_default_download": true,
      "association_count": 1,
      "butterfly_taxa": [
        "Methona confusa"
      ],
      "confidence_counts": {
        "medium": 1
      },
      "occurrence_file": "occurrences/species_brunfelsia_amazonica.geojson",
      "gbif_resolution": {
        "query": "Brunfelsia amazonica",
        "rank": "species",
        "status": "resolved",
        "gbif_taxon_key": 3800222,
        "accepted_usage_key": null,
        "scientific_name": "Brunfelsia amazonica C.V.Morton",
        "canonical_name": "Brunfelsia amazonica",
        "gbif_rank": "SPECIES",
        "taxonomic_status": "ACCEPTED",
        "match_type": "EXACT",
        "confidence": 100,
        "kingdom": "Plantae",
        "family": "Solanaceae",
        "genus": "Brunfelsia",
        "resolved_at": "2026-05-21T03:57:00+00:00"
      },
      "gbif_taxon_key": 3800222,
      "gbif_status": "resolved",
      "occurrence_count": 0,
      "occurrence_mode": "not_generated",
      "occurrence_cap": null
    },
    "gbif_resolution": {
      "query": "Brunfelsia amazonica",
      "rank": "species",
      "status": "resolved",
      "gbif_taxon_key": 3800222,
      "accepted_usage_key": null,
      "scientific_name": "Brunfelsia amazonica C.V.Morton",
      "canonical_name": "Brunfelsia amazonica",
      "gbif_rank": "SPECIES",
      "taxonomic_status": "ACCEPTED",
      "match_type": "EXACT",
      "confidence": 100,
      "kingdom": "Plantae",
      "family": "Solanaceae",
      "genus": "Brunfelsia",
      "resolved_at": "2026-05-21T03:57:00+00:00"
    },
    "occurrence_query": {
      "method": "gbif_download_api",
      "download_key": "0004690-260519110011954",
      "download_doi": "10.15468/dl.s2gcc3",
      "download_doi_url": "https://doi.org/10.15468/dl.s2gcc3",
      "limit": null,
      "dedupe": "Exact duplicate coordinates removed per taxon after DWCA download.",
      "filters": "GBIF Download API DWCA with TAXON_KEY, HAS_COORDINATE=true, HAS_GEOSPATIAL_ISSUE=false, OCCURRENCE_STATUS=PRESENT; app study extent and coordinate uncertainty <=100km applied locally.",
      "returned_unique_coordinate_records": 25
    },
    "scientific_caveat": "GBIF plant occurrences are sampling-biased context records and do not prove local host use or ecological availability for the butterfly.",
    "generated_at": "2026-05-21T15:57:18+00:00"
  },
  "features": [
    {
      "type": "Feature",
      "geometry": {
        "type": "Point",
        "coordinates": [
          -62.0,
          -8.03333
        ]
      },
      "properties": {
        "gbifID": "1260285043",
        "species": "Brunfelsia amazonica",
        "genus": "Brunfelsia",
        "family": "Solanaceae",
        "scientificName": "Brunfelsia amazonica C.V.Morton",
        "coordinateUncertaintyInMeters": "",
        "basisOfRecord": "PRESERVED_SPECIMEN",
        "eventDate": "1985-04-16",
        "country": null,
        "datasetName": "Tropicos",
        "publisher": "Missouri Botanical Garden",
        "license": "CC_BY_4_0",
        "issues": [
          "GEODETIC_DATUM_ASSUMED_WGS84",
          "INSTITUTION_MATCH_FUZZY",
          "COLLECTION_MATCH_NONE",
          "TAXON_ID_NOT_FOUND"
        ],
        "media": [
          {
            "url": "https://images.mobot.org/tropicosimages3/detailimages/TropicosImageVol3/100429000/233ED1ED-A203-431A-9354-94B13FCA8BD7.jpg",
            "references": "https://www.tropicos.org/ImageFullView.aspx?imageid=100429732",
            "title": "Cid Ferreira - 5608 - Brazil",
            "creator": "MBG",
            "publisher": null,
            "license": "http://creativecommons.org/licenses/by-nc-sa/3.0/",
            "rightsHolder": "MBG"
          }
        ]
      }
    },
    {
      "type": "Feature",
      "geometry": {
        "type": "Point",
        "coordinates": [
          -65.15,
          -10.93333
        ]
      },
      "properties": {
        "gbifID": "1260285345",
        "species": "Brunfelsia amazonica",
        "genus": "Brunfelsia",
        "family": "Solanaceae",
        "scientificName": "Brunfelsia amazonica C.V.Morton",
        "coordinateUncertaintyInMeters": "",
        "basisOfRecord": "PRESERVED_SPECIMEN",
        "eventDate": "1987-04-13",
        "country": null,
        "datasetName": "Tropicos",
        "publisher": "Missouri Botanical Garden",
        "license": "CC_BY_4_0",
        "issues": [
          "GEODETIC_DATUM_ASSUMED_WGS84",
          "INSTITUTION_MATCH_FUZZY",
          "COLLECTION_MATCH_NONE",
          "TAXON_ID_NOT_FOUND"
        ],
        "media": [
          {
            "url": "https://images.mobot.org/tropicosimages3/detailimages/TropicosImageVol3/100429000/20BCCD13-B9BD-450E-A8F6-A3EA131EB095.jpg",
            "references": "https://www.tropicos.org/ImageFullView.aspx?imageid=100429417",
            "title": "Nee - 34820 - Brazil",
            "creator": "MBG",
            "publisher": null,
            "license": "http://creativecommons.org/licenses/by-nc-sa/3.0/",
            "rightsHolder": "MBG"
          }
        ]
      }
    },
    {
      "type": "Feature",
      "geometry": {
        "type": "Point",
        "coordinates": [
          -65.15,
          -10.93
        ]
      },
      "properties": {
        "gbifID": "1852156895",
        "species": "Brunfelsia amazonica",
        "genus": "Brunfelsia",
        "family": "Solanaceae",
        "scientificName": "Brunfelsia amazonica C.V.Morton",
        "coordinateUncertaintyInMeters": "",
        "basisOfRecord": "PRESERVED_SPECIMEN",
        "eventDate": "1987-04-13",
        "country": null,
        "datasetName": "NMNH Extant Biology",
        "publisher": "National Museum of Natural History, Smithsonian Institution",
        "license": "CC0_1_0",
        "issues": [
          "OCCURRENCE_STATUS_INFERRED_FROM_INDIVIDUAL_COUNT",
          "GEODETIC_DATUM_ASSUMED_WGS84"
        ],
        "media": [
          {
            "url": "https://collections.nmnh.si.edu/media/?i=12764627&h=2000",
            "references": null,
            "title": "02849488.tif",
            "creator": "Conveyor Belt",
            "publisher": "Smithsonian Institution, NMNH, Botany",
            "license": "Usage Conditions Apply",
            "rightsHolder": null
          }
        ]
      }
    },
    {
      "type": "Feature",
      "geometry": {
        "type": "Point",
        "coordinates": [
          -62.0,
          -8.03
        ]
      },
      "properties": {
        "gbifID": "1852133822",
        "species": "Brunfelsia amazonica",
        "genus": "Brunfelsia",
        "family": "Solanaceae",
        "scientificName": "Brunfelsia amazonica C.V.Morton",
        "coordinateUncertaintyInMeters": "",
        "basisOfRecord": "PRESERVED_SPECIMEN",
        "eventDate": "1985-04-16",
        "country": null,
        "datasetName": "NMNH Extant Biology",
        "publisher": "National Museum of Natural History, Smithsonian Institution",
        "license": "CC0_1_0",
        "issues": [
          "OCCURRENCE_STATUS_INFERRED_FROM_INDIVIDUAL_COUNT",
          "GEODETIC_DATUM_ASSUMED_WGS84"
        ],
        "media": [
          {
            "url": "https://collections.nmnh.si.edu/media/?i=12763657&h=2000",
            "references": null,
            "title": "02849486.tif",
            "creator": "Conveyor Belt",
            "publisher": "Smithsonian Institution, NMNH, Botany",
            "license": "Usage Conditions Apply",
            "rightsHolder": null
          }
        ]
      }
    },
    {
      "type": "Feature",
      "geometry": {
        "type": "Point",
        "coordinates": [
          -60.67,
          -7.55
        ]
      },
      "properties": {
        "gbifID": "1852119116",
        "species": "Brunfelsia amazonica",
        "genus": "Brunfelsia",
        "family": "Solanaceae",
        "scientificName": "Brunfelsia amazonica C.V.Morton",
        "coordinateUncertaintyInMeters": "",
        "basisOfRecord": "PRESERVED_SPECIMEN",
        "eventDate": "1985-04-23",
        "country": null,
        "datasetName": "NMNH Extant Biology",
        "publisher": "National Museum of Natural History, Smithsonian Institution",
        "license": "CC0_1_0",
        "issues": [
          "OCCURRENCE_STATUS_INFERRED_FROM_INDIVIDUAL_COUNT",
          "GEODETIC_DATUM_ASSUMED_WGS84"
        ],
        "media": [
          {
            "url": "https://collections.nmnh.si.edu/media/?i=12758150&h=2000",
            "references": null,
            "title": "02849487.tif",
            "creator": "Conveyor Belt",
            "publisher": "Smithsonian Institution, NMNH, Botany",
            "license": "Usage Conditions Apply",
            "rightsHolder": null
          }
        ]
      }
    },
    {
      "type": "Feature",
      "geometry": {
        "type": "Point",
        "coordinates": [
          -59.901667,
          -3.171667
        ]
      },
      "properties": {
        "gbifID": "2997357740",
        "species": "Brunfelsia amazonica",
        "genus": "Brunfelsia",
        "family": "Solanaceae",
        "scientificName": "Brunfelsia amazonica C.V.Morton",
        "coordinateUncertaintyInMeters": "",
        "basisOfRecord": "PRESERVED_SPECIMEN",
        "eventDate": "1851-05",
        "country": null,
        "datasetName": "",
        "publisher": "Instituto de Pesquisas Jardim Botanico do Rio de Janeiro",
        "license": "CC_BY_4_0",
        "issues": [
          "RECORDED_DATE_INVALID",
          "IDENTIFIED_DATE_INVALID",
          "COORDINATE_ROUNDED",
          "GEODETIC_DATUM_ASSUMED_WGS84",
          "CONTINENT_DERIVED_FROM_COORDINATES",
          "INSTITUTION_MATCH_FUZZY",
          "COLLECTION_MATCH_FUZZY"
        ],
        "fallback_media": {
          "url": "https://d2jcv3kl45hlgi.cloudfront.net/5e2440cbb0d2848793122cd6c59bbe82.jpg",
          "references": "http://specimens.kew.org/Herbarium/K001073467",
          "title": null,
          "creator": null,
          "publisher": null,
          "license": "http://creativecommons.org/licenses/by/4.0/",
          "rightsHolder": "Royal Botanic Gardens, Kew"
        }
      }
    },
    {
      "type": "Feature",
      "geometry": {
        "type": "Point",
        "coordinates": [
          -55.983333,
          -4.276111
        ]
      },
      "properties": {
        "gbifID": "2997820748",
        "species": "Brunfelsia amazonica",
        "genus": "Brunfelsia",
        "family": "Solanaceae",
        "scientificName": "Brunfelsia amazonica C.V.Morton",
        "coordinateUncertaintyInMeters": "",
        "basisOfRecord": "PRESERVED_SPECIMEN",
        "eventDate": "1983-05-15",
        "country": null,
        "datasetName": "",
        "publisher": "Instituto de Pesquisas Jardim Botanico do Rio de Janeiro",
        "license": "CC_BY_4_0",
        "issues": [
          "COORDINATE_ROUNDED",
          "GEODETIC_DATUM_ASSUMED_WGS84",
          "CONTINENT_DERIVED_FROM_COORDINATES",
          "INSTITUTION_MATCH_FUZZY",
          "COLLECTION_MATCH_FUZZY"
        ],
        "fallback_media": {
          "url": "https://d2jcv3kl45hlgi.cloudfront.net/5e2440cbb0d2848793122cd6c59bbe82.jpg",
          "references": "http://specimens.kew.org/Herbarium/K001073467",
          "title": null,
          "creator": null,
          "publisher": null,
          "license": "http://creativecommons.org/licenses/by/4.0/",
          "rightsHolder": "Royal Botanic Gardens, Kew"
        }
      }
    },
    {
      "type": "Feature",
      "geometry": {
        "type": "Point",
        "coordinates": [
          -62.0,
          -8.033333
        ]
      },
      "properties": {
        "gbifID": "2997814746",
        "species": "Brunfelsia amazonica",
        "genus": "Brunfelsia",
        "family": "Solanaceae",
        "scientificName": "Brunfelsia amazonica C.V.Morton",
        "coordinateUncertaintyInMeters": "",
        "basisOfRecord": "PRESERVED_SPECIMEN",
        "eventDate": "1985-04-16",
        "country": null,
        "datasetName": "",
        "publisher": "Instituto de Pesquisas Jardim Botanico do Rio de Janeiro",
        "license": "CC_BY_4_0",
        "issues": [
          "IDENTIFIED_DATE_INVALID",
          "COORDINATE_ROUNDED",
          "GEODETIC_DATUM_ASSUMED_WGS84",
          "CONTINENT_DERIVED_FROM_COORDINATES",
          "INSTITUTION_MATCH_FUZZY",
          "COLLECTION_MATCH_FUZZY"
        ],
        "fallback_media": {
          "url": "https://d2jcv3kl45hlgi.cloudfront.net/5e2440cbb0d2848793122cd6c59bbe82.jpg",
          "references": "http://specimens.kew.org/Herbarium/K001073467",
          "title": null,
          "creator": null,
          "publisher": null,
          "license": "http://creativecommons.org/licenses/by/4.0/",
          "rightsHolder": "Royal Botanic Gardens, Kew"
        }
      }
    },
    {
      "type": "Feature",
      "geometry": {
        "type": "Point",
        "coordinates": [
          -60.281389,
          -3.169444
        ]
      },
      "properties": {
        "gbifID": "2997819759",
        "species": "Brunfelsia amazonica",
        "genus": "Brunfelsia",
        "family": "Solanaceae",
        "scientificName": "Brunfelsia amazonica C.V.Morton",
        "coordinateUncertaintyInMeters": "",
        "basisOfRecord": "PRESERVED_SPECIMEN",
        "eventDate": "1967-01-03",
        "country": null,
        "datasetName": "",
        "publisher": "Instituto de Pesquisas Jardim Botanico do Rio de Janeiro",
        "license": "CC_BY_4_0",
        "issues": [
          "RECORDED_DATE_INVALID",
          "IDENTIFIED_DATE_INVALID",
          "COORDINATE_ROUNDED",
          "GEODETIC_DATUM_ASSUMED_WGS84",
          "CONTINENT_DERIVED_FROM_COORDINATES",
          "INSTITUTION_MATCH_FUZZY",
          "COLLECTION_MATCH_FUZZY"
        ],
        "fallback_media": {
          "url": "https://d2jcv3kl45hlgi.cloudfront.net/5e2440cbb0d2848793122cd6c59bbe82.jpg",
          "references": "http://specimens.kew.org/Herbarium/K001073467",
          "title": null,
          "creator": null,
          "publisher": null,
          "license": "http://creativecommons.org/licenses/by/4.0/",
          "rightsHolder": "Royal Botanic Gardens, Kew"
        }
      }
    },
    {
      "type": "Feature",
      "geometry": {
        "type": "Point",
        "coordinates": [
          -65.15,
          -10.933333
        ]
      },
      "properties": {
        "gbifID": "2997358744",
        "species": "Brunfelsia amazonica",
        "genus": "Brunfelsia",
        "family": "Solanaceae",
        "scientificName": "Brunfelsia amazonica C.V.Morton",
        "coordinateUncertaintyInMeters": "",
        "basisOfRecord": "PRESERVED_SPECIMEN",
        "eventDate": "1987-04-13",
        "country": null,
        "datasetName": "",
        "publisher": "Instituto de Pesquisas Jardim Botanico do Rio de Janeiro",
        "license": "CC_BY_4_0",
        "issues": [
          "IDENTIFIED_DATE_INVALID",
          "COORDINATE_ROUNDED",
          "GEODETIC_DATUM_ASSUMED_WGS84",
          "CONTINENT_DERIVED_FROM_COORDINATES",
          "INSTITUTION_MATCH_FUZZY",
          "COLLECTION_MATCH_FUZZY"
        ],
        "fallback_media": {
          "url": "https://d2jcv3kl45hlgi.cloudfront.net/5e2440cbb0d2848793122cd6c59bbe82.jpg",
          "references": "http://specimens.kew.org/Herbarium/K001073467",
          "title": null,
          "creator": null,
          "publisher": null,
          "license": "http://creativecommons.org/licenses/by/4.0/",
          "rightsHolder": "Royal Botanic Gardens, Kew"
        }
      }
    },
    {
      "type": "Feature",
      "geometry": {
        "type": "Point",
        "coordinates": [
          -59.216667,
          -10.26
        ]
      },
      "properties": {
        "gbifID": "1585333731",
        "species": "Brunfelsia amazonica",
        "genus": "Brunfelsia",
        "family": "Solanaceae",
        "scientificName": "Brunfelsia amazonica C.V.Morton",
        "coordinateUncertaintyInMeters": "",
        "basisOfRecord": "PRESERVED_SPECIMEN",
        "eventDate": "2016-02-15",
        "country": null,
        "datasetName": "RB - Rio de Janeiro Botanical Garden Herbarium Collection",
        "publisher": "Instituto de Pesquisas Jardim Botanico do Rio de Janeiro",
        "license": "CC_BY_4_0",
        "issues": [
          "COORDINATE_ROUNDED",
          "GEODETIC_DATUM_ASSUMED_WGS84",
          "CONTINENT_DERIVED_FROM_COORDINATES",
          "INSTITUTION_MATCH_FUZZY",
          "COLLECTION_MATCH_FUZZY"
        ],
        "media": [
          {
            "url": "http://jbrj-public-img.s3-sa-east-1.amazonaws.com/JPG/rb/1/33/74/78/01337478.jpg",
            "references": null,
            "title": null,
            "creator": null,
            "publisher": null,
            "license": null,
            "rightsHolder": null
          }
        ]
      }
    },
    {
      "type": "Feature",
      "geometry": {
        "type": "Point",
        "coordinates": [
          -60.666667,
          -7.55
        ]
      },
      "properties": {
        "gbifID": "2997360752",
        "species": "Brunfelsia amazonica",
        "genus": "Brunfelsia",
        "family": "Solanaceae",
        "scientificName": "Brunfelsia amazonica C.V.Morton",
        "coordinateUncertaintyInMeters": "",
        "basisOfRecord": "PRESERVED_SPECIMEN",
        "eventDate": "1985-04-23",
        "country": null,
        "datasetName": "",
        "publisher": "Instituto de Pesquisas Jardim Botanico do Rio de Janeiro",
        "license": "CC_BY_4_0",
        "issues": [
          "IDENTIFIED_DATE_INVALID",
          "COORDINATE_ROUNDED",
          "GEODETIC_DATUM_ASSUMED_WGS84",
          "CONTINENT_DERIVED_FROM_COORDINATES",
          "INSTITUTION_MATCH_FUZZY",
          "COLLECTION_MATCH_FUZZY"
        ],
        "fallback_media": {
          "url": "https://d2jcv3kl45hlgi.cloudfront.net/5e2440cbb0d2848793122cd6c59bbe82.jpg",
          "references": "http://specimens.kew.org/Herbarium/K001073467",
          "title": null,
          "creator": null,
          "publisher": null,
          "license": "http://creativecommons.org/licenses/by/4.0/",
          "rightsHolder": "Royal Botanic Gardens, Kew"
        }
      }
    },
    {
      "type": "Feature",
      "geometry": {
        "type": "Point",
        "coordinates": [
          -59.991389,
          -3.085833
        ]
      },
      "properties": {
        "gbifID": "2997822761",
        "species": "Brunfelsia amazonica",
        "genus": "Brunfelsia",
        "family": "Solanaceae",
        "scientificName": "Brunfelsia amazonica C.V.Morton",
        "coordinateUncertaintyInMeters": "",
        "basisOfRecord": "PRESERVED_SPECIMEN",
        "eventDate": "1945-03-04",
        "country": null,
        "datasetName": "",
        "publisher": "Instituto de Pesquisas Jardim Botanico do Rio de Janeiro",
        "license": "CC_BY_4_0",
        "issues": [
          "RECORDED_DATE_INVALID",
          "IDENTIFIED_DATE_INVALID",
          "COORDINATE_ROUNDED",
          "GEODETIC_DATUM_ASSUMED_WGS84",
          "CONTINENT_DERIVED_FROM_COORDINATES",
          "INSTITUTION_MATCH_FUZZY",
          "COLLECTION_MATCH_FUZZY"
        ],
        "fallback_media": {
          "url": "https://d2jcv3kl45hlgi.cloudfront.net/5e2440cbb0d2848793122cd6c59bbe82.jpg",
          "references": "http://specimens.kew.org/Herbarium/K001073467",
          "title": null,
          "creator": null,
          "publisher": null,
          "license": "http://creativecommons.org/licenses/by/4.0/",
          "rightsHolder": "Royal Botanic Gardens, Kew"
        }
      }
    },
    {
      "type": "Feature",
      "geometry": {
        "type": "Point",
        "coordinates": [
          -59.991424,
          -3.085923
        ]
      },
      "properties": {
        "gbifID": "1929497313",
        "species": "Brunfelsia amazonica",
        "genus": "Brunfelsia",
        "family": "Solanaceae",
        "scientificName": "Brunfelsia amazonica C.V.Morton",
        "coordinateUncertaintyInMeters": "",
        "basisOfRecord": "PRESERVED_SPECIMEN",
        "eventDate": "1945-03-04",
        "country": null,
        "datasetName": "Vascular plants",
        "publisher": "The New York Botanical Garden",
        "license": "CC0_1_0",
        "issues": [
          "MODIFIED_DATE_INVALID",
          "COORDINATE_ROUNDED"
        ],
        "media": [
          {
            "url": "http://sweetgum.nybg.org/images3/602/701/01291131.jpg",
            "references": null,
            "title": null,
            "creator": "The New York Botanical Garden",
            "publisher": null,
            "license": "http://creativecommons.org/licenses/by/4.0/",
            "rightsHolder": "The New York Botanical Garden"
          }
        ]
      }
    },
    {
      "type": "Feature",
      "geometry": {
        "type": "Point",
        "coordinates": [
          -55.98426,
          -4.27952
        ]
      },
      "properties": {
        "gbifID": "1929154107",
        "species": "Brunfelsia amazonica",
        "genus": "Brunfelsia",
        "family": "Solanaceae",
        "scientificName": "Brunfelsia amazonica C.V.Morton",
        "coordinateUncertaintyInMeters": "",
        "basisOfRecord": "PRESERVED_SPECIMEN",
        "eventDate": "1983-05-15",
        "country": null,
        "datasetName": "Vascular plants",
        "publisher": "The New York Botanical Garden",
        "license": "CC0_1_0",
        "issues": [
          "MODIFIED_DATE_INVALID",
          "COORDINATE_REPROJECTED"
        ],
        "media": [
          {
            "url": "http://sweetgum.nybg.org/images3/602/700/01291130.jpg",
            "references": null,
            "title": null,
            "creator": "The New York Botanical Garden",
            "publisher": null,
            "license": "http://creativecommons.org/licenses/by/4.0/",
            "rightsHolder": "The New York Botanical Garden"
          }
        ]
      }
    },
    {
      "type": "Feature",
      "geometry": {
        "type": "Point",
        "coordinates": [
          -59.901624,
          -3.17154
        ]
      },
      "properties": {
        "gbifID": "1930345812",
        "species": "Brunfelsia amazonica",
        "genus": "Brunfelsia",
        "family": "Solanaceae",
        "scientificName": "Brunfelsia amazonica C.V.Morton",
        "coordinateUncertaintyInMeters": "",
        "basisOfRecord": "PRESERVED_SPECIMEN",
        "eventDate": "1851-05",
        "country": null,
        "datasetName": "Vascular plants",
        "publisher": "The New York Botanical Garden",
        "license": "CC0_1_0",
        "issues": [
          "MODIFIED_DATE_INVALID",
          "COORDINATE_ROUNDED"
        ],
        "media": [
          {
            "url": "http://sweetgum.nybg.org/images3/602/694/01291124.jpg",
            "references": null,
            "title": null,
            "creator": "The New York Botanical Garden",
            "publisher": null,
            "license": "http://creativecommons.org/licenses/by/4.0/",
            "rightsHolder": "The New York Botanical Garden"
          }
        ]
      }
    },
    {
      "type": "Feature",
      "geometry": {
        "type": "Point",
        "coordinates": [
          -60.281301,
          -3.169317
        ]
      },
      "properties": {
        "gbifID": "1927921917",
        "species": "Brunfelsia amazonica",
        "genus": "Brunfelsia",
        "family": "Solanaceae",
        "scientificName": "Brunfelsia amazonica C.V.Morton",
        "coordinateUncertaintyInMeters": "",
        "basisOfRecord": "PRESERVED_SPECIMEN",
        "eventDate": "1967-01-03",
        "country": null,
        "datasetName": "Vascular plants",
        "publisher": "The New York Botanical Garden",
        "license": "CC0_1_0",
        "issues": [
          "MODIFIED_DATE_INVALID",
          "COORDINATE_ROUNDED"
        ],
        "media": [
          {
            "url": "http://sweetgum.nybg.org/images3/602/699/01291129.jpg",
            "references": null,
            "title": null,
            "creator": "The New York Botanical Garden",
            "publisher": null,
            "license": "http://creativecommons.org/licenses/by/4.0/",
            "rightsHolder": "The New York Botanical Garden"
          }
        ]
      }
    },
    {
      "type": "Feature",
      "geometry": {
        "type": "Point",
        "coordinates": [
          -44.302778,
          -2.529722
        ]
      },
      "properties": {
        "gbifID": "1213626239",
        "species": "Brunfelsia amazonica",
        "genus": "Brunfelsia",
        "family": "Solanaceae",
        "scientificName": "Brunfelsia amazonica C.V.Morton",
        "coordinateUncertaintyInMeters": "",
        "basisOfRecord": "PRESERVED_SPECIMEN",
        "eventDate": "1992-02-21",
        "country": null,
        "datasetName": "",
        "publisher": "Universidade de Brasília",
        "license": "CC_BY_4_0",
        "issues": [
          "COORDINATE_ROUNDED",
          "CONTINENT_DERIVED_FROM_COORDINATES",
          "INSTITUTION_MATCH_FUZZY",
          "INSTITUTION_COLLECTION_MISMATCH"
        ],
        "fallback_media": {
          "url": "https://d2jcv3kl45hlgi.cloudfront.net/5e2440cbb0d2848793122cd6c59bbe82.jpg",
          "references": "http://specimens.kew.org/Herbarium/K001073467",
          "title": null,
          "creator": null,
          "publisher": null,
          "license": "http://creativecommons.org/licenses/by/4.0/",
          "rightsHolder": "Royal Botanic Gardens, Kew"
        }
      }
    },
    {
      "type": "Feature",
      "geometry": {
        "type": "Point",
        "coordinates": [
          -63.0,
          -5.0
        ]
      },
      "properties": {
        "gbifID": "1228461241",
        "species": "Brunfelsia amazonica",
        "genus": "Brunfelsia",
        "family": "Solanaceae",
        "scientificName": "Brunfelsia amazonica C.V.Morton",
        "coordinateUncertaintyInMeters": "",
        "basisOfRecord": "PRESERVED_SPECIMEN",
        "eventDate": "1967-01-03",
        "country": null,
        "datasetName": "seeds-22-sep-2023",
        "publisher": "Field Museum",
        "license": "CC0_1_0",
        "issues": [
          "GEODETIC_DATUM_ASSUMED_WGS84",
          "INSTITUTION_MATCH_FUZZY",
          "AMBIGUOUS_COLLECTION"
        ],
        "fallback_media": {
          "url": "https://d2jcv3kl45hlgi.cloudfront.net/5e2440cbb0d2848793122cd6c59bbe82.jpg",
          "references": "http://specimens.kew.org/Herbarium/K001073467",
          "title": null,
          "creator": null,
          "publisher": null,
          "license": "http://creativecommons.org/licenses/by/4.0/",
          "rightsHolder": "Royal Botanic Gardens, Kew"
        }
      }
    },
    {
      "type": "Feature",
      "geometry": {
        "type": "Point",
        "coordinates": [
          -53.0,
          -4.0
        ]
      },
      "properties": {
        "gbifID": "1228223515",
        "species": "Brunfelsia amazonica",
        "genus": "Brunfelsia",
        "family": "Solanaceae",
        "scientificName": "Brunfelsia amazonica C.V.Morton",
        "coordinateUncertaintyInMeters": "",
        "basisOfRecord": "PRESERVED_SPECIMEN",
        "eventDate": "1983-05-15",
        "country": null,
        "datasetName": "seeds-22-sep-2023",
        "publisher": "Field Museum",
        "license": "CC0_1_0",
        "issues": [
          "GEODETIC_DATUM_ASSUMED_WGS84",
          "INSTITUTION_MATCH_FUZZY",
          "AMBIGUOUS_COLLECTION"
        ],
        "fallback_media": {
          "url": "https://d2jcv3kl45hlgi.cloudfront.net/5e2440cbb0d2848793122cd6c59bbe82.jpg",
          "references": "http://specimens.kew.org/Herbarium/K001073467",
          "title": null,
          "creator": null,
          "publisher": null,
          "license": "http://creativecommons.org/licenses/by/4.0/",
          "rightsHolder": "Royal Botanic Gardens, Kew"
        }
      }
    },
    {
      "type": "Feature",
      "geometry": {
        "type": "Point",
        "coordinates": [
          -63.0,
          -11.0
        ]
      },
      "properties": {
        "gbifID": "1228517106",
        "species": "Brunfelsia amazonica",
        "genus": "Brunfelsia",
        "family": "Solanaceae",
        "scientificName": "Brunfelsia amazonica C.V.Morton",
        "coordinateUncertaintyInMeters": "",
        "basisOfRecord": "PRESERVED_SPECIMEN",
        "eventDate": "1987-04-13",
        "country": null,
        "datasetName": "seeds-22-sep-2023",
        "publisher": "Field Museum",
        "license": "CC0_1_0",
        "issues": [
          "GEODETIC_DATUM_ASSUMED_WGS84",
          "INSTITUTION_MATCH_FUZZY",
          "AMBIGUOUS_COLLECTION"
        ],
        "fallback_media": {
          "url": "https://d2jcv3kl45hlgi.cloudfront.net/5e2440cbb0d2848793122cd6c59bbe82.jpg",
          "references": "http://specimens.kew.org/Herbarium/K001073467",
          "title": null,
          "creator": null,
          "publisher": null,
          "license": "http://creativecommons.org/licenses/by/4.0/",
          "rightsHolder": "Royal Botanic Gardens, Kew"
        }
      }
    },
    {
      "type": "Feature",
      "geometry": {
        "type": "Point",
        "coordinates": [
          -60.67,
          -7.583333
        ]
      },
      "properties": {
        "gbifID": "1042515461",
        "species": "Brunfelsia amazonica",
        "genus": "Brunfelsia",
        "family": "Solanaceae",
        "scientificName": "Brunfelsia amazonica C.V.Morton",
        "coordinateUncertaintyInMeters": "",
        "basisOfRecord": "PRESERVED_SPECIMEN",
        "eventDate": "",
        "country": null,
        "datasetName": "Coleção Botânica, Instituto Nacional de Pesquisas da Amazônia (INPA)",
        "publisher": "Instituto Nacional de Pesquisas da Amazônia - INPA",
        "license": "CC_BY_NC_4_0",
        "issues": [
          "RECORDED_DATE_INVALID",
          "MODIFIED_DATE_INVALID",
          "GEODETIC_DATUM_ASSUMED_WGS84",
          "GEODETIC_DATUM_INVALID",
          "INSTITUTION_MATCH_NONE"
        ],
        "fallback_media": {
          "url": "https://d2jcv3kl45hlgi.cloudfront.net/5e2440cbb0d2848793122cd6c59bbe82.jpg",
          "references": "http://specimens.kew.org/Herbarium/K001073467",
          "title": null,
          "creator": null,
          "publisher": null,
          "license": "http://creativecommons.org/licenses/by/4.0/",
          "rightsHolder": "Royal Botanic Gardens, Kew"
        }
      }
    },
    {
      "type": "Feature",
      "geometry": {
        "type": "Point",
        "coordinates": [
          -53.08982,
          -10.773109
        ]
      },
      "properties": {
        "gbifID": "1135486427",
        "species": "Brunfelsia amazonica",
        "genus": "Brunfelsia",
        "family": "Solanaceae",
        "scientificName": "Brunfelsia amazonica C.V.Morton",
        "coordinateUncertaintyInMeters": "4364.0",
        "basisOfRecord": "PRESERVED_SPECIMEN",
        "eventDate": "1851-05",
        "country": null,
        "datasetName": "",
        "publisher": "Natural History Museum",
        "license": "CC0_1_0",
        "issues": [
          "RECORDED_DATE_INVALID",
          "GEODETIC_DATUM_ASSUMED_WGS84",
          "INSTITUTION_MATCH_FUZZY",
          "COLLECTION_MATCH_FUZZY"
        ],
        "media": [
          {
            "url": "https://data.nhm.ac.uk/media/98ba09be-19ea-48ed-98c4-654f779a1413",
            "references": null,
            "title": "001016389",
            "creator": null,
            "publisher": null,
            "license": "http://creativecommons.org/licenses/by/4.0/",
            "rightsHolder": "The Trustees of the Natural History Museum, London"
          }
        ]
      }
    },
    {
      "type": "Feature",
      "geometry": {
        "type": "Point",
        "coordinates": [
          -65.15,
          -10.933334
        ]
      },
      "properties": {
        "gbifID": "1252652436",
        "species": "Brunfelsia amazonica",
        "genus": "Brunfelsia",
        "family": "Solanaceae",
        "scientificName": "Brunfelsia amazonica C.V.Morton",
        "coordinateUncertaintyInMeters": "",
        "basisOfRecord": "PRESERVED_SPECIMEN",
        "eventDate": "1987-04-13T00:00",
        "country": null,
        "datasetName": "",
        "publisher": "Royal Botanic Gardens, Kew",
        "license": "CC_BY_4_0",
        "issues": [
          "COORDINATE_ROUNDED",
          "GEODETIC_DATUM_ASSUMED_WGS84",
          "CONTINENT_DERIVED_FROM_COORDINATES",
          "INSTITUTION_MATCH_FUZZY",
          "INSTITUTION_COLLECTION_MISMATCH"
        ],
        "media": [
          {
            "url": "https://d2jcv3kl45hlgi.cloudfront.net/5e2440cbb0d2848793122cd6c59bbe82.jpg",
            "references": "http://specimens.kew.org/Herbarium/K001073467",
            "title": null,
            "creator": null,
            "publisher": null,
            "license": "http://creativecommons.org/licenses/by/4.0/",
            "rightsHolder": "Royal Botanic Gardens, Kew"
          }
        ]
      }
    },
    {
      "type": "Feature",
      "geometry": {
        "type": "Point",
        "coordinates": [
          -64.789262,
          -3.164854
        ]
      },
      "properties": {
        "gbifID": "5758898692",
        "species": "Brunfelsia amazonica",
        "genus": "Brunfelsia",
        "family": "Solanaceae",
        "scientificName": "Brunfelsia amazonica C.V.Morton",
        "coordinateUncertaintyInMeters": "",
        "basisOfRecord": "PRESERVED_SPECIMEN",
        "eventDate": "1851-05",
        "country": null,
        "datasetName": "",
        "publisher": "Trinity College Dublin herbarium",
        "license": "CC0_1_0",
        "issues": [
          "CONTINENT_DERIVED_FROM_COORDINATES"
        ],
        "media": [
          {
            "url": "http://54.72.131.62/iiif/2/TCD0006785.jpg/full/full/0/default.jpg",
            "references": null,
            "title": null,
            "creator": null,
            "publisher": null,
            "license": null,
            "rightsHolder": null
          }
        ]
      }
    }
  ]
}
