{
  "type": "FeatureCollection",
  "metadata": {
    "host_taxon": {
      "canonical_name": "Cyphomandra hartwegii",
      "rank": "species",
      "family": "Solanaceae",
      "genus": "Cyphomandra",
      "species": "Cyphomandra hartwegii",
      "slug": "species_cyphomandra_hartwegii",
      "resolvable_to_gbif": true,
      "use_for_default_download": true,
      "association_count": 2,
      "butterfly_taxa": [
        "Mechanitis polymnia",
        "Thyridia psidii"
      ],
      "confidence_counts": {
        "medium": 2
      },
      "occurrence_file": "occurrences/species_cyphomandra_hartwegii.geojson",
      "gbif_resolution": {
        "query": "Cyphomandra hartwegii",
        "rank": "species",
        "status": "resolved",
        "gbif_taxon_key": 2928850,
        "accepted_usage_key": 9478958,
        "scientific_name": "Cyphomandra hartwegii (Miers) Dunal",
        "canonical_name": "Cyphomandra hartwegii",
        "gbif_rank": "SPECIES",
        "taxonomic_status": "SYNONYM",
        "match_type": "EXACT",
        "confidence": 99,
        "kingdom": "Plantae",
        "family": "Solanaceae",
        "genus": "Solanum",
        "resolved_at": "2026-05-21T03:57:31+00:00"
      },
      "gbif_taxon_key": 2928850,
      "gbif_status": "resolved",
      "occurrence_count": 0,
      "occurrence_mode": "not_generated",
      "occurrence_cap": null
    },
    "gbif_resolution": {
      "query": "Cyphomandra hartwegii",
      "rank": "species",
      "status": "resolved",
      "gbif_taxon_key": 2928850,
      "accepted_usage_key": 9478958,
      "scientific_name": "Cyphomandra hartwegii (Miers) Dunal",
      "canonical_name": "Cyphomandra hartwegii",
      "gbif_rank": "SPECIES",
      "taxonomic_status": "SYNONYM",
      "match_type": "EXACT",
      "confidence": 99,
      "kingdom": "Plantae",
      "family": "Solanaceae",
      "genus": "Solanum",
      "resolved_at": "2026-05-21T03:57:31+00:00"
    },
    "occurrence_query": {
      "method": "gbif_download_api",
      "download_key": "0004690-260519110011954",
      "download_doi": "10.15468/dl.s2gcc3",
      "download_doi_url": "https://doi.org/10.15468/dl.s2gcc3",
      "limit": null,
      "dedupe": "Exact duplicate coordinates removed per taxon after DWCA download.",
      "filters": "GBIF Download API DWCA with TAXON_KEY, HAS_COORDINATE=true, HAS_GEOSPATIAL_ISSUE=false, OCCURRENCE_STATUS=PRESENT; app study extent and coordinate uncertainty <=100km applied locally.",
      "returned_unique_coordinate_records": 36
    },
    "scientific_caveat": "GBIF plant occurrences are sampling-biased context records and do not prove local host use or ecological availability for the butterfly.",
    "generated_at": "2026-05-21T15:57:19+00:00"
  },
  "features": [
    {
      "type": "Feature",
      "geometry": {
        "type": "Point",
        "coordinates": [
          -79.329721,
          -1.654988
        ]
      },
      "properties": {
        "gbifID": "1978531363",
        "species": "Solanum splendens",
        "genus": "Solanum",
        "family": "Solanaceae",
        "scientificName": "Cyphomandra hartwegii (Miers) Dunal",
        "coordinateUncertaintyInMeters": "30.0",
        "basisOfRecord": "HUMAN_OBSERVATION",
        "eventDate": "2012-08-14",
        "country": null,
        "datasetName": "Información florística del Proyecto Mapa de Vegetación para la Clasificación de Ecosistemas del Ecuador Continental",
        "publisher": "Ministerio de Ambiente y Energía de Ecuador - MAE",
        "license": "CC_BY_4_0",
        "issues": [],
        "fallback_media": {
          "url": "http://purl.dlib.indiana.edu/iudl/herbarium/full/IND-0104734",
          "references": null,
          "title": null,
          "creator": null,
          "publisher": null,
          "license": null,
          "rightsHolder": "The Trustees of Indiana University"
        }
      }
    },
    {
      "type": "Feature",
      "geometry": {
        "type": "Point",
        "coordinates": [
          -83.655796,
          9.892406
        ]
      },
      "properties": {
        "gbifID": "5070681400",
        "species": "Solanum splendens",
        "genus": "Solanum",
        "family": "Solanaceae",
        "scientificName": "Cyphomandra hartwegii (Miers) Dunal",
        "coordinateUncertaintyInMeters": "900.0",
        "basisOfRecord": "PRESERVED_SPECIMEN",
        "eventDate": "1950-11-18",
        "country": null,
        "datasetName": "",
        "publisher": "Indiana University Herbarium",
        "license": "CC_BY_NC_4_0",
        "issues": [
          "GEODETIC_DATUM_ASSUMED_WGS84",
          "CONTINENT_DERIVED_FROM_COORDINATES",
          "INSTITUTION_MATCH_FUZZY",
          "TAXON_ID_NOT_FOUND"
        ],
        "media": [
          {
            "url": "http://purl.dlib.indiana.edu/iudl/herbarium/full/IND-0104726",
            "references": null,
            "title": null,
            "creator": null,
            "publisher": null,
            "license": null,
            "rightsHolder": "The Trustees of Indiana University"
          }
        ]
      }
    },
    {
      "type": "Feature",
      "geometry": {
        "type": "Point",
        "coordinates": [
          -78.493005,
          -0.194568
        ]
      },
      "properties": {
        "gbifID": "5070680359",
        "species": "Solanum splendens",
        "genus": "Solanum",
        "family": "Solanaceae",
        "scientificName": "Cyphomandra hartwegii (Miers) Dunal",
        "coordinateUncertaintyInMeters": "8000.0",
        "basisOfRecord": "PRESERVED_SPECIMEN",
        "eventDate": "1964-09-22",
        "country": null,
        "datasetName": "",
        "publisher": "Indiana University Herbarium",
        "license": "CC_BY_NC_4_0",
        "issues": [
          "GEODETIC_DATUM_ASSUMED_WGS84",
          "CONTINENT_DERIVED_FROM_COORDINATES",
          "INSTITUTION_MATCH_FUZZY",
          "TAXON_ID_NOT_FOUND"
        ],
        "media": [
          {
            "url": "http://purl.dlib.indiana.edu/iudl/herbarium/full/IND-0104728",
            "references": null,
            "title": null,
            "creator": null,
            "publisher": null,
            "license": null,
            "rightsHolder": "The Trustees of Indiana University"
          }
        ]
      }
    },
    {
      "type": "Feature",
      "geometry": {
        "type": "Point",
        "coordinates": [
          -79.768264,
          9.167947
        ]
      },
      "properties": {
        "gbifID": "5070678148",
        "species": "Solanum splendens",
        "genus": "Solanum",
        "family": "Solanaceae",
        "scientificName": "Cyphomandra hartwegii (Miers) Dunal",
        "coordinateUncertaintyInMeters": "1000.0",
        "basisOfRecord": "PRESERVED_SPECIMEN",
        "eventDate": "1973-10-26",
        "country": null,
        "datasetName": "",
        "publisher": "Indiana University Herbarium",
        "license": "CC_BY_NC_4_0",
        "issues": [
          "CONTINENT_DERIVED_FROM_COORDINATES",
          "INSTITUTION_MATCH_FUZZY",
          "TAXON_ID_NOT_FOUND"
        ],
        "media": [
          {
            "url": "http://purl.dlib.indiana.edu/iudl/herbarium/full/IND-0104734",
            "references": null,
            "title": null,
            "creator": null,
            "publisher": null,
            "license": null,
            "rightsHolder": "The Trustees of Indiana University"
          }
        ]
      }
    },
    {
      "type": "Feature",
      "geometry": {
        "type": "Point",
        "coordinates": [
          -79.35,
          9.233333
        ]
      },
      "properties": {
        "gbifID": "5070678147",
        "species": "Solanum splendens",
        "genus": "Solanum",
        "family": "Solanaceae",
        "scientificName": "Cyphomandra hartwegii (Miers) Dunal",
        "coordinateUncertaintyInMeters": "300.0",
        "basisOfRecord": "PRESERVED_SPECIMEN",
        "eventDate": "1970-04-08",
        "country": null,
        "datasetName": "",
        "publisher": "Indiana University Herbarium",
        "license": "CC_BY_NC_4_0",
        "issues": [
          "CONTINENT_DERIVED_FROM_COORDINATES",
          "INSTITUTION_MATCH_FUZZY",
          "TAXON_ID_NOT_FOUND"
        ],
        "media": [
          {
            "url": "http://purl.dlib.indiana.edu/iudl/herbarium/full/IND-0104735",
            "references": null,
            "title": null,
            "creator": null,
            "publisher": null,
            "license": null,
            "rightsHolder": "The Trustees of Indiana University"
          }
        ]
      }
    },
    {
      "type": "Feature",
      "geometry": {
        "type": "Point",
        "coordinates": [
          -83.655023,
          9.893674
        ]
      },
      "properties": {
        "gbifID": "5070679334",
        "species": "Solanum splendens",
        "genus": "Solanum",
        "family": "Solanaceae",
        "scientificName": "Cyphomandra hartwegii (Miers) Dunal",
        "coordinateUncertaintyInMeters": "1700.0",
        "basisOfRecord": "PRESERVED_SPECIMEN",
        "eventDate": "1950-11-18",
        "country": null,
        "datasetName": "",
        "publisher": "Indiana University Herbarium",
        "license": "CC_BY_NC_4_0",
        "issues": [
          "GEODETIC_DATUM_ASSUMED_WGS84",
          "CONTINENT_DERIVED_FROM_COORDINATES",
          "INSTITUTION_MATCH_FUZZY",
          "TAXON_ID_NOT_FOUND"
        ],
        "media": [
          {
            "url": "http://purl.dlib.indiana.edu/iudl/herbarium/full/IND-0104727",
            "references": null,
            "title": null,
            "creator": null,
            "publisher": null,
            "license": null,
            "rightsHolder": "The Trustees of Indiana University"
          }
        ]
      }
    },
    {
      "type": "Feature",
      "geometry": {
        "type": "Point",
        "coordinates": [
          -83.216667,
          8.683333
        ]
      },
      "properties": {
        "gbifID": "3885528520",
        "species": "Solanum splendens",
        "genus": "Solanum",
        "family": "Solanaceae",
        "scientificName": "Cyphomandra hartwegii (Miers) Dunal",
        "coordinateUncertaintyInMeters": "500.0",
        "basisOfRecord": "PRESERVED_SPECIMEN",
        "eventDate": "2000-09-05",
        "country": null,
        "datasetName": "",
        "publisher": "Biologiezentrum Linz Oberoesterreich",
        "license": "CC0_1_0",
        "issues": [
          "COORDINATE_ROUNDED",
          "CONTINENT_DERIVED_FROM_COORDINATES",
          "INSTITUTION_MATCH_FUZZY",
          "COLLECTION_MATCH_NONE"
        ],
        "media": [
          {
            "url": "https://www.zobodat.at/bilder/belege/00006148.jpg",
            "references": null,
            "title": null,
            "creator": null,
            "publisher": null,
            "license": null,
            "rightsHolder": null
          }
        ]
      }
    },
    {
      "type": "Feature",
      "geometry": {
        "type": "Point",
        "coordinates": [
          -79.85,
          -0.617
        ]
      },
      "properties": {
        "gbifID": "197075482",
        "species": "Solanum splendens",
        "genus": "Solanum",
        "family": "Solanaceae",
        "scientificName": "Cyphomandra hartwegii (Miers) Dunal",
        "coordinateUncertaintyInMeters": "",
        "basisOfRecord": "HUMAN_OBSERVATION",
        "eventDate": "1991-01-26",
        "country": null,
        "datasetName": "",
        "publisher": "Conservation International",
        "license": "CC_BY_4_0",
        "issues": [
          "GEODETIC_DATUM_ASSUMED_WGS84",
          "CONTINENT_DERIVED_FROM_COORDINATES"
        ],
        "fallback_media": {
          "url": "http://purl.dlib.indiana.edu/iudl/herbarium/full/IND-0104734",
          "references": null,
          "title": null,
          "creator": null,
          "publisher": null,
          "license": null,
          "rightsHolder": "The Trustees of Indiana University"
        }
      }
    },
    {
      "type": "Feature",
      "geometry": {
        "type": "Point",
        "coordinates": [
          -79.033333,
          0.083333
        ]
      },
      "properties": {
        "gbifID": "2859215336",
        "species": "Solanum splendens",
        "genus": "Solanum",
        "family": "Solanaceae",
        "scientificName": "Cyphomandra hartwegii (Miers) Dunal",
        "coordinateUncertaintyInMeters": "",
        "basisOfRecord": "PRESERVED_SPECIMEN",
        "eventDate": "1987-05-18",
        "country": null,
        "datasetName": "",
        "publisher": "Carnegie Museums",
        "license": "CC0_1_0",
        "issues": [
          "COORDINATE_ROUNDED",
          "GEODETIC_DATUM_ASSUMED_WGS84",
          "CONTINENT_DERIVED_FROM_COORDINATES",
          "INSTITUTION_MATCH_FUZZY",
          "COLLECTION_MATCH_FUZZY",
          "TAXON_ID_NOT_FOUND"
        ],
        "fallback_media": {
          "url": "http://purl.dlib.indiana.edu/iudl/herbarium/full/IND-0104734",
          "references": null,
          "title": null,
          "creator": null,
          "publisher": null,
          "license": null,
          "rightsHolder": "The Trustees of Indiana University"
        }
      }
    },
    {
      "type": "Feature",
      "geometry": {
        "type": "Point",
        "coordinates": [
          -82.251111,
          8.751111
        ]
      },
      "properties": {
        "gbifID": "2859228284",
        "species": "Solanum splendens",
        "genus": "Solanum",
        "family": "Solanaceae",
        "scientificName": "Cyphomandra hartwegii (Miers) Dunal",
        "coordinateUncertaintyInMeters": "",
        "basisOfRecord": "PRESERVED_SPECIMEN",
        "eventDate": "1986-12-28",
        "country": null,
        "datasetName": "",
        "publisher": "Carnegie Museums",
        "license": "CC0_1_0",
        "issues": [
          "COORDINATE_ROUNDED",
          "GEODETIC_DATUM_ASSUMED_WGS84",
          "CONTINENT_DERIVED_FROM_COORDINATES",
          "INSTITUTION_MATCH_FUZZY",
          "COLLECTION_MATCH_FUZZY",
          "TAXON_ID_NOT_FOUND"
        ],
        "fallback_media": {
          "url": "http://purl.dlib.indiana.edu/iudl/herbarium/full/IND-0104734",
          "references": null,
          "title": null,
          "creator": null,
          "publisher": null,
          "license": null,
          "rightsHolder": "The Trustees of Indiana University"
        }
      }
    },
    {
      "type": "Feature",
      "geometry": {
        "type": "Point",
        "coordinates": [
          -95.213272,
          18.448703
        ]
      },
      "properties": {
        "gbifID": "1846523540",
        "species": "Solanum splendens",
        "genus": "Solanum",
        "family": "Solanaceae",
        "scientificName": "Cyphomandra hartwegii (Miers) Dunal",
        "coordinateUncertaintyInMeters": "10000.0",
        "basisOfRecord": "PRESERVED_SPECIMEN",
        "eventDate": "1982-10-23",
        "country": null,
        "datasetName": "",
        "publisher": "Desert Botanical Garden Herbarium",
        "license": "CC_BY_NC_4_0",
        "issues": [
          "GEODETIC_DATUM_ASSUMED_WGS84",
          "CONTINENT_DERIVED_FROM_COORDINATES",
          "INSTITUTION_MATCH_FUZZY",
          "TAXON_ID_NOT_FOUND"
        ],
        "media": [
          {
            "url": "https://media01.symbiota.org/media/h_seinet/seinet/DES/DES00025/DES00025221_lg.jpg",
            "references": null,
            "title": null,
            "creator": null,
            "publisher": null,
            "license": "http://creativecommons.org/licenses/by-nc/4.0/",
            "rightsHolder": "Desert Botanical Garden Herbarium (DES-)"
          }
        ]
      }
    },
    {
      "type": "Feature",
      "geometry": {
        "type": "Point",
        "coordinates": [
          -74.596389,
          5.066389
        ]
      },
      "properties": {
        "gbifID": "732285",
        "species": "Solanum splendens",
        "genus": "Solanum",
        "family": "Solanaceae",
        "scientificName": "Cyphomandra hartwegii (Miers) Dunal",
        "coordinateUncertaintyInMeters": "",
        "basisOfRecord": "PRESERVED_SPECIMEN",
        "eventDate": "1843",
        "country": null,
        "datasetName": "",
        "publisher": "Lund University Biological Museum",
        "license": "CC_BY_NC_4_0",
        "issues": [
          "OCCURRENCE_STATUS_INFERRED_FROM_INDIVIDUAL_COUNT",
          "COORDINATE_ROUNDED",
          "GEODETIC_DATUM_ASSUMED_WGS84",
          "CONTINENT_DERIVED_FROM_COORDINATES",
          "CONTINENT_INVALID",
          "INSTITUTION_MATCH_FUZZY",
          "COLLECTION_MATCH_NONE"
        ],
        "fallback_media": {
          "url": "http://purl.dlib.indiana.edu/iudl/herbarium/full/IND-0104734",
          "references": null,
          "title": null,
          "creator": null,
          "publisher": null,
          "license": null,
          "rightsHolder": "The Trustees of Indiana University"
        }
      }
    },
    {
      "type": "Feature",
      "geometry": {
        "type": "Point",
        "coordinates": [
          -94.28333,
          17.2375
        ]
      },
      "properties": {
        "gbifID": "2807346660",
        "species": "Solanum splendens",
        "genus": "Solanum",
        "family": "Solanaceae",
        "scientificName": "Cyphomandra hartwegii (Miers) Dunal",
        "coordinateUncertaintyInMeters": "",
        "basisOfRecord": "PRESERVED_SPECIMEN",
        "eventDate": "1980-09-24",
        "country": null,
        "datasetName": "",
        "publisher": "University of Texas at Austin, Biodiversity Collections",
        "license": "CC0_1_0",
        "issues": [
          "GEODETIC_DATUM_ASSUMED_WGS84",
          "INSTITUTION_MATCH_FUZZY",
          "INSTITUTION_COLLECTION_MISMATCH"
        ],
        "fallback_media": {
          "url": "http://purl.dlib.indiana.edu/iudl/herbarium/full/IND-0104734",
          "references": null,
          "title": null,
          "creator": null,
          "publisher": null,
          "license": null,
          "rightsHolder": "The Trustees of Indiana University"
        }
      }
    },
    {
      "type": "Feature",
      "geometry": {
        "type": "Point",
        "coordinates": [
          -94.6,
          16.95
        ]
      },
      "properties": {
        "gbifID": "2807326630",
        "species": "Solanum splendens",
        "genus": "Solanum",
        "family": "Solanaceae",
        "scientificName": "Cyphomandra hartwegii (Miers) Dunal",
        "coordinateUncertaintyInMeters": "",
        "basisOfRecord": "PRESERVED_SPECIMEN",
        "eventDate": "1985-11-06",
        "country": null,
        "datasetName": "",
        "publisher": "University of Texas at Austin, Biodiversity Collections",
        "license": "CC0_1_0",
        "issues": [
          "GEODETIC_DATUM_ASSUMED_WGS84",
          "INSTITUTION_MATCH_FUZZY",
          "COLLECTION_MATCH_FUZZY"
        ],
        "fallback_media": {
          "url": "http://purl.dlib.indiana.edu/iudl/herbarium/full/IND-0104734",
          "references": null,
          "title": null,
          "creator": null,
          "publisher": null,
          "license": null,
          "rightsHolder": "The Trustees of Indiana University"
        }
      }
    },
    {
      "type": "Feature",
      "geometry": {
        "type": "Point",
        "coordinates": [
          -76.8667,
          -0.833333
        ]
      },
      "properties": {
        "gbifID": "5148477423",
        "species": "Solanum splendens",
        "genus": "Solanum",
        "family": "Solanaceae",
        "scientificName": "Cyphomandra hartwegii (Miers) Dunal",
        "coordinateUncertaintyInMeters": "",
        "basisOfRecord": "PRESERVED_SPECIMEN",
        "eventDate": "1973-01-10",
        "country": null,
        "datasetName": "",
        "publisher": "Herbario QCA de la Pontificia Universidad Católica del Ecuador",
        "license": "CC_BY_NC_4_0",
        "issues": [
          "INSTITUTION_MATCH_FUZZY",
          "TAXON_ID_NOT_FOUND"
        ],
        "fallback_media": {
          "url": "http://purl.dlib.indiana.edu/iudl/herbarium/full/IND-0104734",
          "references": null,
          "title": null,
          "creator": null,
          "publisher": null,
          "license": null,
          "rightsHolder": "The Trustees of Indiana University"
        }
      }
    },
    {
      "type": "Feature",
      "geometry": {
        "type": "Point",
        "coordinates": [
          -84.04,
          9.54
        ]
      },
      "properties": {
        "gbifID": "44966274",
        "species": "Solanum splendens",
        "genus": "Solanum",
        "family": "Solanaceae",
        "scientificName": "Cyphomandra hartwegii (Miers) Dunal",
        "coordinateUncertaintyInMeters": "",
        "basisOfRecord": "PRESERVED_SPECIMEN",
        "eventDate": "1999-03-24",
        "country": null,
        "datasetName": "",
        "publisher": "Museo Nacional de Costa Rica",
        "license": "CC_BY_4_0",
        "issues": [
          "RECORDED_DATE_INVALID",
          "GEODETIC_DATUM_ASSUMED_WGS84",
          "CONTINENT_DERIVED_FROM_COORDINATES",
          "INSTITUTION_MATCH_NONE"
        ],
        "fallback_media": {
          "url": "http://purl.dlib.indiana.edu/iudl/herbarium/full/IND-0104734",
          "references": null,
          "title": null,
          "creator": null,
          "publisher": null,
          "license": null,
          "rightsHolder": "The Trustees of Indiana University"
        }
      }
    },
    {
      "type": "Feature",
      "geometry": {
        "type": "Point",
        "coordinates": [
          -77.983333,
          1.15
        ]
      },
      "properties": {
        "gbifID": "924612948",
        "species": "Solanum splendens",
        "genus": "Solanum",
        "family": "Solanaceae",
        "scientificName": "Cyphomandra hartwegii (Miers) Dunal",
        "coordinateUncertaintyInMeters": "",
        "basisOfRecord": "HUMAN_OBSERVATION",
        "eventDate": "1997-07-01",
        "country": null,
        "datasetName": "",
        "publisher": "Instituto de Investigación de Recursos Biológicos Alexander von Humboldt",
        "license": "CC_BY_NC_4_0",
        "issues": [
          "GEODETIC_DATUM_ASSUMED_WGS84",
          "SCIENTIFIC_NAME_ID_NOT_FOUND"
        ],
        "fallback_media": {
          "url": "http://purl.dlib.indiana.edu/iudl/herbarium/full/IND-0104734",
          "references": null,
          "title": null,
          "creator": null,
          "publisher": null,
          "license": null,
          "rightsHolder": "The Trustees of Indiana University"
        }
      }
    },
    {
      "type": "Feature",
      "geometry": {
        "type": "Point",
        "coordinates": [
          -83.21667,
          8.68333
        ]
      },
      "properties": {
        "gbifID": "1135436609",
        "species": "Solanum splendens",
        "genus": "Solanum",
        "family": "Solanaceae",
        "scientificName": "Cyphomandra hartwegii (Miers) Dunal",
        "coordinateUncertaintyInMeters": "500.0",
        "basisOfRecord": "PRESERVED_SPECIMEN",
        "eventDate": "2000-09-05",
        "country": null,
        "datasetName": "",
        "publisher": "University of Vienna - Herbarium WU",
        "license": "CC_BY_4_0",
        "issues": [
          "CONTINENT_DERIVED_FROM_COORDINATES",
          "INSTITUTION_MATCH_FUZZY",
          "COLLECTION_MATCH_FUZZY"
        ],
        "fallback_media": {
          "url": "http://purl.dlib.indiana.edu/iudl/herbarium/full/IND-0104734",
          "references": null,
          "title": null,
          "creator": null,
          "publisher": null,
          "license": null,
          "rightsHolder": "The Trustees of Indiana University"
        }
      }
    },
    {
      "type": "Feature",
      "geometry": {
        "type": "Point",
        "coordinates": [
          -76.257,
          6.528139
        ]
      },
      "properties": {
        "gbifID": "930996030",
        "species": "Solanum splendens",
        "genus": "Solanum",
        "family": "Solanaceae",
        "scientificName": "Cyphomandra hartwegii (Miers) Dunal",
        "coordinateUncertaintyInMeters": "534.0",
        "basisOfRecord": "PRESERVED_SPECIMEN",
        "eventDate": "2007",
        "country": null,
        "datasetName": "",
        "publisher": "Universidad de Antioquia",
        "license": "CC0_1_0",
        "issues": [
          "RECORDED_DATE_MISMATCH",
          "COORDINATE_ROUNDED",
          "INSTITUTION_MATCH_FUZZY"
        ],
        "fallback_media": {
          "url": "http://purl.dlib.indiana.edu/iudl/herbarium/full/IND-0104734",
          "references": null,
          "title": null,
          "creator": null,
          "publisher": null,
          "license": null,
          "rightsHolder": "The Trustees of Indiana University"
        }
      }
    },
    {
      "type": "Feature",
      "geometry": {
        "type": "Point",
        "coordinates": [
          -74.833333,
          6.483333
        ]
      },
      "properties": {
        "gbifID": "930993520",
        "species": "Solanum splendens",
        "genus": "Solanum",
        "family": "Solanaceae",
        "scientificName": "Cyphomandra hartwegii (Miers) Dunal",
        "coordinateUncertaintyInMeters": "2117.0",
        "basisOfRecord": "PRESERVED_SPECIMEN",
        "eventDate": "2007-05-12",
        "country": null,
        "datasetName": "",
        "publisher": "Universidad de Antioquia",
        "license": "CC0_1_0",
        "issues": [
          "COORDINATE_ROUNDED",
          "INSTITUTION_MATCH_FUZZY"
        ],
        "fallback_media": {
          "url": "http://purl.dlib.indiana.edu/iudl/herbarium/full/IND-0104734",
          "references": null,
          "title": null,
          "creator": null,
          "publisher": null,
          "license": null,
          "rightsHolder": "The Trustees of Indiana University"
        }
      }
    },
    {
      "type": "Feature",
      "geometry": {
        "type": "Point",
        "coordinates": [
          -75.702525,
          5.936472
        ]
      },
      "properties": {
        "gbifID": "930996876",
        "species": "Solanum splendens",
        "genus": "Solanum",
        "family": "Solanaceae",
        "scientificName": "Cyphomandra hartwegii (Miers) Dunal",
        "coordinateUncertaintyInMeters": "2134.0",
        "basisOfRecord": "PRESERVED_SPECIMEN",
        "eventDate": "2003-05-20",
        "country": null,
        "datasetName": "",
        "publisher": "Universidad de Antioquia",
        "license": "CC0_1_0",
        "issues": [
          "COORDINATE_ROUNDED",
          "INSTITUTION_MATCH_FUZZY"
        ],
        "fallback_media": {
          "url": "http://purl.dlib.indiana.edu/iudl/herbarium/full/IND-0104734",
          "references": null,
          "title": null,
          "creator": null,
          "publisher": null,
          "license": null,
          "rightsHolder": "The Trustees of Indiana University"
        }
      }
    },
    {
      "type": "Feature",
      "geometry": {
        "type": "Point",
        "coordinates": [
          -75.17611,
          6.90588
        ]
      },
      "properties": {
        "gbifID": "930996618",
        "species": "Solanum splendens",
        "genus": "Solanum",
        "family": "Solanaceae",
        "scientificName": "Cyphomandra hartwegii (Miers) Dunal",
        "coordinateUncertaintyInMeters": "599.0",
        "basisOfRecord": "PRESERVED_SPECIMEN",
        "eventDate": "2010-03-16",
        "country": null,
        "datasetName": "",
        "publisher": "Universidad de Antioquia",
        "license": "CC0_1_0",
        "issues": [
          "INSTITUTION_MATCH_FUZZY"
        ],
        "fallback_media": {
          "url": "http://purl.dlib.indiana.edu/iudl/herbarium/full/IND-0104734",
          "references": null,
          "title": null,
          "creator": null,
          "publisher": null,
          "license": null,
          "rightsHolder": "The Trustees of Indiana University"
        }
      }
    },
    {
      "type": "Feature",
      "geometry": {
        "type": "Point",
        "coordinates": [
          -83.441667,
          10.033333
        ]
      },
      "properties": {
        "gbifID": "1253710359",
        "species": "Solanum splendens",
        "genus": "Solanum",
        "family": "Solanaceae",
        "scientificName": "Cyphomandra hartwegii (Miers) Dunal",
        "coordinateUncertaintyInMeters": "",
        "basisOfRecord": "PRESERVED_SPECIMEN",
        "eventDate": "1988-09-05",
        "country": null,
        "datasetName": "Atta",
        "publisher": "Instituto Nacional de Biodiversidad (INBio), Costa Rica",
        "license": "CC0_1_0",
        "issues": [
          "IDENTIFIED_DATE_INVALID",
          "COORDINATE_ROUNDED",
          "CONTINENT_DERIVED_FROM_COORDINATES",
          "CONTINENT_INVALID",
          "INSTITUTION_MATCH_FUZZY",
          "COLLECTION_MATCH_NONE",
          "TAXON_ID_NOT_FOUND"
        ],
        "fallback_media": {
          "url": "http://purl.dlib.indiana.edu/iudl/herbarium/full/IND-0104734",
          "references": null,
          "title": null,
          "creator": null,
          "publisher": null,
          "license": null,
          "rightsHolder": "The Trustees of Indiana University"
        }
      }
    },
    {
      "type": "Feature",
      "geometry": {
        "type": "Point",
        "coordinates": [
          -83.583336,
          8.466667
        ]
      },
      "properties": {
        "gbifID": "1253694742",
        "species": "Solanum splendens",
        "genus": "Solanum",
        "family": "Solanaceae",
        "scientificName": "Cyphomandra hartwegii (Miers) Dunal",
        "coordinateUncertaintyInMeters": "",
        "basisOfRecord": "PRESERVED_SPECIMEN",
        "eventDate": "1988-04-08",
        "country": null,
        "datasetName": "Atta",
        "publisher": "Instituto Nacional de Biodiversidad (INBio), Costa Rica",
        "license": "CC0_1_0",
        "issues": [
          "IDENTIFIED_DATE_INVALID",
          "COORDINATE_ROUNDED",
          "CONTINENT_DERIVED_FROM_COORDINATES",
          "CONTINENT_INVALID",
          "INSTITUTION_MATCH_FUZZY",
          "COLLECTION_MATCH_NONE",
          "TAXON_ID_NOT_FOUND"
        ],
        "fallback_media": {
          "url": "http://purl.dlib.indiana.edu/iudl/herbarium/full/IND-0104734",
          "references": null,
          "title": null,
          "creator": null,
          "publisher": null,
          "license": null,
          "rightsHolder": "The Trustees of Indiana University"
        }
      }
    },
    {
      "type": "Feature",
      "geometry": {
        "type": "Point",
        "coordinates": [
          -85.343056,
          10.772222
        ]
      },
      "properties": {
        "gbifID": "1253697985",
        "species": "Solanum splendens",
        "genus": "Solanum",
        "family": "Solanaceae",
        "scientificName": "Cyphomandra hartwegii (Miers) Dunal",
        "coordinateUncertaintyInMeters": "",
        "basisOfRecord": "PRESERVED_SPECIMEN",
        "eventDate": "1990-10-14",
        "country": null,
        "datasetName": "Atta",
        "publisher": "Instituto Nacional de Biodiversidad (INBio), Costa Rica",
        "license": "CC0_1_0",
        "issues": [
          "IDENTIFIED_DATE_INVALID",
          "COORDINATE_ROUNDED",
          "CONTINENT_DERIVED_FROM_COORDINATES",
          "CONTINENT_INVALID",
          "INSTITUTION_MATCH_FUZZY",
          "COLLECTION_MATCH_NONE",
          "TAXON_ID_NOT_FOUND"
        ],
        "fallback_media": {
          "url": "http://purl.dlib.indiana.edu/iudl/herbarium/full/IND-0104734",
          "references": null,
          "title": null,
          "creator": null,
          "publisher": null,
          "license": null,
          "rightsHolder": "The Trustees of Indiana University"
        }
      }
    },
    {
      "type": "Feature",
      "geometry": {
        "type": "Point",
        "coordinates": [
          -85.396667,
          10.884722
        ]
      },
      "properties": {
        "gbifID": "1253692146",
        "species": "Solanum splendens",
        "genus": "Solanum",
        "family": "Solanaceae",
        "scientificName": "Cyphomandra hartwegii (Miers) Dunal",
        "coordinateUncertaintyInMeters": "",
        "basisOfRecord": "PRESERVED_SPECIMEN",
        "eventDate": "1989-05-19",
        "country": null,
        "datasetName": "Atta",
        "publisher": "Instituto Nacional de Biodiversidad (INBio), Costa Rica",
        "license": "CC0_1_0",
        "issues": [
          "IDENTIFIED_DATE_INVALID",
          "COORDINATE_ROUNDED",
          "CONTINENT_DERIVED_FROM_COORDINATES",
          "CONTINENT_INVALID",
          "INSTITUTION_MATCH_FUZZY",
          "COLLECTION_MATCH_NONE",
          "TAXON_ID_NOT_FOUND"
        ],
        "fallback_media": {
          "url": "http://purl.dlib.indiana.edu/iudl/herbarium/full/IND-0104734",
          "references": null,
          "title": null,
          "creator": null,
          "publisher": null,
          "license": null,
          "rightsHolder": "The Trustees of Indiana University"
        }
      }
    },
    {
      "type": "Feature",
      "geometry": {
        "type": "Point",
        "coordinates": [
          -83.339797,
          8.403175
        ]
      },
      "properties": {
        "gbifID": "1253701548",
        "species": "Solanum splendens",
        "genus": "Solanum",
        "family": "Solanaceae",
        "scientificName": "Cyphomandra hartwegii (Miers) Dunal",
        "coordinateUncertaintyInMeters": "",
        "basisOfRecord": "PRESERVED_SPECIMEN",
        "eventDate": "1991-09-09",
        "country": null,
        "datasetName": "Atta",
        "publisher": "Instituto Nacional de Biodiversidad (INBio), Costa Rica",
        "license": "CC0_1_0",
        "issues": [
          "IDENTIFIED_DATE_INVALID",
          "COORDINATE_ROUNDED",
          "CONTINENT_DERIVED_FROM_COORDINATES",
          "CONTINENT_INVALID",
          "INSTITUTION_MATCH_FUZZY",
          "COLLECTION_MATCH_NONE",
          "TAXON_ID_NOT_FOUND"
        ],
        "fallback_media": {
          "url": "http://purl.dlib.indiana.edu/iudl/herbarium/full/IND-0104734",
          "references": null,
          "title": null,
          "creator": null,
          "publisher": null,
          "license": null,
          "rightsHolder": "The Trustees of Indiana University"
        }
      }
    },
    {
      "type": "Feature",
      "geometry": {
        "type": "Point",
        "coordinates": [
          -85.0125,
          10.716667
        ]
      },
      "properties": {
        "gbifID": "1253691452",
        "species": "Solanum splendens",
        "genus": "Solanum",
        "family": "Solanaceae",
        "scientificName": "Cyphomandra hartwegii (Miers) Dunal",
        "coordinateUncertaintyInMeters": "",
        "basisOfRecord": "PRESERVED_SPECIMEN",
        "eventDate": "1988-07-05",
        "country": null,
        "datasetName": "Atta",
        "publisher": "Instituto Nacional de Biodiversidad (INBio), Costa Rica",
        "license": "CC0_1_0",
        "issues": [
          "IDENTIFIED_DATE_INVALID",
          "COORDINATE_ROUNDED",
          "CONTINENT_DERIVED_FROM_COORDINATES",
          "CONTINENT_INVALID",
          "INSTITUTION_MATCH_FUZZY",
          "COLLECTION_MATCH_NONE",
          "TAXON_ID_NOT_FOUND"
        ],
        "fallback_media": {
          "url": "http://purl.dlib.indiana.edu/iudl/herbarium/full/IND-0104734",
          "references": null,
          "title": null,
          "creator": null,
          "publisher": null,
          "license": null,
          "rightsHolder": "The Trustees of Indiana University"
        }
      }
    },
    {
      "type": "Feature",
      "geometry": {
        "type": "Point",
        "coordinates": [
          -83.736112,
          10.643889
        ]
      },
      "properties": {
        "gbifID": "1253702238",
        "species": "Solanum splendens",
        "genus": "Solanum",
        "family": "Solanaceae",
        "scientificName": "Cyphomandra hartwegii (Miers) Dunal",
        "coordinateUncertaintyInMeters": "",
        "basisOfRecord": "PRESERVED_SPECIMEN",
        "eventDate": "1994-01-15",
        "country": null,
        "datasetName": "Atta",
        "publisher": "Instituto Nacional de Biodiversidad (INBio), Costa Rica",
        "license": "CC0_1_0",
        "issues": [
          "IDENTIFIED_DATE_INVALID",
          "COORDINATE_ROUNDED",
          "CONTINENT_DERIVED_FROM_COORDINATES",
          "CONTINENT_INVALID",
          "INSTITUTION_MATCH_FUZZY",
          "COLLECTION_MATCH_NONE",
          "TAXON_ID_NOT_FOUND"
        ],
        "fallback_media": {
          "url": "http://purl.dlib.indiana.edu/iudl/herbarium/full/IND-0104734",
          "references": null,
          "title": null,
          "creator": null,
          "publisher": null,
          "license": null,
          "rightsHolder": "The Trustees of Indiana University"
        }
      }
    },
    {
      "type": "Feature",
      "geometry": {
        "type": "Point",
        "coordinates": [
          -84.85,
          10.366667
        ]
      },
      "properties": {
        "gbifID": "1253688187",
        "species": "Solanum splendens",
        "genus": "Solanum",
        "family": "Solanaceae",
        "scientificName": "Cyphomandra hartwegii (Miers) Dunal",
        "coordinateUncertaintyInMeters": "",
        "basisOfRecord": "PRESERVED_SPECIMEN",
        "eventDate": "1989-04-30",
        "country": null,
        "datasetName": "Atta",
        "publisher": "Instituto Nacional de Biodiversidad (INBio), Costa Rica",
        "license": "CC0_1_0",
        "issues": [
          "IDENTIFIED_DATE_INVALID",
          "COORDINATE_ROUNDED",
          "CONTINENT_DERIVED_FROM_COORDINATES",
          "CONTINENT_INVALID",
          "INSTITUTION_MATCH_FUZZY",
          "COLLECTION_MATCH_NONE",
          "TAXON_ID_NOT_FOUND"
        ],
        "fallback_media": {
          "url": "http://purl.dlib.indiana.edu/iudl/herbarium/full/IND-0104734",
          "references": null,
          "title": null,
          "creator": null,
          "publisher": null,
          "license": null,
          "rightsHolder": "The Trustees of Indiana University"
        }
      }
    },
    {
      "type": "Feature",
      "geometry": {
        "type": "Point",
        "coordinates": [
          -84.396389,
          9.695833
        ]
      },
      "properties": {
        "gbifID": "1253696622",
        "species": "Solanum splendens",
        "genus": "Solanum",
        "family": "Solanaceae",
        "scientificName": "Cyphomandra hartwegii (Miers) Dunal",
        "coordinateUncertaintyInMeters": "",
        "basisOfRecord": "PRESERVED_SPECIMEN",
        "eventDate": "1992-10-21",
        "country": null,
        "datasetName": "Atta",
        "publisher": "Instituto Nacional de Biodiversidad (INBio), Costa Rica",
        "license": "CC0_1_0",
        "issues": [
          "IDENTIFIED_DATE_INVALID",
          "COORDINATE_ROUNDED",
          "CONTINENT_DERIVED_FROM_COORDINATES",
          "CONTINENT_INVALID",
          "INSTITUTION_MATCH_FUZZY",
          "COLLECTION_MATCH_NONE",
          "TAXON_ID_NOT_FOUND"
        ],
        "fallback_media": {
          "url": "http://purl.dlib.indiana.edu/iudl/herbarium/full/IND-0104734",
          "references": null,
          "title": null,
          "creator": null,
          "publisher": null,
          "license": null,
          "rightsHolder": "The Trustees of Indiana University"
        }
      }
    },
    {
      "type": "Feature",
      "geometry": {
        "type": "Point",
        "coordinates": [
          -83.6,
          8.733333
        ]
      },
      "properties": {
        "gbifID": "1253689830",
        "species": "Solanum splendens",
        "genus": "Solanum",
        "family": "Solanaceae",
        "scientificName": "Cyphomandra hartwegii (Miers) Dunal",
        "coordinateUncertaintyInMeters": "",
        "basisOfRecord": "PRESERVED_SPECIMEN",
        "eventDate": "1991-03-28",
        "country": null,
        "datasetName": "Atta",
        "publisher": "Instituto Nacional de Biodiversidad (INBio), Costa Rica",
        "license": "CC0_1_0",
        "issues": [
          "IDENTIFIED_DATE_INVALID",
          "COORDINATE_ROUNDED",
          "CONTINENT_DERIVED_FROM_COORDINATES",
          "CONTINENT_INVALID",
          "INSTITUTION_MATCH_FUZZY",
          "COLLECTION_MATCH_NONE",
          "TAXON_ID_NOT_FOUND"
        ],
        "fallback_media": {
          "url": "http://purl.dlib.indiana.edu/iudl/herbarium/full/IND-0104734",
          "references": null,
          "title": null,
          "creator": null,
          "publisher": null,
          "license": null,
          "rightsHolder": "The Trustees of Indiana University"
        }
      }
    },
    {
      "type": "Feature",
      "geometry": {
        "type": "Point",
        "coordinates": [
          -85.475,
          10.925
        ]
      },
      "properties": {
        "gbifID": "1253693290",
        "species": "Solanum splendens",
        "genus": "Solanum",
        "family": "Solanaceae",
        "scientificName": "Cyphomandra hartwegii (Miers) Dunal",
        "coordinateUncertaintyInMeters": "",
        "basisOfRecord": "PRESERVED_SPECIMEN",
        "eventDate": "1989-07-14",
        "country": null,
        "datasetName": "Atta",
        "publisher": "Instituto Nacional de Biodiversidad (INBio), Costa Rica",
        "license": "CC0_1_0",
        "issues": [
          "IDENTIFIED_DATE_INVALID",
          "COORDINATE_ROUNDED",
          "CONTINENT_DERIVED_FROM_COORDINATES",
          "CONTINENT_INVALID",
          "INSTITUTION_MATCH_FUZZY",
          "COLLECTION_MATCH_NONE",
          "TAXON_ID_NOT_FOUND"
        ],
        "fallback_media": {
          "url": "http://purl.dlib.indiana.edu/iudl/herbarium/full/IND-0104734",
          "references": null,
          "title": null,
          "creator": null,
          "publisher": null,
          "license": null,
          "rightsHolder": "The Trustees of Indiana University"
        }
      }
    },
    {
      "type": "Feature",
      "geometry": {
        "type": "Point",
        "coordinates": [
          -83.522222,
          8.611111
        ]
      },
      "properties": {
        "gbifID": "1253708013",
        "species": "Solanum splendens",
        "genus": "Solanum",
        "family": "Solanaceae",
        "scientificName": "Cyphomandra hartwegii (Miers) Dunal",
        "coordinateUncertaintyInMeters": "",
        "basisOfRecord": "PRESERVED_SPECIMEN",
        "eventDate": "1991-01-13",
        "country": null,
        "datasetName": "Atta",
        "publisher": "Instituto Nacional de Biodiversidad (INBio), Costa Rica",
        "license": "CC0_1_0",
        "issues": [
          "IDENTIFIED_DATE_INVALID",
          "COORDINATE_ROUNDED",
          "CONTINENT_DERIVED_FROM_COORDINATES",
          "CONTINENT_INVALID",
          "INSTITUTION_MATCH_FUZZY",
          "COLLECTION_MATCH_NONE",
          "TAXON_ID_NOT_FOUND"
        ],
        "fallback_media": {
          "url": "http://purl.dlib.indiana.edu/iudl/herbarium/full/IND-0104734",
          "references": null,
          "title": null,
          "creator": null,
          "publisher": null,
          "license": null,
          "rightsHolder": "The Trustees of Indiana University"
        }
      }
    },
    {
      "type": "Feature",
      "geometry": {
        "type": "Point",
        "coordinates": [
          -85.486389,
          10.893889
        ]
      },
      "properties": {
        "gbifID": "1253699640",
        "species": "Solanum splendens",
        "genus": "Solanum",
        "family": "Solanaceae",
        "scientificName": "Cyphomandra hartwegii (Miers) Dunal",
        "coordinateUncertaintyInMeters": "",
        "basisOfRecord": "PRESERVED_SPECIMEN",
        "eventDate": "1990-06-02",
        "country": null,
        "datasetName": "Atta",
        "publisher": "Instituto Nacional de Biodiversidad (INBio), Costa Rica",
        "license": "CC0_1_0",
        "issues": [
          "IDENTIFIED_DATE_INVALID",
          "COORDINATE_ROUNDED",
          "CONTINENT_DERIVED_FROM_COORDINATES",
          "CONTINENT_INVALID",
          "INSTITUTION_MATCH_FUZZY",
          "COLLECTION_MATCH_NONE",
          "TAXON_ID_NOT_FOUND"
        ],
        "fallback_media": {
          "url": "http://purl.dlib.indiana.edu/iudl/herbarium/full/IND-0104734",
          "references": null,
          "title": null,
          "creator": null,
          "publisher": null,
          "license": null,
          "rightsHolder": "The Trustees of Indiana University"
        }
      }
    },
    {
      "type": "Feature",
      "geometry": {
        "type": "Point",
        "coordinates": [
          -76.6167,
          -0.55
        ]
      },
      "properties": {
        "gbifID": "4077762951",
        "species": "Solanum splendens",
        "genus": "Solanum",
        "family": "Solanaceae",
        "scientificName": "Cyphomandra hartwegii (Miers) Dunal",
        "coordinateUncertaintyInMeters": "",
        "basisOfRecord": "PRESERVED_SPECIMEN",
        "eventDate": "1991-10-19",
        "country": null,
        "datasetName": "UNL:HERBARIO LOJA:ESPECIMEN PRERSERVADO",
        "publisher": "Herbario Reinado Espinosa (Herbario LOJA) de la Universidad Nacional de Loja",
        "license": "CC_BY_NC_4_0",
        "issues": [
          "RECORDED_DATE_INVALID",
          "TAXON_ID_NOT_FOUND"
        ],
        "fallback_media": {
          "url": "http://purl.dlib.indiana.edu/iudl/herbarium/full/IND-0104734",
          "references": null,
          "title": null,
          "creator": null,
          "publisher": null,
          "license": null,
          "rightsHolder": "The Trustees of Indiana University"
        }
      }
    }
  ]
}
