{
  "type": "FeatureCollection",
  "metadata": {
    "host_taxon": {
      "canonical_name": "Passiflora lancifolia",
      "rank": "species",
      "family": "Passifloraceae",
      "genus": "Passiflora",
      "species": "Passiflora lancifolia",
      "slug": "species_passiflora_lancifolia",
      "resolvable_to_gbif": true,
      "use_for_default_download": true,
      "association_count": 1,
      "butterfly_taxa": [
        "Dryas iulia"
      ],
      "confidence_counts": {
        "medium": 1
      },
      "occurrence_file": "occurrences/species_passiflora_lancifolia.geojson",
      "gbif_resolution": {
        "query": "Passiflora lancifolia",
        "rank": "species",
        "status": "resolved",
        "gbif_taxon_key": 8228431,
        "accepted_usage_key": null,
        "scientific_name": "Passiflora lancifolia Desv. ex Ham.",
        "canonical_name": "Passiflora lancifolia",
        "gbif_rank": "SPECIES",
        "taxonomic_status": "ACCEPTED",
        "match_type": "EXACT",
        "confidence": 99,
        "kingdom": "Plantae",
        "family": "Passifloraceae",
        "genus": "Passiflora",
        "resolved_at": "2026-05-21T03:58:26+00:00"
      },
      "gbif_taxon_key": 8228431,
      "gbif_status": "resolved",
      "occurrence_count": 0,
      "occurrence_mode": "not_generated",
      "occurrence_cap": null
    },
    "gbif_resolution": {
      "query": "Passiflora lancifolia",
      "rank": "species",
      "status": "resolved",
      "gbif_taxon_key": 8228431,
      "accepted_usage_key": null,
      "scientific_name": "Passiflora lancifolia Desv. ex Ham.",
      "canonical_name": "Passiflora lancifolia",
      "gbif_rank": "SPECIES",
      "taxonomic_status": "ACCEPTED",
      "match_type": "EXACT",
      "confidence": 99,
      "kingdom": "Plantae",
      "family": "Passifloraceae",
      "genus": "Passiflora",
      "resolved_at": "2026-05-21T03:58:26+00:00"
    },
    "occurrence_query": {
      "method": "gbif_download_api",
      "download_key": "0004690-260519110011954",
      "download_doi": "10.15468/dl.s2gcc3",
      "download_doi_url": "https://doi.org/10.15468/dl.s2gcc3",
      "limit": null,
      "dedupe": "Exact duplicate coordinates removed per taxon after DWCA download.",
      "filters": "GBIF Download API DWCA with TAXON_KEY, HAS_COORDINATE=true, HAS_GEOSPATIAL_ISSUE=false, OCCURRENCE_STATUS=PRESENT; app study extent and coordinate uncertainty <=100km applied locally.",
      "returned_unique_coordinate_records": 12
    },
    "scientific_caveat": "GBIF plant occurrences are sampling-biased context records and do not prove local host use or ecological availability for the butterfly.",
    "generated_at": "2026-05-21T15:57:20+00:00"
  },
  "features": [
    {
      "type": "Feature",
      "geometry": {
        "type": "Point",
        "coordinates": [
          -76.6,
          18.016667
        ]
      },
      "properties": {
        "gbifID": "4031471843",
        "species": "Passiflora lancifolia",
        "genus": "Passiflora",
        "family": "Passifloraceae",
        "scientificName": "Passiflora lancifolia Desv. ex Ham.",
        "coordinateUncertaintyInMeters": "",
        "basisOfRecord": "PRESERVED_SPECIMEN",
        "eventDate": "1973-09-12",
        "country": null,
        "datasetName": "Tropicos",
        "publisher": "Missouri Botanical Garden",
        "license": "CC_BY_4_0",
        "issues": [
          "OCCURRENCE_STATUS_INFERRED_FROM_INDIVIDUAL_COUNT",
          "COORDINATE_ROUNDED",
          "COUNTRY_MISMATCH",
          "GEODETIC_DATUM_ASSUMED_WGS84",
          "INSTITUTION_MATCH_FUZZY",
          "COLLECTION_MATCH_NONE",
          "TAXON_ID_NOT_FOUND"
        ],
        "media": [
          {
            "url": "https://images.mobot.org/RISScanning04/detailImages/RISScanning04/103887000/426A8958-3463-4E76-A577-2275382084BA.jpg",
            "references": "https://www.tropicos.org/ImageFullView.aspx?imageid=103887233",
            "title": "Proctor - 33513 - Caribbean",
            "creator": "MBG",
            "publisher": null,
            "license": "http://creativecommons.org/licenses/by-nc-sa/3.0/",
            "rightsHolder": "MBG"
          }
        ]
      }
    },
    {
      "type": "Feature",
      "geometry": {
        "type": "Point",
        "coordinates": [
          -76.676655,
          18.083866
        ]
      },
      "properties": {
        "gbifID": "1930828992",
        "species": "Passiflora lancifolia",
        "genus": "Passiflora",
        "family": "Passifloraceae",
        "scientificName": "Passiflora lancifolia Desv. ex Ham.",
        "coordinateUncertaintyInMeters": "",
        "basisOfRecord": "PRESERVED_SPECIMEN",
        "eventDate": "1906-09-10",
        "country": null,
        "datasetName": "Vascular plants",
        "publisher": "The New York Botanical Garden",
        "license": "CC0_1_0",
        "issues": [
          "MODIFIED_DATE_INVALID"
        ],
        "media": [
          {
            "url": "http://sweetgum.nybg.org/images3/631/035/01444603.jpg",
            "references": null,
            "title": null,
            "creator": "The New York Botanical Garden",
            "publisher": null,
            "license": "http://creativecommons.org/licenses/by/4.0/",
            "rightsHolder": "The New York Botanical Garden"
          }
        ]
      }
    },
    {
      "type": "Feature",
      "geometry": {
        "type": "Point",
        "coordinates": [
          -76.616667,
          17.966667
        ]
      },
      "properties": {
        "gbifID": "1257552233",
        "species": "Passiflora lancifolia",
        "genus": "Passiflora",
        "family": "Passifloraceae",
        "scientificName": "Passiflora lancifolia Desv. ex Ham.",
        "coordinateUncertaintyInMeters": "",
        "basisOfRecord": "PRESERVED_SPECIMEN",
        "eventDate": "",
        "country": null,
        "datasetName": "Tropicos",
        "publisher": "Missouri Botanical Garden",
        "license": "CC_BY_4_0",
        "issues": [
          "OCCURRENCE_STATUS_INFERRED_FROM_INDIVIDUAL_COUNT",
          "COORDINATE_ROUNDED",
          "COUNTRY_MISMATCH",
          "GEODETIC_DATUM_ASSUMED_WGS84",
          "AMBIGUOUS_INSTITUTION",
          "TAXON_ID_NOT_FOUND"
        ],
        "fallback_media": {
          "url": "https://inaturalist-open-data.s3.amazonaws.com/photos/381721875/original.jpg",
          "references": "https://www.inaturalist.org/photos/381721875",
          "title": null,
          "creator": "J.R. Kuethe",
          "publisher": "iNaturalist",
          "license": "http://creativecommons.org/licenses/by-nc/4.0/",
          "rightsHolder": "J.R. Kuethe"
        }
      }
    },
    {
      "type": "Feature",
      "geometry": {
        "type": "Point",
        "coordinates": [
          -76.583333,
          17.983333
        ]
      },
      "properties": {
        "gbifID": "1257552273",
        "species": "Passiflora lancifolia",
        "genus": "Passiflora",
        "family": "Passifloraceae",
        "scientificName": "Passiflora lancifolia Desv. ex Ham.",
        "coordinateUncertaintyInMeters": "",
        "basisOfRecord": "PRESERVED_SPECIMEN",
        "eventDate": "",
        "country": null,
        "datasetName": "Tropicos",
        "publisher": "Missouri Botanical Garden",
        "license": "CC_BY_4_0",
        "issues": [
          "OCCURRENCE_STATUS_INFERRED_FROM_INDIVIDUAL_COUNT",
          "COORDINATE_ROUNDED",
          "COUNTRY_MISMATCH",
          "GEODETIC_DATUM_ASSUMED_WGS84",
          "AMBIGUOUS_INSTITUTION",
          "TAXON_ID_NOT_FOUND"
        ],
        "fallback_media": {
          "url": "https://inaturalist-open-data.s3.amazonaws.com/photos/381721875/original.jpg",
          "references": "https://www.inaturalist.org/photos/381721875",
          "title": null,
          "creator": "J.R. Kuethe",
          "publisher": "iNaturalist",
          "license": "http://creativecommons.org/licenses/by-nc/4.0/",
          "rightsHolder": "J.R. Kuethe"
        }
      }
    },
    {
      "type": "Feature",
      "geometry": {
        "type": "Point",
        "coordinates": [
          -76.716667,
          18.133333
        ]
      },
      "properties": {
        "gbifID": "1257552224",
        "species": "Passiflora lancifolia",
        "genus": "Passiflora",
        "family": "Passifloraceae",
        "scientificName": "Passiflora lancifolia Desv. ex Ham.",
        "coordinateUncertaintyInMeters": "",
        "basisOfRecord": "PRESERVED_SPECIMEN",
        "eventDate": "",
        "country": null,
        "datasetName": "Tropicos",
        "publisher": "Missouri Botanical Garden",
        "license": "CC_BY_4_0",
        "issues": [
          "OCCURRENCE_STATUS_INFERRED_FROM_INDIVIDUAL_COUNT",
          "COORDINATE_ROUNDED",
          "COUNTRY_MISMATCH",
          "GEODETIC_DATUM_ASSUMED_WGS84",
          "INSTITUTION_MATCH_FUZZY",
          "COLLECTION_MATCH_NONE",
          "TAXON_ID_NOT_FOUND"
        ],
        "fallback_media": {
          "url": "https://inaturalist-open-data.s3.amazonaws.com/photos/381721875/original.jpg",
          "references": "https://www.inaturalist.org/photos/381721875",
          "title": null,
          "creator": "J.R. Kuethe",
          "publisher": "iNaturalist",
          "license": "http://creativecommons.org/licenses/by-nc/4.0/",
          "rightsHolder": "J.R. Kuethe"
        }
      }
    },
    {
      "type": "Feature",
      "geometry": {
        "type": "Point",
        "coordinates": [
          -76.699444,
          18.090833
        ]
      },
      "properties": {
        "gbifID": "1257529441",
        "species": "Passiflora lancifolia",
        "genus": "Passiflora",
        "family": "Passifloraceae",
        "scientificName": "Passiflora lancifolia Desv. ex Ham.",
        "coordinateUncertaintyInMeters": "",
        "basisOfRecord": "PRESERVED_SPECIMEN",
        "eventDate": "2000-06-16",
        "country": null,
        "datasetName": "Tropicos",
        "publisher": "Missouri Botanical Garden",
        "license": "CC_BY_4_0",
        "issues": [
          "OCCURRENCE_STATUS_INFERRED_FROM_INDIVIDUAL_COUNT",
          "COORDINATE_ROUNDED",
          "COUNTRY_MISMATCH",
          "GEODETIC_DATUM_ASSUMED_WGS84",
          "INSTITUTION_MATCH_FUZZY",
          "COLLECTION_MATCH_NONE",
          "TAXON_ID_NOT_FOUND"
        ],
        "fallback_media": {
          "url": "https://inaturalist-open-data.s3.amazonaws.com/photos/381721875/original.jpg",
          "references": "https://www.inaturalist.org/photos/381721875",
          "title": null,
          "creator": "J.R. Kuethe",
          "publisher": "iNaturalist",
          "license": "http://creativecommons.org/licenses/by-nc/4.0/",
          "rightsHolder": "J.R. Kuethe"
        }
      }
    },
    {
      "type": "Feature",
      "geometry": {
        "type": "Point",
        "coordinates": [
          -76.733333,
          18.066667
        ]
      },
      "properties": {
        "gbifID": "1260101522",
        "species": "Passiflora lancifolia",
        "genus": "Passiflora",
        "family": "Passifloraceae",
        "scientificName": "Passiflora lancifolia Desv. ex Ham.",
        "coordinateUncertaintyInMeters": "",
        "basisOfRecord": "PRESERVED_SPECIMEN",
        "eventDate": "",
        "country": null,
        "datasetName": "Tropicos",
        "publisher": "Missouri Botanical Garden",
        "license": "CC_BY_4_0",
        "issues": [
          "OCCURRENCE_STATUS_INFERRED_FROM_INDIVIDUAL_COUNT",
          "COORDINATE_ROUNDED",
          "COUNTRY_MISMATCH",
          "GEODETIC_DATUM_ASSUMED_WGS84",
          "AMBIGUOUS_INSTITUTION",
          "TAXON_ID_NOT_FOUND"
        ],
        "fallback_media": {
          "url": "https://inaturalist-open-data.s3.amazonaws.com/photos/381721875/original.jpg",
          "references": "https://www.inaturalist.org/photos/381721875",
          "title": null,
          "creator": "J.R. Kuethe",
          "publisher": "iNaturalist",
          "license": "http://creativecommons.org/licenses/by-nc/4.0/",
          "rightsHolder": "J.R. Kuethe"
        }
      }
    },
    {
      "type": "Feature",
      "geometry": {
        "type": "Point",
        "coordinates": [
          -76.75,
          18.083333
        ]
      },
      "properties": {
        "gbifID": "1260101435",
        "species": "Passiflora lancifolia",
        "genus": "Passiflora",
        "family": "Passifloraceae",
        "scientificName": "Passiflora lancifolia Desv. ex Ham.",
        "coordinateUncertaintyInMeters": "",
        "basisOfRecord": "PRESERVED_SPECIMEN",
        "eventDate": "1960-10-02",
        "country": null,
        "datasetName": "Tropicos",
        "publisher": "Missouri Botanical Garden",
        "license": "CC_BY_4_0",
        "issues": [
          "OCCURRENCE_STATUS_INFERRED_FROM_INDIVIDUAL_COUNT",
          "COORDINATE_ROUNDED",
          "COUNTRY_MISMATCH",
          "GEODETIC_DATUM_ASSUMED_WGS84",
          "AMBIGUOUS_INSTITUTION",
          "TAXON_ID_NOT_FOUND"
        ],
        "fallback_media": {
          "url": "https://inaturalist-open-data.s3.amazonaws.com/photos/381721875/original.jpg",
          "references": "https://www.inaturalist.org/photos/381721875",
          "title": null,
          "creator": "J.R. Kuethe",
          "publisher": "iNaturalist",
          "license": "http://creativecommons.org/licenses/by-nc/4.0/",
          "rightsHolder": "J.R. Kuethe"
        }
      }
    },
    {
      "type": "Feature",
      "geometry": {
        "type": "Point",
        "coordinates": [
          -76.633333,
          17.966667
        ]
      },
      "properties": {
        "gbifID": "1260101660",
        "species": "Passiflora lancifolia",
        "genus": "Passiflora",
        "family": "Passifloraceae",
        "scientificName": "Passiflora lancifolia Desv. ex Ham.",
        "coordinateUncertaintyInMeters": "",
        "basisOfRecord": "PRESERVED_SPECIMEN",
        "eventDate": "",
        "country": null,
        "datasetName": "Tropicos",
        "publisher": "Missouri Botanical Garden",
        "license": "CC_BY_4_0",
        "issues": [
          "OCCURRENCE_STATUS_INFERRED_FROM_INDIVIDUAL_COUNT",
          "COORDINATE_ROUNDED",
          "COUNTRY_MISMATCH",
          "GEODETIC_DATUM_ASSUMED_WGS84",
          "AMBIGUOUS_INSTITUTION",
          "TAXON_ID_NOT_FOUND"
        ],
        "fallback_media": {
          "url": "https://inaturalist-open-data.s3.amazonaws.com/photos/381721875/original.jpg",
          "references": "https://www.inaturalist.org/photos/381721875",
          "title": null,
          "creator": "J.R. Kuethe",
          "publisher": "iNaturalist",
          "license": "http://creativecommons.org/licenses/by-nc/4.0/",
          "rightsHolder": "J.R. Kuethe"
        }
      }
    },
    {
      "type": "Feature",
      "geometry": {
        "type": "Point",
        "coordinates": [
          -76.716667,
          18.066667
        ]
      },
      "properties": {
        "gbifID": "4061158384",
        "species": "Passiflora lancifolia",
        "genus": "Passiflora",
        "family": "Passifloraceae",
        "scientificName": "Passiflora lancifolia Desv. ex Ham.",
        "coordinateUncertaintyInMeters": "",
        "basisOfRecord": "PRESERVED_SPECIMEN",
        "eventDate": "1959-12-13",
        "country": null,
        "datasetName": "Tropicos",
        "publisher": "Missouri Botanical Garden",
        "license": "CC_BY_4_0",
        "issues": [
          "OCCURRENCE_STATUS_INFERRED_FROM_INDIVIDUAL_COUNT",
          "COORDINATE_ROUNDED",
          "COUNTRY_MISMATCH",
          "GEODETIC_DATUM_ASSUMED_WGS84",
          "AMBIGUOUS_INSTITUTION",
          "TAXON_ID_NOT_FOUND"
        ],
        "fallback_media": {
          "url": "https://inaturalist-open-data.s3.amazonaws.com/photos/381721875/original.jpg",
          "references": "https://www.inaturalist.org/photos/381721875",
          "title": null,
          "creator": "J.R. Kuethe",
          "publisher": "iNaturalist",
          "license": "http://creativecommons.org/licenses/by-nc/4.0/",
          "rightsHolder": "J.R. Kuethe"
        }
      }
    },
    {
      "type": "Feature",
      "geometry": {
        "type": "Point",
        "coordinates": [
          -76.633333,
          18.033333
        ]
      },
      "properties": {
        "gbifID": "1257552202",
        "species": "Passiflora lancifolia",
        "genus": "Passiflora",
        "family": "Passifloraceae",
        "scientificName": "Passiflora lancifolia Desv. ex Ham.",
        "coordinateUncertaintyInMeters": "",
        "basisOfRecord": "PRESERVED_SPECIMEN",
        "eventDate": "",
        "country": null,
        "datasetName": "Tropicos",
        "publisher": "Missouri Botanical Garden",
        "license": "CC_BY_4_0",
        "issues": [
          "OCCURRENCE_STATUS_INFERRED_FROM_INDIVIDUAL_COUNT",
          "COORDINATE_ROUNDED",
          "COUNTRY_MISMATCH",
          "GEODETIC_DATUM_ASSUMED_WGS84",
          "AMBIGUOUS_INSTITUTION",
          "TAXON_ID_NOT_FOUND"
        ],
        "fallback_media": {
          "url": "https://inaturalist-open-data.s3.amazonaws.com/photos/381721875/original.jpg",
          "references": "https://www.inaturalist.org/photos/381721875",
          "title": null,
          "creator": "J.R. Kuethe",
          "publisher": "iNaturalist",
          "license": "http://creativecommons.org/licenses/by-nc/4.0/",
          "rightsHolder": "J.R. Kuethe"
        }
      }
    },
    {
      "type": "Feature",
      "geometry": {
        "type": "Point",
        "coordinates": [
          -77.291486,
          18.140608
        ]
      },
      "properties": {
        "gbifID": "4868038158",
        "species": "Passiflora lancifolia",
        "genus": "Passiflora",
        "family": "Passifloraceae",
        "scientificName": "Passiflora lancifolia Desv. ex Ham.",
        "coordinateUncertaintyInMeters": "62500.0",
        "basisOfRecord": "HUMAN_OBSERVATION",
        "eventDate": "2024-03-01T07:29",
        "country": null,
        "datasetName": "iNaturalist research-grade observations",
        "publisher": "iNaturalist.org",
        "license": "CC_BY_NC_4_0",
        "issues": [
          "COORDINATE_ROUNDED",
          "CONTINENT_DERIVED_FROM_COORDINATES",
          "TAXON_ID_NOT_FOUND"
        ],
        "media": [
          {
            "url": "https://inaturalist-open-data.s3.amazonaws.com/photos/381721875/original.jpg",
            "references": "https://www.inaturalist.org/photos/381721875",
            "title": null,
            "creator": "J.R. Kuethe",
            "publisher": "iNaturalist",
            "license": "http://creativecommons.org/licenses/by-nc/4.0/",
            "rightsHolder": "J.R. Kuethe"
          },
          {
            "url": "https://inaturalist-open-data.s3.amazonaws.com/photos/381721874/original.jpg",
            "references": "https://www.inaturalist.org/photos/381721874",
            "title": null,
            "creator": "J.R. Kuethe",
            "publisher": "iNaturalist",
            "license": "http://creativecommons.org/licenses/by-nc/4.0/",
            "rightsHolder": "J.R. Kuethe"
          },
          {
            "url": "https://inaturalist-open-data.s3.amazonaws.com/photos/381721883/original.jpg",
            "references": "https://www.inaturalist.org/photos/381721883",
            "title": null,
            "creator": "J.R. Kuethe",
            "publisher": "iNaturalist",
            "license": "http://creativecommons.org/licenses/by-nc/4.0/",
            "rightsHolder": "J.R. Kuethe"
          },
          {
            "url": "https://inaturalist-open-data.s3.amazonaws.com/photos/381721869/original.jpg",
            "references": "https://www.inaturalist.org/photos/381721869",
            "title": null,
            "creator": "J.R. Kuethe",
            "publisher": "iNaturalist",
            "license": "http://creativecommons.org/licenses/by-nc/4.0/",
            "rightsHolder": "J.R. Kuethe"
          },
          {
            "url": "https://inaturalist-open-data.s3.amazonaws.com/photos/381721885/original.jpg",
            "references": "https://www.inaturalist.org/photos/381721885",
            "title": null,
            "creator": "J.R. Kuethe",
            "publisher": "iNaturalist",
            "license": "http://creativecommons.org/licenses/by-nc/4.0/",
            "rightsHolder": "J.R. Kuethe"
          }
        ]
      }
    }
  ]
}
