{
  "type": "FeatureCollection",
  "metadata": {
    "host_taxon": {
      "canonical_name": "Solanum pertenue",
      "rank": "species",
      "family": "Solanaceae",
      "genus": "Solanum",
      "species": "Solanum pertenue",
      "slug": "species_solanum_pertenue",
      "resolvable_to_gbif": true,
      "use_for_default_download": true,
      "association_count": 2,
      "butterfly_taxa": [
        "Pteronymia artena",
        "Pteronymia simplex"
      ],
      "confidence_counts": {
        "medium": 2
      },
      "occurrence_file": "occurrences/species_solanum_pertenue.geojson",
      "gbif_resolution": {
        "query": "Solanum pertenue",
        "rank": "species",
        "status": "resolved",
        "gbif_taxon_key": 2929419,
        "accepted_usage_key": null,
        "scientific_name": "Solanum pertenue Standl. & C.V.Morton",
        "canonical_name": "Solanum pertenue",
        "gbif_rank": "SPECIES",
        "taxonomic_status": "ACCEPTED",
        "match_type": "EXACT",
        "confidence": 100,
        "kingdom": "Plantae",
        "family": "Solanaceae",
        "genus": "Solanum",
        "resolved_at": "2026-05-21T04:00:32+00:00"
      },
      "gbif_taxon_key": 2929419,
      "gbif_status": "resolved",
      "occurrence_count": 0,
      "occurrence_mode": "not_generated",
      "occurrence_cap": null
    },
    "gbif_resolution": {
      "query": "Solanum pertenue",
      "rank": "species",
      "status": "resolved",
      "gbif_taxon_key": 2929419,
      "accepted_usage_key": null,
      "scientific_name": "Solanum pertenue Standl. & C.V.Morton",
      "canonical_name": "Solanum pertenue",
      "gbif_rank": "SPECIES",
      "taxonomic_status": "ACCEPTED",
      "match_type": "EXACT",
      "confidence": 100,
      "kingdom": "Plantae",
      "family": "Solanaceae",
      "genus": "Solanum",
      "resolved_at": "2026-05-21T04:00:32+00:00"
    },
    "occurrence_query": {
      "method": "gbif_download_api",
      "download_key": "0004690-260519110011954",
      "download_doi": "10.15468/dl.s2gcc3",
      "download_doi_url": "https://doi.org/10.15468/dl.s2gcc3",
      "limit": null,
      "dedupe": "Exact duplicate coordinates removed per taxon after DWCA download.",
      "filters": "GBIF Download API DWCA with TAXON_KEY, HAS_COORDINATE=true, HAS_GEOSPATIAL_ISSUE=false, OCCURRENCE_STATUS=PRESENT; app study extent and coordinate uncertainty <=100km applied locally.",
      "returned_unique_coordinate_records": 42
    },
    "scientific_caveat": "GBIF plant occurrences are sampling-biased context records and do not prove local host use or ecological availability for the butterfly.",
    "generated_at": "2026-05-21T15:57:23+00:00"
  },
  "features": [
    {
      "type": "Feature",
      "geometry": {
        "type": "Point",
        "coordinates": [
          -83.338047,
          9.071764
        ]
      },
      "properties": {
        "gbifID": "1089171721",
        "species": "Solanum pertenue",
        "genus": "Solanum",
        "family": "Solanaceae",
        "scientificName": "Solanum pertenue Standl. & C.V.Morton",
        "coordinateUncertaintyInMeters": "",
        "basisOfRecord": "PRESERVED_SPECIMEN",
        "eventDate": "2000-05-06",
        "country": null,
        "datasetName": "",
        "publisher": "Universidade Federal da Paraíba",
        "license": "CC_BY_4_0",
        "issues": [
          "CONTINENT_COORDINATE_MISMATCH",
          "CONTINENT_COUNTRY_MISMATCH",
          "INSTITUTION_MATCH_FUZZY",
          "INSTITUTION_COLLECTION_MISMATCH"
        ],
        "fallback_media": {
          "url": "https://image.bgbm.org/images/internal/HerbarThumbs/B101144540_1700",
          "references": "https://herbarium.bgbm.org/object/B101144540",
          "title": null,
          "creator": null,
          "publisher": null,
          "license": "Partial images provided by this server are released under the Creative Commons cc-by-sa 3.0 (generic) licence [https://creativecommons.org/licenses/by-sa/3.0/de/]. Please credit images to BGBM following our citation guidelines [https://ww2.bgbm.org/Herbarium/cite.cfm]. If you would like to use images in a format or resolution which is not provided here, please contact us (d.roepert[at]bgbm.org).",
          "rightsHolder": null
        }
      }
    },
    {
      "type": "Feature",
      "geometry": {
        "type": "Point",
        "coordinates": [
          -82.766667,
          8.9
        ]
      },
      "properties": {
        "gbifID": "1089171722",
        "species": "Solanum pertenue",
        "genus": "Solanum",
        "family": "Solanaceae",
        "scientificName": "Solanum pertenue Standl. & C.V.Morton",
        "coordinateUncertaintyInMeters": "",
        "basisOfRecord": "PRESERVED_SPECIMEN",
        "eventDate": "2002-07-15",
        "country": null,
        "datasetName": "",
        "publisher": "Universidade Federal da Paraíba",
        "license": "CC_BY_4_0",
        "issues": [
          "CONTINENT_COORDINATE_MISMATCH",
          "CONTINENT_COUNTRY_MISMATCH",
          "INSTITUTION_MATCH_FUZZY",
          "INSTITUTION_COLLECTION_MISMATCH"
        ],
        "fallback_media": {
          "url": "https://image.bgbm.org/images/internal/HerbarThumbs/B101144540_1700",
          "references": "https://herbarium.bgbm.org/object/B101144540",
          "title": null,
          "creator": null,
          "publisher": null,
          "license": "Partial images provided by this server are released under the Creative Commons cc-by-sa 3.0 (generic) licence [https://creativecommons.org/licenses/by-sa/3.0/de/]. Please credit images to BGBM following our citation guidelines [https://ww2.bgbm.org/Herbarium/cite.cfm]. If you would like to use images in a format or resolution which is not provided here, please contact us (d.roepert[at]bgbm.org).",
          "rightsHolder": null
        }
      }
    },
    {
      "type": "Feature",
      "geometry": {
        "type": "Point",
        "coordinates": [
          -84.75,
          10.29
        ]
      },
      "properties": {
        "gbifID": "1258739685",
        "species": "Solanum pertenue",
        "genus": "Solanum",
        "family": "Solanaceae",
        "scientificName": "Solanum pertenue Standl. & C.V.Morton",
        "coordinateUncertaintyInMeters": "",
        "basisOfRecord": "PRESERVED_SPECIMEN",
        "eventDate": "1995-04-04",
        "country": null,
        "datasetName": "Tropicos",
        "publisher": "Missouri Botanical Garden",
        "license": "CC_BY_4_0",
        "issues": [
          "OCCURRENCE_STATUS_INFERRED_FROM_INDIVIDUAL_COUNT",
          "GEODETIC_DATUM_ASSUMED_WGS84",
          "INSTITUTION_MATCH_FUZZY",
          "COLLECTION_MATCH_NONE",
          "TAXON_ID_NOT_FOUND"
        ],
        "fallback_media": {
          "url": "https://image.bgbm.org/images/internal/HerbarThumbs/B101144540_1700",
          "references": "https://herbarium.bgbm.org/object/B101144540",
          "title": null,
          "creator": null,
          "publisher": null,
          "license": "Partial images provided by this server are released under the Creative Commons cc-by-sa 3.0 (generic) licence [https://creativecommons.org/licenses/by-sa/3.0/de/]. Please credit images to BGBM following our citation guidelines [https://ww2.bgbm.org/Herbarium/cite.cfm]. If you would like to use images in a format or resolution which is not provided here, please contact us (d.roepert[at]bgbm.org).",
          "rightsHolder": null
        }
      }
    },
    {
      "type": "Feature",
      "geometry": {
        "type": "Point",
        "coordinates": [
          -83.316667,
          9.75
        ]
      },
      "properties": {
        "gbifID": "1258739750",
        "species": "Solanum pertenue",
        "genus": "Solanum",
        "family": "Solanaceae",
        "scientificName": "Solanum pertenue Standl. & C.V.Morton",
        "coordinateUncertaintyInMeters": "",
        "basisOfRecord": "PRESERVED_SPECIMEN",
        "eventDate": "1995-08-18",
        "country": null,
        "datasetName": "Tropicos",
        "publisher": "Missouri Botanical Garden",
        "license": "CC_BY_4_0",
        "issues": [
          "OCCURRENCE_STATUS_INFERRED_FROM_INDIVIDUAL_COUNT",
          "COORDINATE_ROUNDED",
          "GEODETIC_DATUM_ASSUMED_WGS84",
          "INSTITUTION_MATCH_FUZZY",
          "COLLECTION_MATCH_NONE",
          "TAXON_ID_NOT_FOUND"
        ],
        "fallback_media": {
          "url": "https://image.bgbm.org/images/internal/HerbarThumbs/B101144540_1700",
          "references": "https://herbarium.bgbm.org/object/B101144540",
          "title": null,
          "creator": null,
          "publisher": null,
          "license": "Partial images provided by this server are released under the Creative Commons cc-by-sa 3.0 (generic) licence [https://creativecommons.org/licenses/by-sa/3.0/de/]. Please credit images to BGBM following our citation guidelines [https://ww2.bgbm.org/Herbarium/cite.cfm]. If you would like to use images in a format or resolution which is not provided here, please contact us (d.roepert[at]bgbm.org).",
          "rightsHolder": null
        }
      }
    },
    {
      "type": "Feature",
      "geometry": {
        "type": "Point",
        "coordinates": [
          -82.233333,
          8.716667
        ]
      },
      "properties": {
        "gbifID": "1259828508",
        "species": "Solanum pertenue",
        "genus": "Solanum",
        "family": "Solanaceae",
        "scientificName": "Solanum pertenue Standl. & C.V.Morton",
        "coordinateUncertaintyInMeters": "",
        "basisOfRecord": "PRESERVED_SPECIMEN",
        "eventDate": "1982-06-17",
        "country": null,
        "datasetName": "Tropicos",
        "publisher": "Missouri Botanical Garden",
        "license": "CC_BY_4_0",
        "issues": [
          "OCCURRENCE_STATUS_INFERRED_FROM_INDIVIDUAL_COUNT",
          "COORDINATE_ROUNDED",
          "GEODETIC_DATUM_ASSUMED_WGS84",
          "INSTITUTION_MATCH_FUZZY",
          "COLLECTION_MATCH_NONE",
          "TAXON_ID_NOT_FOUND"
        ],
        "fallback_media": {
          "url": "https://image.bgbm.org/images/internal/HerbarThumbs/B101144540_1700",
          "references": "https://herbarium.bgbm.org/object/B101144540",
          "title": null,
          "creator": null,
          "publisher": null,
          "license": "Partial images provided by this server are released under the Creative Commons cc-by-sa 3.0 (generic) licence [https://creativecommons.org/licenses/by-sa/3.0/de/]. Please credit images to BGBM following our citation guidelines [https://ww2.bgbm.org/Herbarium/cite.cfm]. If you would like to use images in a format or resolution which is not provided here, please contact us (d.roepert[at]bgbm.org).",
          "rightsHolder": null
        }
      }
    },
    {
      "type": "Feature",
      "geometry": {
        "type": "Point",
        "coordinates": [
          -82.961111,
          9.025
        ]
      },
      "properties": {
        "gbifID": "4032122447",
        "species": "Solanum pertenue",
        "genus": "Solanum",
        "family": "Solanaceae",
        "scientificName": "Solanum pertenue Standl. & C.V.Morton",
        "coordinateUncertaintyInMeters": "",
        "basisOfRecord": "PRESERVED_SPECIMEN",
        "eventDate": "1995-01-30",
        "country": null,
        "datasetName": "Tropicos",
        "publisher": "Missouri Botanical Garden",
        "license": "CC_BY_4_0",
        "issues": [
          "OCCURRENCE_STATUS_INFERRED_FROM_INDIVIDUAL_COUNT",
          "COORDINATE_ROUNDED",
          "GEODETIC_DATUM_ASSUMED_WGS84",
          "INSTITUTION_MATCH_FUZZY",
          "COLLECTION_MATCH_NONE",
          "TAXON_ID_NOT_FOUND"
        ],
        "fallback_media": {
          "url": "https://image.bgbm.org/images/internal/HerbarThumbs/B101144540_1700",
          "references": "https://herbarium.bgbm.org/object/B101144540",
          "title": null,
          "creator": null,
          "publisher": null,
          "license": "Partial images provided by this server are released under the Creative Commons cc-by-sa 3.0 (generic) licence [https://creativecommons.org/licenses/by-sa/3.0/de/]. Please credit images to BGBM following our citation guidelines [https://ww2.bgbm.org/Herbarium/cite.cfm]. If you would like to use images in a format or resolution which is not provided here, please contact us (d.roepert[at]bgbm.org).",
          "rightsHolder": null
        }
      }
    },
    {
      "type": "Feature",
      "geometry": {
        "type": "Point",
        "coordinates": [
          -84.8,
          10.33333
        ]
      },
      "properties": {
        "gbifID": "1259412762",
        "species": "Solanum pertenue",
        "genus": "Solanum",
        "family": "Solanaceae",
        "scientificName": "Solanum pertenue Standl. & C.V.Morton",
        "coordinateUncertaintyInMeters": "",
        "basisOfRecord": "PRESERVED_SPECIMEN",
        "eventDate": "1974-08-24",
        "country": null,
        "datasetName": "Tropicos",
        "publisher": "Missouri Botanical Garden",
        "license": "CC_BY_4_0",
        "issues": [
          "GEODETIC_DATUM_ASSUMED_WGS84",
          "INSTITUTION_MATCH_FUZZY",
          "COLLECTION_MATCH_NONE",
          "TAXON_ID_NOT_FOUND"
        ],
        "fallback_media": {
          "url": "https://image.bgbm.org/images/internal/HerbarThumbs/B101144540_1700",
          "references": "https://herbarium.bgbm.org/object/B101144540",
          "title": null,
          "creator": null,
          "publisher": null,
          "license": "Partial images provided by this server are released under the Creative Commons cc-by-sa 3.0 (generic) licence [https://creativecommons.org/licenses/by-sa/3.0/de/]. Please credit images to BGBM following our citation guidelines [https://ww2.bgbm.org/Herbarium/cite.cfm]. If you would like to use images in a format or resolution which is not provided here, please contact us (d.roepert[at]bgbm.org).",
          "rightsHolder": null
        }
      }
    },
    {
      "type": "Feature",
      "geometry": {
        "type": "Point",
        "coordinates": [
          -83.99722,
          9.886111
        ]
      },
      "properties": {
        "gbifID": "4031719141",
        "species": "Solanum pertenue",
        "genus": "Solanum",
        "family": "Solanaceae",
        "scientificName": "Solanum pertenue Standl. & C.V.Morton",
        "coordinateUncertaintyInMeters": "",
        "basisOfRecord": "PRESERVED_SPECIMEN",
        "eventDate": "2008-07-21",
        "country": null,
        "datasetName": "Tropicos",
        "publisher": "Missouri Botanical Garden",
        "license": "CC_BY_4_0",
        "issues": [
          "OCCURRENCE_STATUS_INFERRED_FROM_INDIVIDUAL_COUNT",
          "COORDINATE_ROUNDED",
          "GEODETIC_DATUM_ASSUMED_WGS84",
          "INSTITUTION_MATCH_FUZZY",
          "COLLECTION_MATCH_NONE",
          "TAXON_ID_NOT_FOUND"
        ],
        "fallback_media": {
          "url": "https://image.bgbm.org/images/internal/HerbarThumbs/B101144540_1700",
          "references": "https://herbarium.bgbm.org/object/B101144540",
          "title": null,
          "creator": null,
          "publisher": null,
          "license": "Partial images provided by this server are released under the Creative Commons cc-by-sa 3.0 (generic) licence [https://creativecommons.org/licenses/by-sa/3.0/de/]. Please credit images to BGBM following our citation guidelines [https://ww2.bgbm.org/Herbarium/cite.cfm]. If you would like to use images in a format or resolution which is not provided here, please contact us (d.roepert[at]bgbm.org).",
          "rightsHolder": null
        }
      }
    },
    {
      "type": "Feature",
      "geometry": {
        "type": "Point",
        "coordinates": [
          -84.8,
          10.3
        ]
      },
      "properties": {
        "gbifID": "1262241005",
        "species": "Solanum pertenue",
        "genus": "Solanum",
        "family": "Solanaceae",
        "scientificName": "Solanum pertenue Standl. & C.V.Morton",
        "coordinateUncertaintyInMeters": "",
        "basisOfRecord": "PRESERVED_SPECIMEN",
        "eventDate": "1989-07-13",
        "country": null,
        "datasetName": "Tropicos",
        "publisher": "Missouri Botanical Garden",
        "license": "CC_BY_4_0",
        "issues": [
          "OCCURRENCE_STATUS_INFERRED_FROM_INDIVIDUAL_COUNT",
          "GEODETIC_DATUM_ASSUMED_WGS84",
          "INSTITUTION_MATCH_FUZZY",
          "COLLECTION_MATCH_NONE",
          "TAXON_ID_NOT_FOUND"
        ],
        "fallback_media": {
          "url": "https://image.bgbm.org/images/internal/HerbarThumbs/B101144540_1700",
          "references": "https://herbarium.bgbm.org/object/B101144540",
          "title": null,
          "creator": null,
          "publisher": null,
          "license": "Partial images provided by this server are released under the Creative Commons cc-by-sa 3.0 (generic) licence [https://creativecommons.org/licenses/by-sa/3.0/de/]. Please credit images to BGBM following our citation guidelines [https://ww2.bgbm.org/Herbarium/cite.cfm]. If you would like to use images in a format or resolution which is not provided here, please contact us (d.roepert[at]bgbm.org).",
          "rightsHolder": null
        }
      }
    },
    {
      "type": "Feature",
      "geometry": {
        "type": "Point",
        "coordinates": [
          -84.81,
          10.3
        ]
      },
      "properties": {
        "gbifID": "4031924105",
        "species": "Solanum pertenue",
        "genus": "Solanum",
        "family": "Solanaceae",
        "scientificName": "Solanum pertenue Standl. & C.V.Morton",
        "coordinateUncertaintyInMeters": "",
        "basisOfRecord": "PRESERVED_SPECIMEN",
        "eventDate": "1995-01-14",
        "country": null,
        "datasetName": "Tropicos",
        "publisher": "Missouri Botanical Garden",
        "license": "CC_BY_4_0",
        "issues": [
          "OCCURRENCE_STATUS_INFERRED_FROM_INDIVIDUAL_COUNT",
          "GEODETIC_DATUM_ASSUMED_WGS84",
          "INSTITUTION_MATCH_FUZZY",
          "COLLECTION_MATCH_NONE",
          "TAXON_ID_NOT_FOUND"
        ],
        "fallback_media": {
          "url": "https://image.bgbm.org/images/internal/HerbarThumbs/B101144540_1700",
          "references": "https://herbarium.bgbm.org/object/B101144540",
          "title": null,
          "creator": null,
          "publisher": null,
          "license": "Partial images provided by this server are released under the Creative Commons cc-by-sa 3.0 (generic) licence [https://creativecommons.org/licenses/by-sa/3.0/de/]. Please credit images to BGBM following our citation guidelines [https://ww2.bgbm.org/Herbarium/cite.cfm]. If you would like to use images in a format or resolution which is not provided here, please contact us (d.roepert[at]bgbm.org).",
          "rightsHolder": null
        }
      }
    },
    {
      "type": "Feature",
      "geometry": {
        "type": "Point",
        "coordinates": [
          -83.8625,
          9.561578
        ]
      },
      "properties": {
        "gbifID": "1257836521",
        "species": "Solanum pertenue",
        "genus": "Solanum",
        "family": "Solanaceae",
        "scientificName": "Solanum pertenue Standl. & C.V.Morton",
        "coordinateUncertaintyInMeters": "",
        "basisOfRecord": "PRESERVED_SPECIMEN",
        "eventDate": "2005-06-10",
        "country": null,
        "datasetName": "Tropicos",
        "publisher": "Missouri Botanical Garden",
        "license": "CC_BY_4_0",
        "issues": [
          "OCCURRENCE_STATUS_INFERRED_FROM_INDIVIDUAL_COUNT",
          "COORDINATE_ROUNDED",
          "GEODETIC_DATUM_ASSUMED_WGS84",
          "INSTITUTION_MATCH_FUZZY",
          "COLLECTION_MATCH_NONE",
          "TAXON_ID_NOT_FOUND"
        ],
        "fallback_media": {
          "url": "https://image.bgbm.org/images/internal/HerbarThumbs/B101144540_1700",
          "references": "https://herbarium.bgbm.org/object/B101144540",
          "title": null,
          "creator": null,
          "publisher": null,
          "license": "Partial images provided by this server are released under the Creative Commons cc-by-sa 3.0 (generic) licence [https://creativecommons.org/licenses/by-sa/3.0/de/]. Please credit images to BGBM following our citation guidelines [https://ww2.bgbm.org/Herbarium/cite.cfm]. If you would like to use images in a format or resolution which is not provided here, please contact us (d.roepert[at]bgbm.org).",
          "rightsHolder": null
        }
      }
    },
    {
      "type": "Feature",
      "geometry": {
        "type": "Point",
        "coordinates": [
          -83.06531,
          9.09475
        ]
      },
      "properties": {
        "gbifID": "4031717935",
        "species": "Solanum pertenue",
        "genus": "Solanum",
        "family": "Solanaceae",
        "scientificName": "Solanum pertenue Standl. & C.V.Morton",
        "coordinateUncertaintyInMeters": "",
        "basisOfRecord": "PRESERVED_SPECIMEN",
        "eventDate": "2006-04-26",
        "country": null,
        "datasetName": "Tropicos",
        "publisher": "Missouri Botanical Garden",
        "license": "CC_BY_4_0",
        "issues": [
          "OCCURRENCE_STATUS_INFERRED_FROM_INDIVIDUAL_COUNT",
          "GEODETIC_DATUM_ASSUMED_WGS84",
          "INSTITUTION_MATCH_FUZZY",
          "COLLECTION_MATCH_NONE",
          "TAXON_ID_NOT_FOUND"
        ],
        "fallback_media": {
          "url": "https://image.bgbm.org/images/internal/HerbarThumbs/B101144540_1700",
          "references": "https://herbarium.bgbm.org/object/B101144540",
          "title": null,
          "creator": null,
          "publisher": null,
          "license": "Partial images provided by this server are released under the Creative Commons cc-by-sa 3.0 (generic) licence [https://creativecommons.org/licenses/by-sa/3.0/de/]. Please credit images to BGBM following our citation guidelines [https://ww2.bgbm.org/Herbarium/cite.cfm]. If you would like to use images in a format or resolution which is not provided here, please contact us (d.roepert[at]bgbm.org).",
          "rightsHolder": null
        }
      }
    },
    {
      "type": "Feature",
      "geometry": {
        "type": "Point",
        "coordinates": [
          -84.80666,
          10.3175
        ]
      },
      "properties": {
        "gbifID": "1262252394",
        "species": "Solanum pertenue",
        "genus": "Solanum",
        "family": "Solanaceae",
        "scientificName": "Solanum pertenue Standl. & C.V.Morton",
        "coordinateUncertaintyInMeters": "",
        "basisOfRecord": "PRESERVED_SPECIMEN",
        "eventDate": "1985-07-27",
        "country": null,
        "datasetName": "Tropicos",
        "publisher": "Missouri Botanical Garden",
        "license": "CC_BY_4_0",
        "issues": [
          "OCCURRENCE_STATUS_INFERRED_FROM_INDIVIDUAL_COUNT",
          "GEODETIC_DATUM_ASSUMED_WGS84",
          "INSTITUTION_MATCH_FUZZY",
          "COLLECTION_MATCH_NONE",
          "TAXON_ID_NOT_FOUND"
        ],
        "fallback_media": {
          "url": "https://image.bgbm.org/images/internal/HerbarThumbs/B101144540_1700",
          "references": "https://herbarium.bgbm.org/object/B101144540",
          "title": null,
          "creator": null,
          "publisher": null,
          "license": "Partial images provided by this server are released under the Creative Commons cc-by-sa 3.0 (generic) licence [https://creativecommons.org/licenses/by-sa/3.0/de/]. Please credit images to BGBM following our citation guidelines [https://ww2.bgbm.org/Herbarium/cite.cfm]. If you would like to use images in a format or resolution which is not provided here, please contact us (d.roepert[at]bgbm.org).",
          "rightsHolder": null
        }
      }
    },
    {
      "type": "Feature",
      "geometry": {
        "type": "Point",
        "coordinates": [
          -84.75,
          10.25
        ]
      },
      "properties": {
        "gbifID": "1262252820",
        "species": "Solanum pertenue",
        "genus": "Solanum",
        "family": "Solanaceae",
        "scientificName": "Solanum pertenue Standl. & C.V.Morton",
        "coordinateUncertaintyInMeters": "",
        "basisOfRecord": "PRESERVED_SPECIMEN",
        "eventDate": "1984-02-13",
        "country": null,
        "datasetName": "Tropicos",
        "publisher": "Missouri Botanical Garden",
        "license": "CC_BY_4_0",
        "issues": [
          "OCCURRENCE_STATUS_INFERRED_FROM_INDIVIDUAL_COUNT",
          "GEODETIC_DATUM_ASSUMED_WGS84",
          "INSTITUTION_MATCH_FUZZY",
          "COLLECTION_MATCH_NONE",
          "TAXON_ID_NOT_FOUND"
        ],
        "fallback_media": {
          "url": "https://image.bgbm.org/images/internal/HerbarThumbs/B101144540_1700",
          "references": "https://herbarium.bgbm.org/object/B101144540",
          "title": null,
          "creator": null,
          "publisher": null,
          "license": "Partial images provided by this server are released under the Creative Commons cc-by-sa 3.0 (generic) licence [https://creativecommons.org/licenses/by-sa/3.0/de/]. Please credit images to BGBM following our citation guidelines [https://ww2.bgbm.org/Herbarium/cite.cfm]. If you would like to use images in a format or resolution which is not provided here, please contact us (d.roepert[at]bgbm.org).",
          "rightsHolder": null
        }
      }
    },
    {
      "type": "Feature",
      "geometry": {
        "type": "Point",
        "coordinates": [
          -82.2,
          8.75
        ]
      },
      "properties": {
        "gbifID": "1258697488",
        "species": "Solanum pertenue",
        "genus": "Solanum",
        "family": "Solanaceae",
        "scientificName": "Solanum pertenue Standl. & C.V.Morton",
        "coordinateUncertaintyInMeters": "",
        "basisOfRecord": "PRESERVED_SPECIMEN",
        "eventDate": "1982-03-13",
        "country": null,
        "datasetName": "Tropicos",
        "publisher": "Missouri Botanical Garden",
        "license": "CC_BY_4_0",
        "issues": [
          "OCCURRENCE_STATUS_INFERRED_FROM_INDIVIDUAL_COUNT",
          "GEODETIC_DATUM_ASSUMED_WGS84",
          "INSTITUTION_MATCH_FUZZY",
          "COLLECTION_MATCH_NONE",
          "TAXON_ID_NOT_FOUND"
        ],
        "fallback_media": {
          "url": "https://image.bgbm.org/images/internal/HerbarThumbs/B101144540_1700",
          "references": "https://herbarium.bgbm.org/object/B101144540",
          "title": null,
          "creator": null,
          "publisher": null,
          "license": "Partial images provided by this server are released under the Creative Commons cc-by-sa 3.0 (generic) licence [https://creativecommons.org/licenses/by-sa/3.0/de/]. Please credit images to BGBM following our citation guidelines [https://ww2.bgbm.org/Herbarium/cite.cfm]. If you would like to use images in a format or resolution which is not provided here, please contact us (d.roepert[at]bgbm.org).",
          "rightsHolder": null
        }
      }
    },
    {
      "type": "Feature",
      "geometry": {
        "type": "Point",
        "coordinates": [
          -84.95,
          10.81
        ]
      },
      "properties": {
        "gbifID": "1262251702",
        "species": "Solanum pertenue",
        "genus": "Solanum",
        "family": "Solanaceae",
        "scientificName": "Solanum pertenue Standl. & C.V.Morton",
        "coordinateUncertaintyInMeters": "",
        "basisOfRecord": "PRESERVED_SPECIMEN",
        "eventDate": "1987-11-16",
        "country": null,
        "datasetName": "Tropicos",
        "publisher": "Missouri Botanical Garden",
        "license": "CC_BY_4_0",
        "issues": [
          "OCCURRENCE_STATUS_INFERRED_FROM_INDIVIDUAL_COUNT",
          "GEODETIC_DATUM_ASSUMED_WGS84",
          "INSTITUTION_MATCH_FUZZY",
          "COLLECTION_MATCH_NONE",
          "TAXON_ID_NOT_FOUND"
        ],
        "fallback_media": {
          "url": "https://image.bgbm.org/images/internal/HerbarThumbs/B101144540_1700",
          "references": "https://herbarium.bgbm.org/object/B101144540",
          "title": null,
          "creator": null,
          "publisher": null,
          "license": "Partial images provided by this server are released under the Creative Commons cc-by-sa 3.0 (generic) licence [https://creativecommons.org/licenses/by-sa/3.0/de/]. Please credit images to BGBM following our citation guidelines [https://ww2.bgbm.org/Herbarium/cite.cfm]. If you would like to use images in a format or resolution which is not provided here, please contact us (d.roepert[at]bgbm.org).",
          "rightsHolder": null
        }
      }
    },
    {
      "type": "Feature",
      "geometry": {
        "type": "Point",
        "coordinates": [
          -85.4,
          13.28333
        ]
      },
      "properties": {
        "gbifID": "1262245068",
        "species": "Solanum pertenue",
        "genus": "Solanum",
        "family": "Solanaceae",
        "scientificName": "Solanum pertenue Standl. & C.V.Morton",
        "coordinateUncertaintyInMeters": "",
        "basisOfRecord": "PRESERVED_SPECIMEN",
        "eventDate": "1982-12-22",
        "country": null,
        "datasetName": "Tropicos",
        "publisher": "Missouri Botanical Garden",
        "license": "CC_BY_4_0",
        "issues": [
          "OCCURRENCE_STATUS_INFERRED_FROM_INDIVIDUAL_COUNT",
          "GEODETIC_DATUM_ASSUMED_WGS84",
          "INSTITUTION_MATCH_FUZZY",
          "COLLECTION_MATCH_NONE",
          "TAXON_ID_NOT_FOUND"
        ],
        "fallback_media": {
          "url": "https://image.bgbm.org/images/internal/HerbarThumbs/B101144540_1700",
          "references": "https://herbarium.bgbm.org/object/B101144540",
          "title": null,
          "creator": null,
          "publisher": null,
          "license": "Partial images provided by this server are released under the Creative Commons cc-by-sa 3.0 (generic) licence [https://creativecommons.org/licenses/by-sa/3.0/de/]. Please credit images to BGBM following our citation guidelines [https://ww2.bgbm.org/Herbarium/cite.cfm]. If you would like to use images in a format or resolution which is not provided here, please contact us (d.roepert[at]bgbm.org).",
          "rightsHolder": null
        }
      }
    },
    {
      "type": "Feature",
      "geometry": {
        "type": "Point",
        "coordinates": [
          -82.732222,
          9.066111
        ]
      },
      "properties": {
        "gbifID": "1259944969",
        "species": "Solanum pertenue",
        "genus": "Solanum",
        "family": "Solanaceae",
        "scientificName": "Solanum pertenue Standl. & C.V.Morton",
        "coordinateUncertaintyInMeters": "",
        "basisOfRecord": "PRESERVED_SPECIMEN",
        "eventDate": "2004-03-07",
        "country": null,
        "datasetName": "Tropicos",
        "publisher": "Missouri Botanical Garden",
        "license": "CC_BY_4_0",
        "issues": [
          "OCCURRENCE_STATUS_INFERRED_FROM_INDIVIDUAL_COUNT",
          "COORDINATE_ROUNDED",
          "GEODETIC_DATUM_ASSUMED_WGS84",
          "INSTITUTION_MATCH_FUZZY",
          "COLLECTION_MATCH_NONE",
          "TAXON_ID_NOT_FOUND"
        ],
        "fallback_media": {
          "url": "https://image.bgbm.org/images/internal/HerbarThumbs/B101144540_1700",
          "references": "https://herbarium.bgbm.org/object/B101144540",
          "title": null,
          "creator": null,
          "publisher": null,
          "license": "Partial images provided by this server are released under the Creative Commons cc-by-sa 3.0 (generic) licence [https://creativecommons.org/licenses/by-sa/3.0/de/]. Please credit images to BGBM following our citation guidelines [https://ww2.bgbm.org/Herbarium/cite.cfm]. If you would like to use images in a format or resolution which is not provided here, please contact us (d.roepert[at]bgbm.org).",
          "rightsHolder": null
        }
      }
    },
    {
      "type": "Feature",
      "geometry": {
        "type": "Point",
        "coordinates": [
          -83.80194,
          9.77083
        ]
      },
      "properties": {
        "gbifID": "1260554221",
        "species": "Solanum pertenue",
        "genus": "Solanum",
        "family": "Solanaceae",
        "scientificName": "Solanum pertenue Standl. & C.V.Morton",
        "coordinateUncertaintyInMeters": "",
        "basisOfRecord": "PRESERVED_SPECIMEN",
        "eventDate": "2000-02-22",
        "country": null,
        "datasetName": "Tropicos",
        "publisher": "Missouri Botanical Garden",
        "license": "CC_BY_4_0",
        "issues": [
          "GEODETIC_DATUM_ASSUMED_WGS84",
          "INSTITUTION_MATCH_FUZZY",
          "COLLECTION_MATCH_NONE",
          "TAXON_ID_NOT_FOUND"
        ],
        "fallback_media": {
          "url": "https://image.bgbm.org/images/internal/HerbarThumbs/B101144540_1700",
          "references": "https://herbarium.bgbm.org/object/B101144540",
          "title": null,
          "creator": null,
          "publisher": null,
          "license": "Partial images provided by this server are released under the Creative Commons cc-by-sa 3.0 (generic) licence [https://creativecommons.org/licenses/by-sa/3.0/de/]. Please credit images to BGBM following our citation guidelines [https://ww2.bgbm.org/Herbarium/cite.cfm]. If you would like to use images in a format or resolution which is not provided here, please contact us (d.roepert[at]bgbm.org).",
          "rightsHolder": null
        }
      }
    },
    {
      "type": "Feature",
      "geometry": {
        "type": "Point",
        "coordinates": [
          -84.79,
          10.29
        ]
      },
      "properties": {
        "gbifID": "1262247665",
        "species": "Solanum pertenue",
        "genus": "Solanum",
        "family": "Solanaceae",
        "scientificName": "Solanum pertenue Standl. & C.V.Morton",
        "coordinateUncertaintyInMeters": "",
        "basisOfRecord": "PRESERVED_SPECIMEN",
        "eventDate": "1984-08-19",
        "country": null,
        "datasetName": "Tropicos",
        "publisher": "Missouri Botanical Garden",
        "license": "CC_BY_4_0",
        "issues": [
          "OCCURRENCE_STATUS_INFERRED_FROM_INDIVIDUAL_COUNT",
          "GEODETIC_DATUM_ASSUMED_WGS84",
          "INSTITUTION_MATCH_FUZZY",
          "COLLECTION_MATCH_NONE",
          "TAXON_ID_NOT_FOUND"
        ],
        "fallback_media": {
          "url": "https://image.bgbm.org/images/internal/HerbarThumbs/B101144540_1700",
          "references": "https://herbarium.bgbm.org/object/B101144540",
          "title": null,
          "creator": null,
          "publisher": null,
          "license": "Partial images provided by this server are released under the Creative Commons cc-by-sa 3.0 (generic) licence [https://creativecommons.org/licenses/by-sa/3.0/de/]. Please credit images to BGBM following our citation guidelines [https://ww2.bgbm.org/Herbarium/cite.cfm]. If you would like to use images in a format or resolution which is not provided here, please contact us (d.roepert[at]bgbm.org).",
          "rightsHolder": null
        }
      }
    },
    {
      "type": "Feature",
      "geometry": {
        "type": "Point",
        "coordinates": [
          -84.8,
          10.33
        ]
      },
      "properties": {
        "gbifID": "1258699193",
        "species": "Solanum pertenue",
        "genus": "Solanum",
        "family": "Solanaceae",
        "scientificName": "Solanum pertenue Standl. & C.V.Morton",
        "coordinateUncertaintyInMeters": "",
        "basisOfRecord": "PRESERVED_SPECIMEN",
        "eventDate": "1974-08-24",
        "country": null,
        "datasetName": "Tropicos",
        "publisher": "Missouri Botanical Garden",
        "license": "CC_BY_4_0",
        "issues": [
          "GEODETIC_DATUM_ASSUMED_WGS84",
          "INSTITUTION_MATCH_FUZZY",
          "COLLECTION_MATCH_NONE",
          "TAXON_ID_NOT_FOUND"
        ],
        "fallback_media": {
          "url": "https://image.bgbm.org/images/internal/HerbarThumbs/B101144540_1700",
          "references": "https://herbarium.bgbm.org/object/B101144540",
          "title": null,
          "creator": null,
          "publisher": null,
          "license": "Partial images provided by this server are released under the Creative Commons cc-by-sa 3.0 (generic) licence [https://creativecommons.org/licenses/by-sa/3.0/de/]. Please credit images to BGBM following our citation guidelines [https://ww2.bgbm.org/Herbarium/cite.cfm]. If you would like to use images in a format or resolution which is not provided here, please contact us (d.roepert[at]bgbm.org).",
          "rightsHolder": null
        }
      }
    },
    {
      "type": "Feature",
      "geometry": {
        "type": "Point",
        "coordinates": [
          -82.700278,
          9.065278
        ]
      },
      "properties": {
        "gbifID": "3313659311",
        "species": "Solanum pertenue",
        "genus": "Solanum",
        "family": "Solanaceae",
        "scientificName": "Solanum pertenue Standl. & C.V.Morton",
        "coordinateUncertaintyInMeters": "",
        "basisOfRecord": "PRESERVED_SPECIMEN",
        "eventDate": "2008-04-19",
        "country": null,
        "datasetName": "Tropicos",
        "publisher": "Missouri Botanical Garden",
        "license": "CC_BY_4_0",
        "issues": [
          "OCCURRENCE_STATUS_INFERRED_FROM_INDIVIDUAL_COUNT",
          "COORDINATE_ROUNDED",
          "GEODETIC_DATUM_ASSUMED_WGS84",
          "INSTITUTION_MATCH_FUZZY",
          "COLLECTION_MATCH_NONE",
          "TAXON_ID_NOT_FOUND"
        ],
        "fallback_media": {
          "url": "https://image.bgbm.org/images/internal/HerbarThumbs/B101144540_1700",
          "references": "https://herbarium.bgbm.org/object/B101144540",
          "title": null,
          "creator": null,
          "publisher": null,
          "license": "Partial images provided by this server are released under the Creative Commons cc-by-sa 3.0 (generic) licence [https://creativecommons.org/licenses/by-sa/3.0/de/]. Please credit images to BGBM following our citation guidelines [https://ww2.bgbm.org/Herbarium/cite.cfm]. If you would like to use images in a format or resolution which is not provided here, please contact us (d.roepert[at]bgbm.org).",
          "rightsHolder": null
        }
      }
    },
    {
      "type": "Feature",
      "geometry": {
        "type": "Point",
        "coordinates": [
          -84.5,
          10.5
        ]
      },
      "properties": {
        "gbifID": "1302646564",
        "species": "Solanum pertenue",
        "genus": "Solanum",
        "family": "Solanaceae",
        "scientificName": "Solanum pertenue Standl. & C.V.Morton",
        "coordinateUncertaintyInMeters": "",
        "basisOfRecord": "OCCURRENCE",
        "eventDate": "1976-02",
        "country": null,
        "datasetName": "",
        "publisher": "Centro Internacional de Agricultura Tropical - CIAT",
        "license": "CC_BY_4_0",
        "issues": [
          "GEODETIC_DATUM_ASSUMED_WGS84",
          "CONTINENT_DERIVED_FROM_COORDINATES"
        ],
        "fallback_media": {
          "url": "https://image.bgbm.org/images/internal/HerbarThumbs/B101144540_1700",
          "references": "https://herbarium.bgbm.org/object/B101144540",
          "title": null,
          "creator": null,
          "publisher": null,
          "license": "Partial images provided by this server are released under the Creative Commons cc-by-sa 3.0 (generic) licence [https://creativecommons.org/licenses/by-sa/3.0/de/]. Please credit images to BGBM following our citation guidelines [https://ww2.bgbm.org/Herbarium/cite.cfm]. If you would like to use images in a format or resolution which is not provided here, please contact us (d.roepert[at]bgbm.org).",
          "rightsHolder": null
        }
      }
    },
    {
      "type": "Feature",
      "geometry": {
        "type": "Point",
        "coordinates": [
          -83.338056,
          9.071667
        ]
      },
      "properties": {
        "gbifID": "1302654145",
        "species": "Solanum pertenue",
        "genus": "Solanum",
        "family": "Solanaceae",
        "scientificName": "Solanum pertenue Standl. & C.V.Morton",
        "coordinateUncertaintyInMeters": "",
        "basisOfRecord": "OCCURRENCE",
        "eventDate": "2000-05-06",
        "country": null,
        "datasetName": "",
        "publisher": "Centro Internacional de Agricultura Tropical - CIAT",
        "license": "CC_BY_4_0",
        "issues": [
          "COORDINATE_ROUNDED",
          "GEODETIC_DATUM_ASSUMED_WGS84",
          "CONTINENT_DERIVED_FROM_COORDINATES"
        ],
        "fallback_media": {
          "url": "https://image.bgbm.org/images/internal/HerbarThumbs/B101144540_1700",
          "references": "https://herbarium.bgbm.org/object/B101144540",
          "title": null,
          "creator": null,
          "publisher": null,
          "license": "Partial images provided by this server are released under the Creative Commons cc-by-sa 3.0 (generic) licence [https://creativecommons.org/licenses/by-sa/3.0/de/]. Please credit images to BGBM following our citation guidelines [https://ww2.bgbm.org/Herbarium/cite.cfm]. If you would like to use images in a format or resolution which is not provided here, please contact us (d.roepert[at]bgbm.org).",
          "rightsHolder": null
        }
      }
    },
    {
      "type": "Feature",
      "geometry": {
        "type": "Point",
        "coordinates": [
          -83.9519,
          10.0114
        ]
      },
      "properties": {
        "gbifID": "1302646541",
        "species": "Solanum pertenue",
        "genus": "Solanum",
        "family": "Solanaceae",
        "scientificName": "Solanum pertenue Standl. & C.V.Morton",
        "coordinateUncertaintyInMeters": "",
        "basisOfRecord": "OCCURRENCE",
        "eventDate": "1925-12",
        "country": null,
        "datasetName": "",
        "publisher": "Centro Internacional de Agricultura Tropical - CIAT",
        "license": "CC_BY_4_0",
        "issues": [
          "GEODETIC_DATUM_ASSUMED_WGS84",
          "CONTINENT_DERIVED_FROM_COORDINATES"
        ],
        "fallback_media": {
          "url": "https://image.bgbm.org/images/internal/HerbarThumbs/B101144540_1700",
          "references": "https://herbarium.bgbm.org/object/B101144540",
          "title": null,
          "creator": null,
          "publisher": null,
          "license": "Partial images provided by this server are released under the Creative Commons cc-by-sa 3.0 (generic) licence [https://creativecommons.org/licenses/by-sa/3.0/de/]. Please credit images to BGBM following our citation guidelines [https://ww2.bgbm.org/Herbarium/cite.cfm]. If you would like to use images in a format or resolution which is not provided here, please contact us (d.roepert[at]bgbm.org).",
          "rightsHolder": null
        }
      }
    },
    {
      "type": "Feature",
      "geometry": {
        "type": "Point",
        "coordinates": [
          -82.23,
          8.72
        ]
      },
      "properties": {
        "gbifID": "1928774246",
        "species": "Solanum pertenue",
        "genus": "Solanum",
        "family": "Solanaceae",
        "scientificName": "Solanum pertenue Standl. & C.V.Morton",
        "coordinateUncertaintyInMeters": "",
        "basisOfRecord": "PRESERVED_SPECIMEN",
        "eventDate": "1982-06-17",
        "country": null,
        "datasetName": "Vascular plants",
        "publisher": "The New York Botanical Garden",
        "license": "CC0_1_0",
        "issues": [
          "MODIFIED_DATE_INVALID",
          "GEODETIC_DATUM_ASSUMED_WGS84"
        ],
        "media": [
          {
            "url": "http://sweetgum.nybg.org/images3/1246/691/00828713.jpg",
            "references": null,
            "title": null,
            "creator": "The New York Botanical Garden",
            "publisher": null,
            "license": "http://creativecommons.org/licenses/by/4.0/",
            "rightsHolder": "The New York Botanical Garden"
          }
        ]
      }
    },
    {
      "type": "Feature",
      "geometry": {
        "type": "Point",
        "coordinates": [
          -90.3714,
          15.4708
        ]
      },
      "properties": {
        "gbifID": "1928709661",
        "species": "Solanum pertenue",
        "genus": "Solanum",
        "family": "Solanaceae",
        "scientificName": "Solanum pertenue Standl. & C.V.Morton",
        "coordinateUncertaintyInMeters": "",
        "basisOfRecord": "PRESERVED_SPECIMEN",
        "eventDate": "1908-05",
        "country": null,
        "datasetName": "Vascular plants",
        "publisher": "The New York Botanical Garden",
        "license": "CC0_1_0",
        "issues": [
          "MODIFIED_DATE_INVALID"
        ],
        "media": [
          {
            "url": "http://sweetgum.nybg.org/images3/1245/877/00753193.jpg",
            "references": null,
            "title": null,
            "creator": "The New York Botanical Garden",
            "publisher": null,
            "license": "http://creativecommons.org/licenses/by/4.0/",
            "rightsHolder": "The New York Botanical Garden"
          }
        ]
      }
    },
    {
      "type": "Feature",
      "geometry": {
        "type": "Point",
        "coordinates": [
          -85.93333,
          13.03333
        ]
      },
      "properties": {
        "gbifID": "436993151",
        "species": "Solanum pertenue",
        "genus": "Solanum",
        "family": "Solanaceae",
        "scientificName": "Solanum pertenue Standl. & C.V.Morton",
        "coordinateUncertaintyInMeters": "",
        "basisOfRecord": "PRESERVED_SPECIMEN",
        "eventDate": "1978-06-30",
        "country": null,
        "datasetName": "",
        "publisher": "MNHN - Museum national d'Histoire naturelle",
        "license": "CC_BY_4_0",
        "issues": [
          "GEODETIC_DATUM_ASSUMED_WGS84",
          "CONTINENT_DERIVED_FROM_COORDINATES",
          "TAXON_MATCH_FUZZY"
        ],
        "media": [
          {
            "url": "http://mediaphoto.mnhn.fr/media/1441369607415bdNTHeMHEGxfxQo5",
            "references": null,
            "title": null,
            "creator": null,
            "publisher": null,
            "license": "http://creativecommons.org/licenses/by/4.0/",
            "rightsHolder": null
          }
        ]
      }
    },
    {
      "type": "Feature",
      "geometry": {
        "type": "Point",
        "coordinates": [
          -85.4,
          13.283
        ]
      },
      "properties": {
        "gbifID": "3307849703",
        "species": "Solanum pertenue",
        "genus": "Solanum",
        "family": "Solanaceae",
        "scientificName": "Solanum pertenue Standl. & C.V.Morton",
        "coordinateUncertaintyInMeters": "",
        "basisOfRecord": "PRESERVED_SPECIMEN",
        "eventDate": "1982-12-22",
        "country": null,
        "datasetName": "Digitalización y Sistematización de las Colecciones Biológicas Nacionales del Instituto de Biología, UNAM",
        "publisher": "Comisión nacional para el conocimiento y uso de la biodiversidad",
        "license": "CC_BY_4_0",
        "issues": [
          "OCCURRENCE_STATUS_INFERRED_FROM_INDIVIDUAL_COUNT",
          "SCIENTIFIC_NAME_ID_NOT_FOUND",
          "TAXON_ID_NOT_FOUND"
        ],
        "fallback_media": {
          "url": "https://image.bgbm.org/images/internal/HerbarThumbs/B101144540_1700",
          "references": "https://herbarium.bgbm.org/object/B101144540",
          "title": null,
          "creator": null,
          "publisher": null,
          "license": "Partial images provided by this server are released under the Creative Commons cc-by-sa 3.0 (generic) licence [https://creativecommons.org/licenses/by-sa/3.0/de/]. Please credit images to BGBM following our citation guidelines [https://ww2.bgbm.org/Herbarium/cite.cfm]. If you would like to use images in a format or resolution which is not provided here, please contact us (d.roepert[at]bgbm.org).",
          "rightsHolder": null
        }
      }
    },
    {
      "type": "Feature",
      "geometry": {
        "type": "Point",
        "coordinates": [
          -83.99722,
          9.88611
        ]
      },
      "properties": {
        "gbifID": "3763054674",
        "species": "Solanum pertenue",
        "genus": "Solanum",
        "family": "Solanaceae",
        "scientificName": "Solanum pertenue Standl. & C.V.Morton",
        "coordinateUncertaintyInMeters": "",
        "basisOfRecord": "PRESERVED_SPECIMEN",
        "eventDate": "2008-07-21",
        "country": null,
        "datasetName": "",
        "publisher": "Botanic Garden and Botanical Museum Berlin",
        "license": "CC0_1_0",
        "issues": [
          "GEODETIC_DATUM_ASSUMED_WGS84",
          "CONTINENT_DERIVED_FROM_COORDINATES"
        ],
        "media": [
          {
            "url": "https://image.bgbm.org/images/internal/HerbarThumbs/B101144540_1700",
            "references": "https://herbarium.bgbm.org/object/B101144540",
            "title": null,
            "creator": null,
            "publisher": null,
            "license": "Partial images provided by this server are released under the Creative Commons cc-by-sa 3.0 (generic) licence [https://creativecommons.org/licenses/by-sa/3.0/de/]. Please credit images to BGBM following our citation guidelines [https://ww2.bgbm.org/Herbarium/cite.cfm]. If you would like to use images in a format or resolution which is not provided here, please contact us (d.roepert[at]bgbm.org).",
            "rightsHolder": null
          }
        ]
      }
    },
    {
      "type": "Feature",
      "geometry": {
        "type": "Point",
        "coordinates": [
          -80.102665,
          8.507188
        ]
      },
      "properties": {
        "gbifID": "1056344247",
        "species": "Solanum pertenue",
        "genus": "Solanum",
        "family": "Solanaceae",
        "scientificName": "Solanum pertenue Standl. & C.V.Morton",
        "coordinateUncertaintyInMeters": "650.0",
        "basisOfRecord": "PRESERVED_SPECIMEN",
        "eventDate": "2004-03-07",
        "country": null,
        "datasetName": "",
        "publisher": "Natural History Museum",
        "license": "CC0_1_0",
        "issues": [
          "GEODETIC_DATUM_ASSUMED_WGS84",
          "INSTITUTION_MATCH_FUZZY",
          "COLLECTION_MATCH_FUZZY",
          "TAXON_MATCH_FUZZY"
        ],
        "media": [
          {
            "url": "https://data.nhm.ac.uk/media/11960603-048d-4e4d-9d50-8f74cd28f0ef",
            "references": null,
            "title": "BM000849683",
            "creator": null,
            "publisher": null,
            "license": "http://creativecommons.org/licenses/by/4.0/",
            "rightsHolder": "The Trustees of the Natural History Museum, London"
          }
        ]
      }
    },
    {
      "type": "Feature",
      "geometry": {
        "type": "Point",
        "coordinates": [
          -82.219508,
          8.491486
        ]
      },
      "properties": {
        "gbifID": "1056726857",
        "species": "Solanum pertenue",
        "genus": "Solanum",
        "family": "Solanaceae",
        "scientificName": "Solanum pertenue Standl. & C.V.Morton",
        "coordinateUncertaintyInMeters": "",
        "basisOfRecord": "PRESERVED_SPECIMEN",
        "eventDate": "2000-08-13",
        "country": null,
        "datasetName": "",
        "publisher": "Natural History Museum",
        "license": "CC0_1_0",
        "issues": [
          "GEODETIC_DATUM_ASSUMED_WGS84",
          "INSTITUTION_MATCH_FUZZY",
          "COLLECTION_MATCH_FUZZY"
        ],
        "media": [
          {
            "url": "https://data.nhm.ac.uk/media/9e087668-4d0a-4619-8137-c901740ed1ec",
            "references": null,
            "title": "BM000776496",
            "creator": null,
            "publisher": null,
            "license": "http://creativecommons.org/licenses/by/4.0/",
            "rightsHolder": "The Trustees of the Natural History Museum, London"
          }
        ]
      }
    },
    {
      "type": "Feature",
      "geometry": {
        "type": "Point",
        "coordinates": [
          -84.811111,
          10.304167
        ]
      },
      "properties": {
        "gbifID": "1135479246",
        "species": "Solanum pertenue",
        "genus": "Solanum",
        "family": "Solanaceae",
        "scientificName": "Solanum pertenue Standl. & C.V.Morton",
        "coordinateUncertaintyInMeters": "",
        "basisOfRecord": "PRESERVED_SPECIMEN",
        "eventDate": "1995-01-14",
        "country": null,
        "datasetName": "",
        "publisher": "Natural History Museum",
        "license": "CC0_1_0",
        "issues": [
          "GEODETIC_DATUM_ASSUMED_WGS84",
          "INSTITUTION_MATCH_FUZZY",
          "COLLECTION_MATCH_FUZZY"
        ],
        "media": [
          {
            "url": "https://data.nhm.ac.uk/media/41fe85ce-6c19-4f61-948c-55f4bcac2878",
            "references": null,
            "title": "BM000600989",
            "creator": null,
            "publisher": null,
            "license": "http://creativecommons.org/licenses/by/4.0/",
            "rightsHolder": "The Trustees of the Natural History Museum, London"
          }
        ]
      }
    },
    {
      "type": "Feature",
      "geometry": {
        "type": "Point",
        "coordinates": [
          -83.338048,
          9.071764
        ]
      },
      "properties": {
        "gbifID": "1253731979",
        "species": "Solanum pertenue",
        "genus": "Solanum",
        "family": "Solanaceae",
        "scientificName": "Solanum pertenue Standl. & C.V.Morton",
        "coordinateUncertaintyInMeters": "",
        "basisOfRecord": "PRESERVED_SPECIMEN",
        "eventDate": "2000-05-06",
        "country": null,
        "datasetName": "Atta",
        "publisher": "Instituto Nacional de Biodiversidad (INBio), Costa Rica",
        "license": "CC0_1_0",
        "issues": [
          "IDENTIFIED_DATE_INVALID",
          "COORDINATE_ROUNDED",
          "CONTINENT_DERIVED_FROM_COORDINATES",
          "CONTINENT_INVALID",
          "INSTITUTION_MATCH_FUZZY",
          "COLLECTION_MATCH_NONE",
          "TAXON_ID_NOT_FOUND"
        ],
        "fallback_media": {
          "url": "https://image.bgbm.org/images/internal/HerbarThumbs/B101144540_1700",
          "references": "https://herbarium.bgbm.org/object/B101144540",
          "title": null,
          "creator": null,
          "publisher": null,
          "license": "Partial images provided by this server are released under the Creative Commons cc-by-sa 3.0 (generic) licence [https://creativecommons.org/licenses/by-sa/3.0/de/]. Please credit images to BGBM following our citation guidelines [https://ww2.bgbm.org/Herbarium/cite.cfm]. If you would like to use images in a format or resolution which is not provided here, please contact us (d.roepert[at]bgbm.org).",
          "rightsHolder": null
        }
      }
    },
    {
      "type": "Feature",
      "geometry": {
        "type": "Point",
        "coordinates": [
          -83.065306,
          9.09475
        ]
      },
      "properties": {
        "gbifID": "1253808963",
        "species": "Solanum pertenue",
        "genus": "Solanum",
        "family": "Solanaceae",
        "scientificName": "Solanum pertenue Standl. & C.V.Morton",
        "coordinateUncertaintyInMeters": "",
        "basisOfRecord": "PRESERVED_SPECIMEN",
        "eventDate": "2006-04-26",
        "country": null,
        "datasetName": "Atta",
        "publisher": "Instituto Nacional de Biodiversidad (INBio), Costa Rica",
        "license": "CC0_1_0",
        "issues": [
          "IDENTIFIED_DATE_INVALID",
          "COORDINATE_ROUNDED",
          "CONTINENT_DERIVED_FROM_COORDINATES",
          "CONTINENT_INVALID",
          "INSTITUTION_MATCH_FUZZY",
          "COLLECTION_MATCH_NONE",
          "TAXON_ID_NOT_FOUND"
        ],
        "fallback_media": {
          "url": "https://image.bgbm.org/images/internal/HerbarThumbs/B101144540_1700",
          "references": "https://herbarium.bgbm.org/object/B101144540",
          "title": null,
          "creator": null,
          "publisher": null,
          "license": "Partial images provided by this server are released under the Creative Commons cc-by-sa 3.0 (generic) licence [https://creativecommons.org/licenses/by-sa/3.0/de/]. Please credit images to BGBM following our citation guidelines [https://ww2.bgbm.org/Herbarium/cite.cfm]. If you would like to use images in a format or resolution which is not provided here, please contact us (d.roepert[at]bgbm.org).",
          "rightsHolder": null
        }
      }
    },
    {
      "type": "Feature",
      "geometry": {
        "type": "Point",
        "coordinates": [
          -84.95,
          10.816667
        ]
      },
      "properties": {
        "gbifID": "1253633524",
        "species": "Solanum pertenue",
        "genus": "Solanum",
        "family": "Solanaceae",
        "scientificName": "Solanum pertenue Standl. & C.V.Morton",
        "coordinateUncertaintyInMeters": "",
        "basisOfRecord": "PRESERVED_SPECIMEN",
        "eventDate": "1987-11-16",
        "country": null,
        "datasetName": "Atta",
        "publisher": "Instituto Nacional de Biodiversidad (INBio), Costa Rica",
        "license": "CC0_1_0",
        "issues": [
          "IDENTIFIED_DATE_INVALID",
          "COORDINATE_ROUNDED",
          "CONTINENT_DERIVED_FROM_COORDINATES",
          "CONTINENT_INVALID",
          "INSTITUTION_MATCH_FUZZY",
          "COLLECTION_MATCH_NONE",
          "TAXON_ID_NOT_FOUND"
        ],
        "fallback_media": {
          "url": "https://image.bgbm.org/images/internal/HerbarThumbs/B101144540_1700",
          "references": "https://herbarium.bgbm.org/object/B101144540",
          "title": null,
          "creator": null,
          "publisher": null,
          "license": "Partial images provided by this server are released under the Creative Commons cc-by-sa 3.0 (generic) licence [https://creativecommons.org/licenses/by-sa/3.0/de/]. Please credit images to BGBM following our citation guidelines [https://ww2.bgbm.org/Herbarium/cite.cfm]. If you would like to use images in a format or resolution which is not provided here, please contact us (d.roepert[at]bgbm.org).",
          "rightsHolder": null
        }
      }
    },
    {
      "type": "Feature",
      "geometry": {
        "type": "Point",
        "coordinates": [
          -84.75,
          10.294444
        ]
      },
      "properties": {
        "gbifID": "1253637695",
        "species": "Solanum pertenue",
        "genus": "Solanum",
        "family": "Solanaceae",
        "scientificName": "Solanum pertenue Standl. & C.V.Morton",
        "coordinateUncertaintyInMeters": "",
        "basisOfRecord": "PRESERVED_SPECIMEN",
        "eventDate": "1995-04-04",
        "country": null,
        "datasetName": "Atta",
        "publisher": "Instituto Nacional de Biodiversidad (INBio), Costa Rica",
        "license": "CC0_1_0",
        "issues": [
          "IDENTIFIED_DATE_INVALID",
          "COORDINATE_ROUNDED",
          "CONTINENT_DERIVED_FROM_COORDINATES",
          "CONTINENT_INVALID",
          "INSTITUTION_MATCH_FUZZY",
          "COLLECTION_MATCH_NONE",
          "TAXON_ID_NOT_FOUND"
        ],
        "fallback_media": {
          "url": "https://image.bgbm.org/images/internal/HerbarThumbs/B101144540_1700",
          "references": "https://herbarium.bgbm.org/object/B101144540",
          "title": null,
          "creator": null,
          "publisher": null,
          "license": "Partial images provided by this server are released under the Creative Commons cc-by-sa 3.0 (generic) licence [https://creativecommons.org/licenses/by-sa/3.0/de/]. Please credit images to BGBM following our citation guidelines [https://ww2.bgbm.org/Herbarium/cite.cfm]. If you would like to use images in a format or resolution which is not provided here, please contact us (d.roepert[at]bgbm.org).",
          "rightsHolder": null
        }
      }
    },
    {
      "type": "Feature",
      "geometry": {
        "type": "Point",
        "coordinates": [
          -83.997222,
          9.886111
        ]
      },
      "properties": {
        "gbifID": "1253901657",
        "species": "Solanum pertenue",
        "genus": "Solanum",
        "family": "Solanaceae",
        "scientificName": "Solanum pertenue Standl. & C.V.Morton",
        "coordinateUncertaintyInMeters": "",
        "basisOfRecord": "PRESERVED_SPECIMEN",
        "eventDate": "2008-07-21",
        "country": null,
        "datasetName": "Atta",
        "publisher": "Instituto Nacional de Biodiversidad (INBio), Costa Rica",
        "license": "CC0_1_0",
        "issues": [
          "IDENTIFIED_DATE_INVALID",
          "COORDINATE_ROUNDED",
          "CONTINENT_DERIVED_FROM_COORDINATES",
          "CONTINENT_INVALID",
          "INSTITUTION_MATCH_FUZZY",
          "COLLECTION_MATCH_NONE",
          "TAXON_ID_NOT_FOUND"
        ],
        "fallback_media": {
          "url": "https://image.bgbm.org/images/internal/HerbarThumbs/B101144540_1700",
          "references": "https://herbarium.bgbm.org/object/B101144540",
          "title": null,
          "creator": null,
          "publisher": null,
          "license": "Partial images provided by this server are released under the Creative Commons cc-by-sa 3.0 (generic) licence [https://creativecommons.org/licenses/by-sa/3.0/de/]. Please credit images to BGBM following our citation guidelines [https://ww2.bgbm.org/Herbarium/cite.cfm]. If you would like to use images in a format or resolution which is not provided here, please contact us (d.roepert[at]bgbm.org).",
          "rightsHolder": null
        }
      }
    },
    {
      "type": "Feature",
      "geometry": {
        "type": "Point",
        "coordinates": [
          -83.801985,
          9.770744
        ]
      },
      "properties": {
        "gbifID": "1253718530",
        "species": "Solanum pertenue",
        "genus": "Solanum",
        "family": "Solanaceae",
        "scientificName": "Solanum pertenue Standl. & C.V.Morton",
        "coordinateUncertaintyInMeters": "",
        "basisOfRecord": "PRESERVED_SPECIMEN",
        "eventDate": "2000-02-22",
        "country": null,
        "datasetName": "Atta",
        "publisher": "Instituto Nacional de Biodiversidad (INBio), Costa Rica",
        "license": "CC0_1_0",
        "issues": [
          "IDENTIFIED_DATE_INVALID",
          "COORDINATE_ROUNDED",
          "CONTINENT_DERIVED_FROM_COORDINATES",
          "CONTINENT_INVALID",
          "INSTITUTION_MATCH_FUZZY",
          "COLLECTION_MATCH_NONE",
          "TAXON_ID_NOT_FOUND"
        ],
        "fallback_media": {
          "url": "https://image.bgbm.org/images/internal/HerbarThumbs/B101144540_1700",
          "references": "https://herbarium.bgbm.org/object/B101144540",
          "title": null,
          "creator": null,
          "publisher": null,
          "license": "Partial images provided by this server are released under the Creative Commons cc-by-sa 3.0 (generic) licence [https://creativecommons.org/licenses/by-sa/3.0/de/]. Please credit images to BGBM following our citation guidelines [https://ww2.bgbm.org/Herbarium/cite.cfm]. If you would like to use images in a format or resolution which is not provided here, please contact us (d.roepert[at]bgbm.org).",
          "rightsHolder": null
        }
      }
    },
    {
      "type": "Feature",
      "geometry": {
        "type": "Point",
        "coordinates": [
          -84.30142,
          9.904089
        ]
      },
      "properties": {
        "gbifID": "1253835295",
        "species": "Solanum pertenue",
        "genus": "Solanum",
        "family": "Solanaceae",
        "scientificName": "Solanum pertenue Standl. & C.V.Morton",
        "coordinateUncertaintyInMeters": "",
        "basisOfRecord": "PRESERVED_SPECIMEN",
        "eventDate": "2004-02-15",
        "country": null,
        "datasetName": "Atta",
        "publisher": "Instituto Nacional de Biodiversidad (INBio), Costa Rica",
        "license": "CC0_1_0",
        "issues": [
          "IDENTIFIED_DATE_INVALID",
          "COORDINATE_ROUNDED",
          "CONTINENT_DERIVED_FROM_COORDINATES",
          "CONTINENT_INVALID",
          "INSTITUTION_MATCH_FUZZY",
          "COLLECTION_MATCH_NONE",
          "TAXON_ID_NOT_FOUND"
        ],
        "fallback_media": {
          "url": "https://image.bgbm.org/images/internal/HerbarThumbs/B101144540_1700",
          "references": "https://herbarium.bgbm.org/object/B101144540",
          "title": null,
          "creator": null,
          "publisher": null,
          "license": "Partial images provided by this server are released under the Creative Commons cc-by-sa 3.0 (generic) licence [https://creativecommons.org/licenses/by-sa/3.0/de/]. Please credit images to BGBM following our citation guidelines [https://ww2.bgbm.org/Herbarium/cite.cfm]. If you would like to use images in a format or resolution which is not provided here, please contact us (d.roepert[at]bgbm.org).",
          "rightsHolder": null
        }
      }
    },
    {
      "type": "Feature",
      "geometry": {
        "type": "Point",
        "coordinates": [
          -82.961112,
          9.025
        ]
      },
      "properties": {
        "gbifID": "1253637755",
        "species": "Solanum pertenue",
        "genus": "Solanum",
        "family": "Solanaceae",
        "scientificName": "Solanum pertenue Standl. & C.V.Morton",
        "coordinateUncertaintyInMeters": "",
        "basisOfRecord": "PRESERVED_SPECIMEN",
        "eventDate": "1995-01-30",
        "country": null,
        "datasetName": "Atta",
        "publisher": "Instituto Nacional de Biodiversidad (INBio), Costa Rica",
        "license": "CC0_1_0",
        "issues": [
          "IDENTIFIED_DATE_INVALID",
          "COORDINATE_ROUNDED",
          "CONTINENT_DERIVED_FROM_COORDINATES",
          "CONTINENT_INVALID",
          "INSTITUTION_MATCH_FUZZY",
          "COLLECTION_MATCH_NONE",
          "TAXON_ID_NOT_FOUND"
        ],
        "fallback_media": {
          "url": "https://image.bgbm.org/images/internal/HerbarThumbs/B101144540_1700",
          "references": "https://herbarium.bgbm.org/object/B101144540",
          "title": null,
          "creator": null,
          "publisher": null,
          "license": "Partial images provided by this server are released under the Creative Commons cc-by-sa 3.0 (generic) licence [https://creativecommons.org/licenses/by-sa/3.0/de/]. Please credit images to BGBM following our citation guidelines [https://ww2.bgbm.org/Herbarium/cite.cfm]. If you would like to use images in a format or resolution which is not provided here, please contact us (d.roepert[at]bgbm.org).",
          "rightsHolder": null
        }
      }
    },
    {
      "type": "Feature",
      "geometry": {
        "type": "Point",
        "coordinates": [
          -84.800005,
          10.3
        ]
      },
      "properties": {
        "gbifID": "1253688217",
        "species": "Solanum pertenue",
        "genus": "Solanum",
        "family": "Solanaceae",
        "scientificName": "Solanum pertenue Standl. & C.V.Morton",
        "coordinateUncertaintyInMeters": "",
        "basisOfRecord": "PRESERVED_SPECIMEN",
        "eventDate": "1989-07-13",
        "country": null,
        "datasetName": "Atta",
        "publisher": "Instituto Nacional de Biodiversidad (INBio), Costa Rica",
        "license": "CC0_1_0",
        "issues": [
          "IDENTIFIED_DATE_INVALID",
          "COORDINATE_ROUNDED",
          "CONTINENT_DERIVED_FROM_COORDINATES",
          "CONTINENT_INVALID",
          "INSTITUTION_MATCH_FUZZY",
          "COLLECTION_MATCH_NONE",
          "TAXON_ID_NOT_FOUND"
        ],
        "fallback_media": {
          "url": "https://image.bgbm.org/images/internal/HerbarThumbs/B101144540_1700",
          "references": "https://herbarium.bgbm.org/object/B101144540",
          "title": null,
          "creator": null,
          "publisher": null,
          "license": "Partial images provided by this server are released under the Creative Commons cc-by-sa 3.0 (generic) licence [https://creativecommons.org/licenses/by-sa/3.0/de/]. Please credit images to BGBM following our citation guidelines [https://ww2.bgbm.org/Herbarium/cite.cfm]. If you would like to use images in a format or resolution which is not provided here, please contact us (d.roepert[at]bgbm.org).",
          "rightsHolder": null
        }
      }
    }
  ]
}
