{
  "type": "FeatureCollection",
  "metadata": {
    "host_taxon": {
      "canonical_name": "Passiflora sidaefolia",
      "rank": "species",
      "family": "Passifloraceae",
      "genus": "Passiflora",
      "species": "Passiflora sidaefolia",
      "slug": "species_passiflora_sidaefolia",
      "resolvable_to_gbif": true,
      "use_for_default_download": true,
      "association_count": 4,
      "butterfly_taxa": [
        "Dryas iulia",
        "Heliconius erato",
        "Heliconius numata",
        "Heliconius sara"
      ],
      "confidence_counts": {
        "medium": 4
      },
      "occurrence_file": "occurrences/species_passiflora_sidaefolia.geojson",
      "gbif_resolution": {
        "query": "Passiflora sidaefolia",
        "rank": "species",
        "status": "resolved",
        "gbif_taxon_key": 7905861,
        "accepted_usage_key": 7594749,
        "scientific_name": "Passiflora sidaefolia M.Roem.",
        "canonical_name": "Passiflora sidaefolia",
        "gbif_rank": "SPECIES",
        "taxonomic_status": "SYNONYM",
        "match_type": "EXACT",
        "confidence": 100,
        "kingdom": "Plantae",
        "family": "Passifloraceae",
        "genus": "Passiflora",
        "resolved_at": "2026-05-21T03:58:55+00:00"
      },
      "gbif_taxon_key": 7905861,
      "gbif_status": "resolved",
      "occurrence_count": 0,
      "occurrence_mode": "not_generated",
      "occurrence_cap": null
    },
    "gbif_resolution": {
      "query": "Passiflora sidaefolia",
      "rank": "species",
      "status": "resolved",
      "gbif_taxon_key": 7905861,
      "accepted_usage_key": 7594749,
      "scientific_name": "Passiflora sidaefolia M.Roem.",
      "canonical_name": "Passiflora sidaefolia",
      "gbif_rank": "SPECIES",
      "taxonomic_status": "SYNONYM",
      "match_type": "EXACT",
      "confidence": 100,
      "kingdom": "Plantae",
      "family": "Passifloraceae",
      "genus": "Passiflora",
      "resolved_at": "2026-05-21T03:58:55+00:00"
    },
    "occurrence_query": {
      "method": "gbif_download_api",
      "download_key": "0004690-260519110011954",
      "download_doi": "10.15468/dl.s2gcc3",
      "download_doi_url": "https://doi.org/10.15468/dl.s2gcc3",
      "limit": null,
      "dedupe": "Exact duplicate coordinates removed per taxon after DWCA download.",
      "filters": "GBIF Download API DWCA with TAXON_KEY, HAS_COORDINATE=true, HAS_GEOSPATIAL_ISSUE=false, OCCURRENCE_STATUS=PRESENT; app study extent and coordinate uncertainty <=100km applied locally.",
      "returned_unique_coordinate_records": 12
    },
    "scientific_caveat": "GBIF plant occurrences are sampling-biased context records and do not prove local host use or ecological availability for the butterfly.",
    "generated_at": "2026-05-21T15:57:21+00:00"
  },
  "features": [
    {
      "type": "Feature",
      "geometry": {
        "type": "Point",
        "coordinates": [
          -46.618333,
          -23.646111
        ]
      },
      "properties": {
        "gbifID": "2997758745",
        "species": "Passiflora tetraden",
        "genus": "Passiflora",
        "family": "Passifloraceae",
        "scientificName": "Passiflora sidaefolia M.Roem.",
        "coordinateUncertaintyInMeters": "",
        "basisOfRecord": "PRESERVED_SPECIMEN",
        "eventDate": "1935-09-13",
        "country": null,
        "datasetName": "",
        "publisher": "Instituto de Pesquisas Jardim Botanico do Rio de Janeiro",
        "license": "CC_BY_4_0",
        "issues": [
          "COORDINATE_ROUNDED",
          "GEODETIC_DATUM_ASSUMED_WGS84",
          "CONTINENT_DERIVED_FROM_COORDINATES",
          "INSTITUTION_MATCH_FUZZY",
          "COLLECTION_MATCH_FUZZY"
        ],
        "fallback_media": {
          "url": "http://sweetgum.nybg.org/images3/2152/814/00483989.jpg",
          "references": null,
          "title": null,
          "creator": "The New York Botanical Garden",
          "publisher": null,
          "license": "http://creativecommons.org/licenses/by/4.0/",
          "rightsHolder": "The New York Botanical Garden"
        }
      }
    },
    {
      "type": "Feature",
      "geometry": {
        "type": "Point",
        "coordinates": [
          -43.2075,
          -22.903056
        ]
      },
      "properties": {
        "gbifID": "2998070099",
        "species": "Passiflora tetraden",
        "genus": "Passiflora",
        "family": "Passifloraceae",
        "scientificName": "Passiflora sidaefolia M.Roem.",
        "coordinateUncertaintyInMeters": "",
        "basisOfRecord": "PRESERVED_SPECIMEN",
        "eventDate": "1964-02-06",
        "country": null,
        "datasetName": "",
        "publisher": "Instituto de Pesquisas Jardim Botanico do Rio de Janeiro",
        "license": "CC_BY_4_0",
        "issues": [
          "RECORDED_DATE_INVALID",
          "COORDINATE_ROUNDED",
          "GEODETIC_DATUM_ASSUMED_WGS84",
          "CONTINENT_DERIVED_FROM_COORDINATES",
          "INSTITUTION_MATCH_FUZZY",
          "COLLECTION_MATCH_FUZZY"
        ],
        "fallback_media": {
          "url": "http://sweetgum.nybg.org/images3/2152/814/00483989.jpg",
          "references": null,
          "title": null,
          "creator": "The New York Botanical Garden",
          "publisher": null,
          "license": "http://creativecommons.org/licenses/by/4.0/",
          "rightsHolder": "The New York Botanical Garden"
        }
      }
    },
    {
      "type": "Feature",
      "geometry": {
        "type": "Point",
        "coordinates": [
          -43.245556,
          -22.956389
        ]
      },
      "properties": {
        "gbifID": "2998049107",
        "species": "Passiflora tetraden",
        "genus": "Passiflora",
        "family": "Passifloraceae",
        "scientificName": "Passiflora sidaefolia M.Roem.",
        "coordinateUncertaintyInMeters": "",
        "basisOfRecord": "PRESERVED_SPECIMEN",
        "eventDate": "1964-10",
        "country": null,
        "datasetName": "",
        "publisher": "Instituto de Pesquisas Jardim Botanico do Rio de Janeiro",
        "license": "CC_BY_4_0",
        "issues": [
          "RECORDED_DATE_INVALID",
          "IDENTIFIED_DATE_INVALID",
          "COORDINATE_ROUNDED",
          "GEODETIC_DATUM_ASSUMED_WGS84",
          "CONTINENT_DERIVED_FROM_COORDINATES",
          "INSTITUTION_MATCH_FUZZY",
          "COLLECTION_MATCH_FUZZY"
        ],
        "fallback_media": {
          "url": "http://sweetgum.nybg.org/images3/2152/814/00483989.jpg",
          "references": null,
          "title": null,
          "creator": "The New York Botanical Garden",
          "publisher": null,
          "license": "http://creativecommons.org/licenses/by/4.0/",
          "rightsHolder": "The New York Botanical Garden"
        }
      }
    },
    {
      "type": "Feature",
      "geometry": {
        "type": "Point",
        "coordinates": [
          -46.718056,
          -20.849167
        ]
      },
      "properties": {
        "gbifID": "2998169939",
        "species": "Passiflora tetraden",
        "genus": "Passiflora",
        "family": "Passifloraceae",
        "scientificName": "Passiflora sidaefolia M.Roem.",
        "coordinateUncertaintyInMeters": "",
        "basisOfRecord": "PRESERVED_SPECIMEN",
        "eventDate": "",
        "country": null,
        "datasetName": "",
        "publisher": "Instituto de Pesquisas Jardim Botanico do Rio de Janeiro",
        "license": "CC_BY_4_0",
        "issues": [
          "IDENTIFIED_DATE_INVALID",
          "COORDINATE_ROUNDED",
          "GEODETIC_DATUM_ASSUMED_WGS84",
          "CONTINENT_DERIVED_FROM_COORDINATES",
          "INSTITUTION_MATCH_FUZZY",
          "COLLECTION_MATCH_FUZZY"
        ],
        "fallback_media": {
          "url": "http://sweetgum.nybg.org/images3/2152/814/00483989.jpg",
          "references": null,
          "title": null,
          "creator": "The New York Botanical Garden",
          "publisher": null,
          "license": "http://creativecommons.org/licenses/by/4.0/",
          "rightsHolder": "The New York Botanical Garden"
        }
      }
    },
    {
      "type": "Feature",
      "geometry": {
        "type": "Point",
        "coordinates": [
          -43.207669,
          -22.90696
        ]
      },
      "properties": {
        "gbifID": "1928456680",
        "species": "Passiflora tetraden",
        "genus": "Passiflora",
        "family": "Passifloraceae",
        "scientificName": "Passiflora sidaefolia M.Roem.",
        "coordinateUncertaintyInMeters": "",
        "basisOfRecord": "PRESERVED_SPECIMEN",
        "eventDate": "1964-02-06",
        "country": null,
        "datasetName": "Vascular plants",
        "publisher": "The New York Botanical Garden",
        "license": "CC0_1_0",
        "issues": [
          "MODIFIED_DATE_INVALID",
          "COORDINATE_REPROJECTED"
        ],
        "media": [
          {
            "url": "http://sweetgum.nybg.org/images3/2152/814/00483989.jpg",
            "references": null,
            "title": null,
            "creator": "The New York Botanical Garden",
            "publisher": null,
            "license": "http://creativecommons.org/licenses/by/4.0/",
            "rightsHolder": "The New York Botanical Garden"
          }
        ]
      }
    },
    {
      "type": "Feature",
      "geometry": {
        "type": "Point",
        "coordinates": [
          -43.245505,
          -22.956326
        ]
      },
      "properties": {
        "gbifID": "1928841256",
        "species": "Passiflora tetraden",
        "genus": "Passiflora",
        "family": "Passifloraceae",
        "scientificName": "Passiflora sidaefolia M.Roem.",
        "coordinateUncertaintyInMeters": "",
        "basisOfRecord": "PRESERVED_SPECIMEN",
        "eventDate": "1964-10",
        "country": null,
        "datasetName": "Vascular plants",
        "publisher": "The New York Botanical Garden",
        "license": "CC0_1_0",
        "issues": [
          "MODIFIED_DATE_INVALID"
        ],
        "media": [
          {
            "url": "http://sweetgum.nybg.org/images3/2152/813/00483988.jpg",
            "references": null,
            "title": null,
            "creator": "The New York Botanical Garden",
            "publisher": null,
            "license": "http://creativecommons.org/licenses/by/4.0/",
            "rightsHolder": "The New York Botanical Garden"
          }
        ]
      }
    },
    {
      "type": "Feature",
      "geometry": {
        "type": "Point",
        "coordinates": [
          -46.618358,
          -23.646109
        ]
      },
      "properties": {
        "gbifID": "1930496805",
        "species": "Passiflora tetraden",
        "genus": "Passiflora",
        "family": "Passifloraceae",
        "scientificName": "Passiflora sidaefolia M.Roem.",
        "coordinateUncertaintyInMeters": "",
        "basisOfRecord": "PRESERVED_SPECIMEN",
        "eventDate": "1935-09-13",
        "country": null,
        "datasetName": "Vascular plants",
        "publisher": "The New York Botanical Garden",
        "license": "CC0_1_0",
        "issues": [
          "MODIFIED_DATE_INVALID"
        ],
        "media": [
          {
            "url": "http://sweetgum.nybg.org/images3/2154/431/00884985.jpg",
            "references": null,
            "title": null,
            "creator": "The New York Botanical Garden",
            "publisher": null,
            "license": "http://creativecommons.org/licenses/by/4.0/",
            "rightsHolder": "The New York Botanical Garden"
          }
        ]
      }
    },
    {
      "type": "Feature",
      "geometry": {
        "type": "Point",
        "coordinates": [
          -41.098056,
          -20.52
        ]
      },
      "properties": {
        "gbifID": "1094833174",
        "species": "Passiflora tetraden",
        "genus": "Passiflora",
        "family": "Passifloraceae",
        "scientificName": "Passiflora sidaefolia M.Roem.",
        "coordinateUncertaintyInMeters": "",
        "basisOfRecord": "PRESERVED_SPECIMEN",
        "eventDate": "2006-08-15",
        "country": null,
        "datasetName": "",
        "publisher": "Universidade Estadual de Feira de Santana",
        "license": "CC_BY_4_0",
        "issues": [
          "CONTINENT_DERIVED_FROM_COORDINATES",
          "INSTITUTION_MATCH_FUZZY",
          "INSTITUTION_COLLECTION_MISMATCH"
        ],
        "fallback_media": {
          "url": "http://sweetgum.nybg.org/images3/2152/814/00483989.jpg",
          "references": null,
          "title": null,
          "creator": "The New York Botanical Garden",
          "publisher": null,
          "license": "http://creativecommons.org/licenses/by/4.0/",
          "rightsHolder": "The New York Botanical Garden"
        }
      }
    },
    {
      "type": "Feature",
      "geometry": {
        "type": "Point",
        "coordinates": [
          -40.549444,
          -19.9025
        ]
      },
      "properties": {
        "gbifID": "1094827971",
        "species": "Passiflora tetraden",
        "genus": "Passiflora",
        "family": "Passifloraceae",
        "scientificName": "Passiflora sidaefolia M.Roem.",
        "coordinateUncertaintyInMeters": "",
        "basisOfRecord": "PRESERVED_SPECIMEN",
        "eventDate": "2006-06-04",
        "country": null,
        "datasetName": "",
        "publisher": "Universidade Estadual de Feira de Santana",
        "license": "CC_BY_4_0",
        "issues": [
          "CONTINENT_DERIVED_FROM_COORDINATES",
          "INSTITUTION_MATCH_FUZZY",
          "INSTITUTION_COLLECTION_MISMATCH"
        ],
        "fallback_media": {
          "url": "http://sweetgum.nybg.org/images3/2152/814/00483989.jpg",
          "references": null,
          "title": null,
          "creator": "The New York Botanical Garden",
          "publisher": null,
          "license": "http://creativecommons.org/licenses/by/4.0/",
          "rightsHolder": "The New York Botanical Garden"
        }
      }
    },
    {
      "type": "Feature",
      "geometry": {
        "type": "Point",
        "coordinates": [
          -42.871389,
          -16.216944
        ]
      },
      "properties": {
        "gbifID": "1094822198",
        "species": "Passiflora tetraden",
        "genus": "Passiflora",
        "family": "Passifloraceae",
        "scientificName": "Passiflora sidaefolia M.Roem.",
        "coordinateUncertaintyInMeters": "",
        "basisOfRecord": "PRESERVED_SPECIMEN",
        "eventDate": "2006-01-10",
        "country": null,
        "datasetName": "",
        "publisher": "Universidade Estadual de Feira de Santana",
        "license": "CC_BY_4_0",
        "issues": [
          "CONTINENT_DERIVED_FROM_COORDINATES",
          "INSTITUTION_MATCH_FUZZY",
          "INSTITUTION_COLLECTION_MISMATCH"
        ],
        "fallback_media": {
          "url": "http://sweetgum.nybg.org/images3/2152/814/00483989.jpg",
          "references": null,
          "title": null,
          "creator": "The New York Botanical Garden",
          "publisher": null,
          "license": "http://creativecommons.org/licenses/by/4.0/",
          "rightsHolder": "The New York Botanical Garden"
        }
      }
    },
    {
      "type": "Feature",
      "geometry": {
        "type": "Point",
        "coordinates": [
          -39.930833,
          -13.58
        ]
      },
      "properties": {
        "gbifID": "1094777743",
        "species": "Passiflora tetraden",
        "genus": "Passiflora",
        "family": "Passifloraceae",
        "scientificName": "Passiflora sidaefolia M.Roem.",
        "coordinateUncertaintyInMeters": "",
        "basisOfRecord": "PRESERVED_SPECIMEN",
        "eventDate": "2002-04-24",
        "country": null,
        "datasetName": "",
        "publisher": "Universidade Estadual de Feira de Santana",
        "license": "CC_BY_4_0",
        "issues": [
          "CONTINENT_DERIVED_FROM_COORDINATES",
          "INSTITUTION_MATCH_FUZZY",
          "INSTITUTION_COLLECTION_MISMATCH"
        ],
        "fallback_media": {
          "url": "http://sweetgum.nybg.org/images3/2152/814/00483989.jpg",
          "references": null,
          "title": null,
          "creator": "The New York Botanical Garden",
          "publisher": null,
          "license": "http://creativecommons.org/licenses/by/4.0/",
          "rightsHolder": "The New York Botanical Garden"
        }
      }
    },
    {
      "type": "Feature",
      "geometry": {
        "type": "Point",
        "coordinates": [
          -46.97,
          -23.03
        ]
      },
      "properties": {
        "gbifID": "1086911072",
        "species": "Passiflora tetraden",
        "genus": "Passiflora",
        "family": "Passifloraceae",
        "scientificName": "Passiflora sidaefolia M.Roem.",
        "coordinateUncertaintyInMeters": "",
        "basisOfRecord": "PRESERVED_SPECIMEN",
        "eventDate": "2009-10-13",
        "country": null,
        "datasetName": "",
        "publisher": "Instituto Florestal",
        "license": "CC_BY_4_0",
        "issues": [
          "CONTINENT_DERIVED_FROM_COORDINATES",
          "INSTITUTION_MATCH_FUZZY",
          "INSTITUTION_COLLECTION_MISMATCH"
        ],
        "fallback_media": {
          "url": "http://sweetgum.nybg.org/images3/2152/814/00483989.jpg",
          "references": null,
          "title": null,
          "creator": "The New York Botanical Garden",
          "publisher": null,
          "license": "http://creativecommons.org/licenses/by/4.0/",
          "rightsHolder": "The New York Botanical Garden"
        }
      }
    }
  ]
}
